[{"id":"1101082001","district_id":"110108","name":"Lhok Keutapang","postal_code":"23718"},{"id":"1101082002","district_id":"110108","name":"Hilir","postal_code":"23717"},{"id":"1101082003","district_id":"110108","name":"Padang","postal_code":"23713"},{"id":"1101082004","district_id":"110108","name":"Hulu","postal_code":"23714"},{"id":"1101082005","district_id":"110108","name":"Jambo Apha","postal_code":"23716"},{"id":"1101082006","district_id":"110108","name":"Tepi Air","postal_code":"23712"},{"id":"1101082007","district_id":"110108","name":"Pasar","postal_code":"23711"},{"id":"1101082008","district_id":"110108","name":"Lhok Bengkuang","postal_code":"23715"},{"id":"1101082009","district_id":"110108","name":"Panton Luas","postal_code":"23711"},{"id":"1101082010","district_id":"110108","name":"Gunung Kerambil","postal_code":"23711"},{"id":"1101082011","district_id":"110108","name":"Air Berudang","postal_code":"23711"},{"id":"1101082012","district_id":"110108","name":"Batu Itam","postal_code":"23711"},{"id":"1101082013","district_id":"110108","name":"Panjupian","postal_code":"23711"},{"id":"1101082014","district_id":"110108","name":"Lhok Rukam","postal_code":"23711"},{"id":"1101082015","district_id":"110108","name":"Air Pinang","postal_code":"23711"},{"id":"1101082016","district_id":"110108","name":"Lhok Bengkuang Timur","postal_code":"23712"}]