[{"id":"1102092001","district_id":"110209","name":"Kute Lengat Pangan ","postal_code":"24671"},{"id":"1102092002","district_id":"110209","name":"Kute Lengat Selian ","postal_code":"24671"},{"id":"1102092003","district_id":"110209","name":"Tualang Baru","postal_code":"24671"},{"id":"1102092004","district_id":"110209","name":"Alur Buluh ","postal_code":"24671"},{"id":"1102092005","district_id":"110209","name":"Maha Singkil","postal_code":"24671"},{"id":"1102092006","district_id":"110209","name":"Tenembak Bintang","postal_code":"24671"},{"id":"1102092007","district_id":"110209","name":"Kute Lingga ","postal_code":"24671"},{"id":"1102092008","district_id":"110209","name":"Rikit Bur","postal_code":"24671"},{"id":"1102092010","district_id":"110209","name":"Kerukunan","postal_code":"24671"},{"id":"1102092011","district_id":"110209","name":"Lawe Dua ","postal_code":"24671"},{"id":"1102092012","district_id":"110209","name":"Rema","postal_code":"24671"},{"id":"1102092013","district_id":"110209","name":"Bambel Baru","postal_code":"24671"},{"id":"1102092014","district_id":"110209","name":"Pejuang","postal_code":"24671"},{"id":"1102092015","district_id":"110209","name":"Darussalam","postal_code":"24671"},{"id":"1102092016","district_id":"110209","name":"Amaliah","postal_code":"24671"},{"id":"1102092017","district_id":"110209","name":"Sebudi Jaya","postal_code":"24671"},{"id":"1102092018","district_id":"110209","name":"Gumpang","postal_code":"24671"},{"id":"1102092019","district_id":"110209","name":"Kute Gekhat","postal_code":"24671"},{"id":"1102092020","district_id":"110209","name":"Paye Khambung ","postal_code":"24671"},{"id":"1102092021","district_id":"110209","name":"Mbak Sako","postal_code":"24671"},{"id":"1102092022","district_id":"110209","name":"Darul Imami","postal_code":"24671"},{"id":"1102092023","district_id":"110209","name":"Rikit Bur II","postal_code":"24671"},{"id":"1102092024","district_id":"110209","name":"Kute Empat Lima","postal_code":"24671"}]