[{"id":"1102112004","district_id":"110211","name":"Titi Mas","postal_code":"24675"},{"id":"1102112005","district_id":"110211","name":"Meranti","postal_code":"24675"},{"id":"1102112006","district_id":"110211","name":"Kuta\/Kute Lang-Lang","postal_code":"24675"},{"id":"1102112007","district_id":"110211","name":"Lawe Sumur","postal_code":"24675"},{"id":"1102112008","district_id":"110211","name":"Pardamaian ","postal_code":"24675"},{"id":"1102112009","district_id":"110211","name":"Salim Pipit","postal_code":"24675"},{"id":"1102112010","district_id":"110211","name":"Penguhapan","postal_code":"24675"},{"id":"1102112011","district_id":"110211","name":"Lumban Tua","postal_code":"24675"},{"id":"1102112012","district_id":"110211","name":"Mutiara Damai","postal_code":"24675"},{"id":"1102112013","district_id":"110211","name":"Dolok Nauli","postal_code":"24675"},{"id":"1102112014","district_id":"110211","name":"Tuhi Jongkat","postal_code":"24675"},{"id":"1102112015","district_id":"110211","name":"Uning Sigugur","postal_code":"24675"},{"id":"1102112016","district_id":"110211","name":"Lumban Sitio-Tio","postal_code":"24675"},{"id":"1102112017","district_id":"110211","name":"Lawe Malum","postal_code":"24675"},{"id":"1102112018","district_id":"110211","name":"Alur Baning","postal_code":"24675"},{"id":"1102112019","district_id":"110211","name":"Lingga Alas ","postal_code":"24675"},{"id":"1102112020","district_id":"110211","name":"Khambung Tumbung ","postal_code":"24675"},{"id":"1102112021","district_id":"110211","name":"Tuah Mesade","postal_code":"24675"},{"id":"1102112022","district_id":"110211","name":"Sumukh Alas","postal_code":"24675"},{"id":"1102112023","district_id":"110211","name":"Alukh Bakhu","postal_code":"24675"},{"id":"1102112024","district_id":"110211","name":"Sepekhinding","postal_code":"24675"},{"id":"1102112025","district_id":"110211","name":"Tanoh Subukh","postal_code":"24675"},{"id":"1102112026","district_id":"110211","name":"Pinggan Mbelang","postal_code":"24675"},{"id":"1102112027","district_id":"110211","name":"Sigai Indah","postal_code":"24675"},{"id":"1102112028","district_id":"110211","name":"Ukekh Deleng","postal_code":"24675"},{"id":"1102112029","district_id":"110211","name":"Alas Mesikhat","postal_code":"24675"},{"id":"1102112030","district_id":"110211","name":"Titi Hakhapen ","postal_code":"24675"}]