[{"id":"1102122001","district_id":"110212","name":"Aunan Sepakat","postal_code":"24662"},{"id":"1102122002","district_id":"110212","name":"Lawe Penanggalan","postal_code":"24662"},{"id":"1102122003","district_id":"110212","name":"Lawe Mengkudu","postal_code":"24662"},{"id":"1102122004","district_id":"110212","name":"Jambur Lak Lak","postal_code":"24662"},{"id":"1102122005","district_id":"110212","name":"Simpang Tiga Jongar ","postal_code":"24662"},{"id":"1102122006","district_id":"110212","name":"Jongar Asli ","postal_code":"24662"},{"id":"1102122007","district_id":"110212","name":"Ketambe","postal_code":"24662"},{"id":"1102122008","district_id":"110212","name":"Rumah Bundar","postal_code":"24662"},{"id":"1102122009","district_id":"110212","name":"Penyeberangan Cingkam","postal_code":"24662"},{"id":"1102122010","district_id":"110212","name":"Deleng Damar","postal_code":"24662"},{"id":"1102122011","district_id":"110212","name":"Bintang Bener","postal_code":"24662"},{"id":"1102122012","district_id":"110212","name":"Suka Rimbun","postal_code":"24662"},{"id":"1102122013","district_id":"110212","name":"Lawe Aunan","postal_code":"24662"},{"id":"1102122014","district_id":"110212","name":"Bener Bepapah ","postal_code":"24662"},{"id":"1102122015","district_id":"110212","name":"Penungkunen","postal_code":"24662"},{"id":"1102122016","district_id":"110212","name":"Datok Pining","postal_code":"24662"},{"id":"1102122017","district_id":"110212","name":"Kati Maju","postal_code":"24662"},{"id":"1102122018","district_id":"110212","name":"Leuser ","postal_code":"24662"},{"id":"1102122019","district_id":"110212","name":"Jati Sara ","postal_code":"24662"},{"id":"1102122020","district_id":"110212","name":"Bukit Mbakhu","postal_code":"24662"},{"id":"1102122021","district_id":"110212","name":"Kayu Metangur ","postal_code":"24662"},{"id":"1102122022","district_id":"110212","name":"Lawe Sembekan","postal_code":"24662"},{"id":"1102122023","district_id":"110212","name":"Lawe Beringin ","postal_code":"24662"},{"id":"1102122024","district_id":"110212","name":"Lawe Ger Ger","postal_code":"24662"},{"id":"1102122025","district_id":"110212","name":"Simpur Jaya","postal_code":"24662"}]