[{"id":"1102012001","district_id":"110201","name":"Engkeran","postal_code":"24661"},{"id":"1102012002","district_id":"110201","name":"Rumah Kampung","postal_code":"24661"},{"id":"1102012004","district_id":"110201","name":"Pasir Bangun","postal_code":"24661"},{"id":"1102012006","district_id":"110201","name":"Kubu","postal_code":"24661"},{"id":"1102012007","district_id":"110201","name":"Lawe Kongker ","postal_code":"24661"},{"id":"1102012008","district_id":"110201","name":"Kuta Cingkam II","postal_code":"24661"},{"id":"1102012009","district_id":"110201","name":"Muara Baru","postal_code":"24661"},{"id":"1102012011","district_id":"110201","name":"Kuta Batu I","postal_code":"24661"},{"id":"1102012012","district_id":"110201","name":"Kuta Cingkam I","postal_code":"24661"},{"id":"1102012013","district_id":"110201","name":"Kuta Batu II","postal_code":"24661"},{"id":"1102012014","district_id":"110201","name":"Lawe Sempilang","postal_code":"24661"},{"id":"1102012015","district_id":"110201","name":"Perapat Batu Nunggul","postal_code":"24661"},{"id":"1102012016","district_id":"110201","name":"Pulo Sepang","postal_code":"24661"},{"id":"1102012017","district_id":"110201","name":"Rih Mbelang ","postal_code":"24661"},{"id":"1102012018","district_id":"110201","name":"Kute Batu Baru ","postal_code":"24661"},{"id":"1102012019","district_id":"110201","name":"Darul Amin","postal_code":"24661"},{"id":"1102012020","district_id":"110201","name":"Lawe Lubang Indah","postal_code":"24661"},{"id":"1102012021","district_id":"110201","name":"Batu Hamparan","postal_code":"24661"},{"id":"1102012022","district_id":"110201","name":"Paye Munje","postal_code":"24661"},{"id":"1102012023","district_id":"110201","name":"Pulo Ndapdap ","postal_code":"24661"},{"id":"1102012024","district_id":"110201","name":"Pasir Nunggul","postal_code":"24661"},{"id":"1102012025","district_id":"110201","name":"Cingkham Mekhanggun","postal_code":"24661"},{"id":"1102012026","district_id":"110201","name":"Pintu Khimbe","postal_code":"24661"},{"id":"1102012027","district_id":"110201","name":"Lawe Kongker Hilir ","postal_code":"24661"},{"id":"1102012028","district_id":"110201","name":"Pulo Gadung","postal_code":"24661"},{"id":"1102012029","district_id":"110201","name":"Pasikh Pehkmate ","postal_code":"24661"},{"id":"1102012030","district_id":"110201","name":"Pasikh Nunang","postal_code":"24661"},{"id":"1102012031","district_id":"110201","name":"Deleng Kukusen","postal_code":"24661"}]