[{"id":"1103022001","district_id":"110302","name":"Blang Keumahang ","postal_code":"24459"},{"id":"1103022002","district_id":"110302","name":"Blang Jambee","postal_code":"24459"},{"id":"1103022003","district_id":"110302","name":"Keumuneng","postal_code":"24459"},{"id":"1103022004","district_id":"110302","name":"Ladang Baro","postal_code":"24459"},{"id":"1103022005","district_id":"110302","name":"Buket Panyang","postal_code":"24459"},{"id":"1103022006","district_id":"110302","name":"Seuneubok Rambong","postal_code":"24459"},{"id":"1103022007","district_id":"110302","name":"Seuneubok Baro","postal_code":"24459"},{"id":"1103022008","district_id":"110302","name":"Blang Mideun","postal_code":"24459"},{"id":"1103022009","district_id":"110302","name":"Paya Bakong","postal_code":"24459"},{"id":"1103022010","district_id":"110302","name":"Teupin Raya","postal_code":"24459"},{"id":"1103022011","district_id":"110302","name":"Lhok Rambong","postal_code":"24459"},{"id":"1103022012","district_id":"110302","name":"Julok Tunong","postal_code":"24459"},{"id":"1103022013","district_id":"110302","name":"Ulee Ateung","postal_code":"24459"},{"id":"1103022014","district_id":"110302","name":"Ulee Blang","postal_code":"24459"},{"id":"1103022015","district_id":"110302","name":"Labuhan ","postal_code":"24459"},{"id":"1103022016","district_id":"110302","name":"Naleung","postal_code":"24459"},{"id":"1103022017","district_id":"110302","name":"Mane Rampak","postal_code":"24459"},{"id":"1103022018","district_id":"110302","name":"Matang","postal_code":"24459"},{"id":"1103022019","district_id":"110302","name":"Blang Uyok","postal_code":"24459"},{"id":"1103022020","district_id":"110302","name":"Blang Pauh\/Paoh Satu","postal_code":"24459"},{"id":"1103022021","district_id":"110302","name":"Blang Pauh\/Paoh Dua","postal_code":"24459"},{"id":"1103022022","district_id":"110302","name":"Ulee Tanoh","postal_code":"24459"},{"id":"1103022023","district_id":"110302","name":"Keude Kuta Binjei","postal_code":"24459"},{"id":"1103022024","district_id":"110302","name":"Bukit Seroja ","postal_code":"24459"},{"id":"1103022025","district_id":"110302","name":"Kuala Geulumpang","postal_code":"24459"},{"id":"1103022026","district_id":"110302","name":"Gampong Baro","postal_code":"24459"},{"id":"1103022027","district_id":"110302","name":"Tumpok Teungoh","postal_code":"24459"},{"id":"1103022028","district_id":"110302","name":"Seumatang","postal_code":"24459"},{"id":"1103022029","district_id":"110302","name":"Ujong Tunong","postal_code":"24459"},{"id":"1103022030","district_id":"110302","name":"Bukit Dindeng","postal_code":"24459"},{"id":"1103022031","district_id":"110302","name":"Paya Pasi","postal_code":"24459"},{"id":"1103022032","district_id":"110302","name":"Alue Cek Doi","postal_code":"24459"},{"id":"1103022033","district_id":"110302","name":"Blang Gleum","postal_code":"24459"},{"id":"1103022034","district_id":"110302","name":"Tanjong Tok Blang","postal_code":"24459"},{"id":"1103022035","district_id":"110302","name":"Buket Makmu ","postal_code":"24459"},{"id":"1103022036","district_id":"110302","name":"Lhok Seuntang","postal_code":"24459"},{"id":"1103022037","district_id":"110302","name":"Simpang Lhee","postal_code":"24459"}]