[{"id":"1103212001","district_id":"110321","name":"Meudang Ara ","postal_code":"24468"},{"id":"1103212002","district_id":"110321","name":"Gunong Putoh","postal_code":"24468"},{"id":"1103212003","district_id":"110321","name":"Meunasah Aroen ","postal_code":"24468"},{"id":"1103212004","district_id":"110321","name":"Keude Dua","postal_code":"24468"},{"id":"1103212005","district_id":"110321","name":"Seuneubok Lapang","postal_code":"24468"},{"id":"1103212006","district_id":"110321","name":"Alue Jangat","postal_code":"24468"},{"id":"1103212007","district_id":"110321","name":"Buket Peulawi","postal_code":"24468"},{"id":"1103212008","district_id":"110321","name":"Lhok Panjoe ","postal_code":"24468"},{"id":"1103212009","district_id":"110321","name":"Seuneubok Aceh Baro","postal_code":"24468"},{"id":"1103212010","district_id":"110321","name":"Pulo Blang","postal_code":"24468"},{"id":"1103212011","district_id":"110321","name":"Lhok Dalam","postal_code":"24468"},{"id":"1103212012","district_id":"110321","name":"Lhok Leumak","postal_code":"24468"},{"id":"1103212013","district_id":"110321","name":"Seuneubok Kulam","postal_code":"24468"},{"id":"1103212014","district_id":"110321","name":"Panton Meurebo ","postal_code":"24468"},{"id":"1103212015","district_id":"110321","name":"Seuneubok Teungoh","postal_code":"24468"},{"id":"1103212016","district_id":"110321","name":"Lhok Meureu","postal_code":"24468"}]