[{"id":"1105102001","district_id":"110510","name":"Blang Luah LM","postal_code":"23682"},{"id":"1105102002","district_id":"110510","name":"Cot Rambong","postal_code":"23682"},{"id":"1105102003","district_id":"110510","name":"Lhok Malee","postal_code":"23682"},{"id":"1105102004","district_id":"110510","name":"Pasi Malee","postal_code":"23682"},{"id":"1105102005","district_id":"110510","name":"Napai","postal_code":"23682"},{"id":"1105102006","district_id":"110510","name":"Blang Cot Mameh","postal_code":"23682"},{"id":"1105102007","district_id":"110510","name":"Blang Cot Rubek","postal_code":"23682"},{"id":"1105102008","district_id":"110510","name":"Alue Leuhob","postal_code":"23682"},{"id":"1105102009","district_id":"110510","name":"Leubok Pasi Ara","postal_code":"23682"},{"id":"1105102010","district_id":"110510","name":"Ulee Pasi Ara","postal_code":"23682"},{"id":"1105102011","district_id":"110510","name":"Cot Lagan Lm","postal_code":"23682"},{"id":"1105102012","district_id":"110510","name":"Lueng Baro","postal_code":"23682"},{"id":"1105102013","district_id":"110510","name":"Kulam Kaju","postal_code":"23682"},{"id":"1105102014","district_id":"110510","name":"Alue Perman","postal_code":"23682"},{"id":"1105102015","district_id":"110510","name":"Peuleukueng","postal_code":"23682"},{"id":"1105102016","district_id":"110510","name":"Pasi Jeut","postal_code":"23682"},{"id":"1105102017","district_id":"110510","name":"Mon Pasong","postal_code":"23682"},{"id":"1105102018","district_id":"110510","name":"Pasi Mali","postal_code":"23682"},{"id":"1105102019","district_id":"110510","name":"Karak","postal_code":"23682"},{"id":"1105102020","district_id":"110510","name":"Ie Sayang","postal_code":"23682"},{"id":"1105102021","district_id":"110510","name":"Ulee Pulo","postal_code":"23682"},{"id":"1105102022","district_id":"110510","name":"Pasi Panyang","postal_code":"23682"},{"id":"1105102023","district_id":"110510","name":"Alue Keumuning","postal_code":"23682"},{"id":"1105102024","district_id":"110510","name":"Simpang Teumarom","postal_code":"23682"}]