[{"id":"1106122001","district_id":"110612","name":"Angan","postal_code":"23374"},{"id":"1106122002","district_id":"110612","name":"Lam Peudaya","postal_code":"23374"},{"id":"1106122003","district_id":"110612","name":"Lambada Peukan","postal_code":"23374"},{"id":"1106122004","district_id":"110612","name":"Lambiheu La ","postal_code":"23374"},{"id":"1106122005","district_id":"110612","name":"Lambaro Sukon","postal_code":"23374"},{"id":"1106122006","district_id":"110612","name":"Miruek Taman","postal_code":"23374"},{"id":"1106122007","district_id":"110612","name":"Suleue ","postal_code":"23374"},{"id":"1106122008","district_id":"110612","name":"Gampong Cot","postal_code":"23374"},{"id":"1106122009","district_id":"110612","name":"Gampong Blang","postal_code":"23374"},{"id":"1106122010","district_id":"110612","name":"Lampuja ","postal_code":"23374"},{"id":"1106122011","district_id":"110612","name":"Tanjung Deah ","postal_code":"23374"},{"id":"1106122012","district_id":"110612","name":"Limpok","postal_code":"23374"},{"id":"1106122013","district_id":"110612","name":"Lampuuk ","postal_code":"23374"},{"id":"1106122014","district_id":"110612","name":"Lam Ujong","postal_code":"23374"},{"id":"1106122015","district_id":"110612","name":"Lam Gawe ","postal_code":"23374"},{"id":"1106122016","district_id":"110612","name":"Berabung ","postal_code":"23374"},{"id":"1106122017","district_id":"110612","name":"Lamtimpeung ","postal_code":"23374"},{"id":"1106122018","district_id":"110612","name":"Tungkop","postal_code":"23374"},{"id":"1106122019","district_id":"110612","name":"Tanjong Seulamat","postal_code":"23374"},{"id":"1106122020","district_id":"110612","name":"Lamkeunung ","postal_code":"23374"},{"id":"1106122021","district_id":"110612","name":"Lam Duroy","postal_code":"23374"},{"id":"1106122022","district_id":"110612","name":"Lam Klat","postal_code":"23374"},{"id":"1106122023","district_id":"110612","name":"Lambiheu Siem","postal_code":"23374"},{"id":"1106122024","district_id":"110612","name":"Lambitra ","postal_code":"23374"},{"id":"1106122025","district_id":"110612","name":"Lie Eue","postal_code":"23374"},{"id":"1106122026","district_id":"110612","name":"Krueng Kalee","postal_code":"23374"},{"id":"1106122027","district_id":"110612","name":"Lam Asan","postal_code":"23374"},{"id":"1106122028","district_id":"110612","name":"Lam Reh","postal_code":"23374"},{"id":"1106122029","district_id":"110612","name":"Siem","postal_code":"23374"}]