[{"id":"1106042001","district_id":"110604","name":"Peukan Seulimeum","postal_code":"23951"},{"id":"1106042002","district_id":"110604","name":"Keunaloi","postal_code":"23951"},{"id":"1106042003","district_id":"110604","name":"Lhieb","postal_code":"23951"},{"id":"1106042004","district_id":"110604","name":"Alue Gintong","postal_code":"23951"},{"id":"1106042005","district_id":"110604","name":"Gampong Seulimeum","postal_code":"23951"},{"id":"1106042006","district_id":"110604","name":"Data Gaseu \/ Gaseue","postal_code":"23951"},{"id":"1106042007","district_id":"110604","name":"Rabo","postal_code":"23951"},{"id":"1106042008","district_id":"110604","name":"Kampong\/Gampong Raya","postal_code":"23951"},{"id":"1106042009","district_id":"110604","name":"Lamjruen","postal_code":"23951"},{"id":"1106042010","district_id":"110604","name":"Buga","postal_code":"23951"},{"id":"1106042011","district_id":"110604","name":"Jawie","postal_code":"23951"},{"id":"1106042012","district_id":"110604","name":"Alue Rindang","postal_code":"23951"},{"id":"1106042013","district_id":"110604","name":"Iboh Tunong","postal_code":"23951"},{"id":"1106042014","district_id":"110604","name":"Iboh Tanjong","postal_code":"23951"},{"id":"1106042015","district_id":"110604","name":"Seuneubok","postal_code":"23951"},{"id":"1106042016","district_id":"110604","name":"Meunasah Baro","postal_code":"23951"},{"id":"1106042017","district_id":"110604","name":"Meunasah Tunong","postal_code":"23951"},{"id":"1106042018","district_id":"110604","name":"Batee Lhee","postal_code":"23951"},{"id":"1106042019","district_id":"110604","name":"Mangeu","postal_code":"23951"},{"id":"1106042020","district_id":"110604","name":"Bayu","postal_code":"23951"},{"id":"1106042021","district_id":"110604","name":"Ayon","postal_code":"23951"},{"id":"1106042022","district_id":"110604","name":"Lamteuba Droe","postal_code":"23951"},{"id":"1106042023","district_id":"110604","name":"Pulo","postal_code":"23951"},{"id":"1106042024","district_id":"110604","name":"Lampantee","postal_code":"23951"},{"id":"1106042025","district_id":"110604","name":"Lambada","postal_code":"23951"},{"id":"1106042026","district_id":"110604","name":"Blang Tingkeum","postal_code":"23951"},{"id":"1106042027","district_id":"110604","name":"Ateuk","postal_code":"23951"},{"id":"1106042028","district_id":"110604","name":"Lam Apeng","postal_code":"23951"},{"id":"1106042029","district_id":"110604","name":"Meurah","postal_code":"23951"},{"id":"1106042030","district_id":"110604","name":"Lampanah","postal_code":"23951"},{"id":"1106042031","district_id":"110604","name":"Ujong Mesjid Lampanah","postal_code":"23951"},{"id":"1106042032","district_id":"110604","name":"Ujong Keupula","postal_code":"23951"},{"id":"1106042033","district_id":"110604","name":"Leungah","postal_code":"23951"},{"id":"1106042034","district_id":"110604","name":"Beureunut","postal_code":"23951"},{"id":"1106042035","district_id":"110604","name":"Meunasah Jeumpa","postal_code":"23951"},{"id":"1106042036","district_id":"110604","name":"Pinto Khop","postal_code":"23951"},{"id":"1106042037","district_id":"110604","name":"Bak Seutui","postal_code":"23951"},{"id":"1106042038","district_id":"110604","name":"Bak Aghu","postal_code":"23951"},{"id":"1106042039","district_id":"110604","name":"Kayee Adang","postal_code":"23951"},{"id":"1106042040","district_id":"110604","name":"Lamkuk","postal_code":"23951"},{"id":"1106042041","district_id":"110604","name":"Ujong Mesjid Tanoh Abee","postal_code":"23951"},{"id":"1106042042","district_id":"110604","name":"Lamcarak","postal_code":"23951"},{"id":"1106042043","district_id":"110604","name":"Capeung Dayah","postal_code":"23951"},{"id":"1106042044","district_id":"110604","name":"Capeung Baroh","postal_code":"23951"},{"id":"1106042045","district_id":"110604","name":"Lampisang Dayah","postal_code":"23951"},{"id":"1106042046","district_id":"110604","name":"Lampisang Tunong","postal_code":"23951"},{"id":"1106042047","district_id":"110604","name":"Lampisang Teungoh","postal_code":"23951"}]