[{"id":"1106202001","district_id":"110620","name":"Cadek","postal_code":"23373"},{"id":"1106202002","district_id":"110620","name":"Kajhu","postal_code":"23373"},{"id":"1106202003","district_id":"110620","name":"Baet","postal_code":"23373"},{"id":"1106202004","district_id":"110620","name":"Blang Krueng","postal_code":"23373"},{"id":"1106202005","district_id":"110620","name":"Klieng Muria","postal_code":"23373"},{"id":"1106202006","district_id":"110620","name":"Lam Bada Lhok","postal_code":"23373"},{"id":"1106202007","district_id":"110620","name":"Lampineung","postal_code":"23373"},{"id":"1106202008","district_id":"110620","name":"Lam Asan","postal_code":"23373"},{"id":"1106202009","district_id":"110620","name":"Labuy","postal_code":"23373"},{"id":"1106202010","district_id":"110620","name":"Lam Ujong","postal_code":"23373"},{"id":"1106202011","district_id":"110620","name":"Klieng Cot Aron","postal_code":"23373"},{"id":"1106202012","district_id":"110620","name":"Cot Paya","postal_code":"23373"},{"id":"1106202013","district_id":"110620","name":"Miruk Lam Reudep","postal_code":"23373"}]