[{"id":"1106172001","district_id":"110617","name":"Lambaro Samahani","postal_code":"23365"},{"id":"1106172002","district_id":"110617","name":"Lam Ara Cut","postal_code":"23365"},{"id":"1106172003","district_id":"110617","name":"Lam Ara Engkit","postal_code":"23365"},{"id":"1106172004","district_id":"110617","name":"Lam Ara Tunong","postal_code":"23365"},{"id":"1106172005","district_id":"110617","name":"Leupung Riwat","postal_code":"23365"},{"id":"1106172006","district_id":"110617","name":"Tumbo Baro","postal_code":"23365"},{"id":"1106172007","district_id":"110617","name":"Leupung Cut","postal_code":"23365"},{"id":"1106172008","district_id":"110617","name":"Lamsiteh Cot","postal_code":"23365"},{"id":"1106172009","district_id":"110617","name":"Reuleung Karieng","postal_code":"23365"},{"id":"1106172010","district_id":"110617","name":"Leubok Buni ","postal_code":"23365"},{"id":"1106172011","district_id":"110617","name":"Leubok Batee ","postal_code":"23365"},{"id":"1106172012","district_id":"110617","name":"Bunghu ","postal_code":"23365"},{"id":"1106172013","district_id":"110617","name":"Teu Dayah ","postal_code":"23365"},{"id":"1106172014","district_id":"110617","name":"Leupung Rayeuk","postal_code":"23365"},{"id":"1106172015","district_id":"110617","name":"Reuleung Glumpang ","postal_code":"23365"}]