[{"id":"1106052001","district_id":"110605","name":"Mata Ie","postal_code":"23362"},{"id":"1106052002","district_id":"110605","name":"Gampong Baroh","postal_code":"23362"},{"id":"1106052003","district_id":"110605","name":"Lampaseh Lhok","postal_code":"23362"},{"id":"1106052004","district_id":"110605","name":"Lampaseh Krueng","postal_code":"23362"},{"id":"1106052005","district_id":"110605","name":"Lamnga ","postal_code":"23362"},{"id":"1106052006","district_id":"110605","name":"Dayah Daboh","postal_code":"23362"},{"id":"1106052007","district_id":"110605","name":"Weulhok ","postal_code":"23362"},{"id":"1106052008","district_id":"110605","name":"Kp. Alue","postal_code":"23362"},{"id":"1106052009","district_id":"110605","name":"Weu Krueng","postal_code":"23362"},{"id":"1106052010","district_id":"110605","name":"Seuban Cot","postal_code":"23362"},{"id":"1106052011","district_id":"110605","name":"Bak Dilib","postal_code":"23362"},{"id":"1106052012","district_id":"110605","name":"Ulee Lhat","postal_code":"23362"},{"id":"1106052015","district_id":"110605","name":"Lamraya ","postal_code":"23362"},{"id":"1106052016","district_id":"110605","name":"Lamme Garot","postal_code":"23362"},{"id":"1106052017","district_id":"110605","name":"Weu Bada","postal_code":"23362"},{"id":"1106052018","district_id":"110605","name":"Meunasah Tutong","postal_code":"23362"},{"id":"1106052019","district_id":"110605","name":"Empee Tanong ","postal_code":"23362"},{"id":"1106052020","district_id":"110605","name":"Bak Cirih","postal_code":"23362"},{"id":"1106052021","district_id":"110605","name":"Warabo","postal_code":"23362"},{"id":"1106052022","district_id":"110605","name":"Teubang Phui Mesjid","postal_code":"23362"},{"id":"1106052023","district_id":"110605","name":"Teubang Phui Baro","postal_code":"23362"},{"id":"1106052024","district_id":"110605","name":"Bira Cot","postal_code":"23362"},{"id":"1106052025","district_id":"110605","name":"Bira Lhok","postal_code":"23362"},{"id":"1106052026","district_id":"110605","name":"Bung Tujoh ","postal_code":"23362"},{"id":"1106052027","district_id":"110605","name":"Peurumping","postal_code":"23362"},{"id":"1106052028","district_id":"110605","name":"Atong","postal_code":"23362"},{"id":"1106052029","district_id":"110605","name":"Reudeup","postal_code":"23362"},{"id":"1106052042","district_id":"110605","name":"Seubam Lhok ","postal_code":"23362"},{"id":"1106052043","district_id":"110605","name":"Seumet ","postal_code":"23362"},{"id":"1106052044","district_id":"110605","name":"Cot Seunong","postal_code":"23362"},{"id":"1106052045","district_id":"110605","name":"Mon Ara","postal_code":"23362"},{"id":"1106052046","district_id":"110605","name":"Cot Lhok","postal_code":"23362"},{"id":"1106052047","district_id":"110605","name":"Cot Lampoh Soh","postal_code":"23362"},{"id":"1106052048","district_id":"110605","name":"Bueng Raya ","postal_code":"23362"},{"id":"1106052049","district_id":"110605","name":"Piyeung Lhang","postal_code":"23362"},{"id":"1106052050","district_id":"110605","name":"Piyeung Manee","postal_code":"23362"},{"id":"1106052051","district_id":"110605","name":"Bueng Daroh ","postal_code":"23362"},{"id":"1106052052","district_id":"110605","name":"Kuweu ","postal_code":"23362"},{"id":"1106052053","district_id":"110605","name":"Peyeung Datu","postal_code":"23362"}]