[{"id":"1107032001","district_id":"110703","name":"Dayah Tuha","postal_code":"24152"},{"id":"1107032002","district_id":"110703","name":"Dayah Baroh","postal_code":"24152"},{"id":"1107032003","district_id":"110703","name":"Bintang Hu","postal_code":"24152"},{"id":"1107032004","district_id":"110703","name":"Pulo Tukok","postal_code":"24152"},{"id":"1107032005","district_id":"110703","name":"Pulo Bungong","postal_code":"24152"},{"id":"1107032006","district_id":"110703","name":"Geunteng Barat","postal_code":"24152"},{"id":"1107032007","district_id":"110703","name":"Geunteng Timur","postal_code":"24152"},{"id":"1107032008","district_id":"110703","name":"Calong Cut","postal_code":"24152"},{"id":"1107032009","district_id":"110703","name":"Glumpang Lhee","postal_code":"24152"},{"id":"1107032010","district_id":"110703","name":"Aron","postal_code":"24152"},{"id":"1107032011","district_id":"110703","name":"Tuha","postal_code":"24152"},{"id":"1107032012","district_id":"110703","name":"Dayah","postal_code":"24152"},{"id":"1107032013","district_id":"110703","name":"Mesjid","postal_code":"24152"},{"id":"1107032014","district_id":"110703","name":"Meucat","postal_code":"24152"},{"id":"1107032015","district_id":"110703","name":"Teupin Raya","postal_code":"24152"},{"id":"1107032016","district_id":"110703","name":"Rungkom","postal_code":"24152"},{"id":"1107032017","district_id":"110703","name":"Mee","postal_code":"24152"},{"id":"1107032018","district_id":"110703","name":"Pulo Pande","postal_code":"24152"},{"id":"1107032019","district_id":"110703","name":"Seulatan","postal_code":"24152"},{"id":"1107032020","district_id":"110703","name":"Alue Lada","postal_code":"24152"},{"id":"1107032021","district_id":"110703","name":"Teupin Jeue","postal_code":"24152"},{"id":"1107032022","district_id":"110703","name":"Neuheun","postal_code":"24152"},{"id":"1107032023","district_id":"110703","name":"Crueng","postal_code":"24152"},{"id":"1107032024","district_id":"110703","name":"Kareung","postal_code":"24152"},{"id":"1107032025","district_id":"110703","name":"Kulee","postal_code":"24152"},{"id":"1107032026","district_id":"110703","name":"Kulam","postal_code":"24152"},{"id":"1107032027","district_id":"110703","name":"Awe","postal_code":"24152"},{"id":"1107032028","district_id":"110703","name":"Pasi Beurandeh","postal_code":"24152"}]