[{"id":"1107222001","district_id":"110722","name":"U Gadeng","postal_code":"24165"},{"id":"1107222002","district_id":"110722","name":"Kumbang","postal_code":"24165"},{"id":"1107222003","district_id":"110722","name":"Sagoe","postal_code":"24165"},{"id":"1107222004","district_id":"110722","name":"Dayah Keumala","postal_code":"24165"},{"id":"1107222005","district_id":"110722","name":"Jujiem ","postal_code":"24165"},{"id":"1107222006","district_id":"110722","name":"Rheng","postal_code":"24165"},{"id":"1107222007","district_id":"110722","name":"Cot Nuran","postal_code":"24165"},{"id":"1107222008","district_id":"110722","name":"Pulo Pantee ","postal_code":"24165"},{"id":"1107222009","district_id":"110722","name":"Pulo Teungoh ","postal_code":"24165"},{"id":"1107222010","district_id":"110722","name":"Asan Nicah","postal_code":"24165"},{"id":"1107222011","district_id":"110722","name":"Papeun ","postal_code":"24165"},{"id":"1107222012","district_id":"110722","name":"Pulo Seupeng","postal_code":"24165"},{"id":"1107222013","district_id":"110722","name":"Mesjid Nicah","postal_code":"24165"},{"id":"1107222014","district_id":"110722","name":"Tunong","postal_code":"24165"},{"id":"1107222015","district_id":"110722","name":"Pako ","postal_code":"24165"},{"id":"1107222016","district_id":"110722","name":"Pulo Baro","postal_code":"24165"},{"id":"1107222017","district_id":"110722","name":"Cot Kreh","postal_code":"24165"},{"id":"1107222031","district_id":"110722","name":"Pulo Cahi ","postal_code":"24165"}]