[{"id":"1108152001","district_id":"110815","name":"Lagang","postal_code":"24377"},{"id":"1108152002","district_id":"110815","name":"Abeuk Reuling","postal_code":"24377"},{"id":"1108152003","district_id":"110815","name":"Lhok Krek","postal_code":"24377"},{"id":"1108152004","district_id":"110815","name":"Lhok Merbo","postal_code":"24377"},{"id":"1108152005","district_id":"110815","name":"Gle Dagang","postal_code":"24377"},{"id":"1108152006","district_id":"110815","name":"Kuta Meuligoe","postal_code":"24377"},{"id":"1108152007","district_id":"110815","name":"Gampong Teungoh","postal_code":"24377"},{"id":"1108152008","district_id":"110815","name":"Babah Buloh","postal_code":"24377"},{"id":"1108152009","district_id":"110815","name":"Meunasah Pulo","postal_code":"24377"},{"id":"1108152010","district_id":"110815","name":"Punteuet","postal_code":"24377"},{"id":"1108152011","district_id":"110815","name":"Pante Jaloh","postal_code":"24377"},{"id":"1108152012","district_id":"110815","name":"Lhok Kuyun","postal_code":"24377"},{"id":"1108152013","district_id":"110815","name":"Blang Reuling","postal_code":"24377"},{"id":"1108152014","district_id":"110815","name":"Lhok Gajah","postal_code":"24377"},{"id":"1108152015","district_id":"110815","name":"Teupin Rusep","postal_code":"24377"},{"id":"1108152016","district_id":"110815","name":"Ulee Geudong","postal_code":"24377"},{"id":"1108152017","district_id":"110815","name":"Tanjong Keumala","postal_code":"24377"},{"id":"1108152018","district_id":"110815","name":"Cot Kumuneng","postal_code":"24377"},{"id":"1108152019","district_id":"110815","name":"Cot Lambideng","postal_code":"24377"},{"id":"1108152020","district_id":"110815","name":"Paya Gaboh","postal_code":"24377"},{"id":"1108152021","district_id":"110815","name":"Paya Rabo Lhok","postal_code":"24377"},{"id":"1108152022","district_id":"110815","name":"Paya Rabo Timu","postal_code":"24377"},{"id":"1108152023","district_id":"110815","name":"Lancok","postal_code":"24377"},{"id":"1108152024","district_id":"110815","name":"Rambong Payong","postal_code":"24377"},{"id":"1108152025","district_id":"110815","name":"Lhok Bayu","postal_code":"24377"},{"id":"1108152026","district_id":"110815","name":"Krueng Baro","postal_code":"24377"},{"id":"1108152027","district_id":"110815","name":"Babah Krueng","postal_code":"24377"},{"id":"1108152028","district_id":"110815","name":"Jurong","postal_code":"24377"},{"id":"1108152029","district_id":"110815","name":"Blang Manyak","postal_code":"24377"},{"id":"1108152030","district_id":"110815","name":"Lhok Jok","postal_code":"24377"},{"id":"1108152031","district_id":"110815","name":"Blang Teurakan","postal_code":"24377"},{"id":"1108152032","district_id":"110815","name":"Sawang","postal_code":"24377"},{"id":"1108152033","district_id":"110815","name":"Riseh Baroh","postal_code":"24377"},{"id":"1108152034","district_id":"110815","name":"Riseh Teungoh","postal_code":"24377"},{"id":"1108152035","district_id":"110815","name":"Riseh Tunong","postal_code":"24377"},{"id":"1108152036","district_id":"110815","name":"Gunci","postal_code":"24377"},{"id":"1108152037","district_id":"110815","name":"Kubu","postal_code":"24377"},{"id":"1108152038","district_id":"110815","name":"Blang Cut","postal_code":"24377"},{"id":"1108152039","district_id":"110815","name":"Lhok Cut","postal_code":"24377"}]