[{"id":"1108172001","district_id":"110817","name":"Cot Girek","postal_code":"24352"},{"id":"1108172002","district_id":"110817","name":"Lhok Meurbo","postal_code":"24352"},{"id":"1108172003","district_id":"110817","name":"Kp. Bantan","postal_code":"24352"},{"id":"1108172004","district_id":"110817","name":"Alue Seumambu","postal_code":"24352"},{"id":"1108172005","district_id":"110817","name":"Ulee Gampong","postal_code":"24352"},{"id":"1108172006","district_id":"110817","name":"Batu XII","postal_code":"24352"},{"id":"1108172007","district_id":"110817","name":"Kp. Tempel","postal_code":"24352"},{"id":"1108172008","district_id":"110817","name":"Alue Leuhob","postal_code":"24352"},{"id":"1108172009","district_id":"110817","name":"Seuneubok Baro","postal_code":"24352"},{"id":"1108172010","district_id":"110817","name":"Alue Drien","postal_code":"24352"},{"id":"1108172011","district_id":"110817","name":"Cempeudak","postal_code":"24352"},{"id":"1108172012","district_id":"110817","name":"Matang Teungoh","postal_code":"24352"},{"id":"1108172013","district_id":"110817","name":"Pucok Alue","postal_code":"24352"},{"id":"1108172014","district_id":"110817","name":"U Baro","postal_code":"24352"},{"id":"1108172015","district_id":"110817","name":"Trieng","postal_code":"24352"},{"id":"1108172016","district_id":"110817","name":"Lhok Reuhat","postal_code":"24352"},{"id":"1108172017","district_id":"110817","name":"Lueng Baro","postal_code":"24352"},{"id":"1108172018","district_id":"110817","name":"Jeulikat","postal_code":"24352"},{"id":"1108172019","district_id":"110817","name":"Gampong Ara","postal_code":"24352"},{"id":"1108172020","district_id":"110817","name":"Beurandang Dayah","postal_code":"24352"},{"id":"1108172021","district_id":"110817","name":"Beurandang Krueng","postal_code":"24352"},{"id":"1108172022","district_id":"110817","name":"Seupeng","postal_code":"24352"},{"id":"1108172023","district_id":"110817","name":"Beurandang Asan","postal_code":"24352"},{"id":"1108172024","district_id":"110817","name":"Drien II","postal_code":"24352"}]