[{"id":"1109012007","district_id":"110901","name":"Wel Wel","postal_code":"23894"},{"id":"1109012008","district_id":"110901","name":"Kampung Aie","postal_code":"23894"},{"id":"1109012009","district_id":"110901","name":"Lauree","postal_code":"23894"},{"id":"1109012010","district_id":"110901","name":"Lamayang","postal_code":"23894"},{"id":"1109012011","district_id":"110901","name":"Lakubang","postal_code":"23894"},{"id":"1109012012","district_id":"110901","name":"Lambaya","postal_code":"23894"},{"id":"1109012013","district_id":"110901","name":"Dihit","postal_code":"23894"},{"id":"1109012016","district_id":"110901","name":"Latitik","postal_code":"23894"},{"id":"1109012017","district_id":"110901","name":"Wellangkum","postal_code":"23894"},{"id":"1109012018","district_id":"110901","name":"Kuta Baru","postal_code":"23894"},{"id":"1109012019","district_id":"110901","name":"Sebbe","postal_code":"23894"},{"id":"1109012020","district_id":"110901","name":"Suak Baru","postal_code":"23894"},{"id":"1109012021","district_id":"110901","name":"Luan Sorep","postal_code":"23894"},{"id":"1109012022","district_id":"110901","name":"Putra Jaya","postal_code":"23894"},{"id":"1109012023","district_id":"110901","name":"Lauke","postal_code":"23894"},{"id":"1109012024","district_id":"110901","name":"Situfa Jaya","postal_code":"23894"}]