[{"id":"1110042001","district_id":"111004","name":"Pasar ","postal_code":"24785"},{"id":"1110042002","district_id":"111004","name":"Ujung","postal_code":"24785"},{"id":"1110042003","district_id":"111004","name":"Pulo Sarok","postal_code":"24785"},{"id":"1110042004","district_id":"111004","name":"Kilangan","postal_code":"24785"},{"id":"1110042005","district_id":"111004","name":"Kuta Simboling ","postal_code":"24785"},{"id":"1110042007","district_id":"111004","name":"Teluk Ambun","postal_code":"24785"},{"id":"1110042008","district_id":"111004","name":"Rantau Gedang","postal_code":"24785"},{"id":"1110042009","district_id":"111004","name":"Teluk Rumbia","postal_code":"24785"},{"id":"1110042010","district_id":"111004","name":"Pea Bumbung ","postal_code":"24785"},{"id":"1110042011","district_id":"111004","name":"Pemuka","postal_code":"24785"},{"id":"1110042012","district_id":"111004","name":"Takal Pasir","postal_code":"24785"},{"id":"1110042014","district_id":"111004","name":"Selok Aceh","postal_code":"24785"},{"id":"1110042016","district_id":"111004","name":"Suka Makmur","postal_code":"24785"},{"id":"1110042017","district_id":"111004","name":"Ujung Bawang","postal_code":"24785"},{"id":"1110042019","district_id":"111004","name":"Siti Ambia","postal_code":"24785"},{"id":"1110042020","district_id":"111004","name":"Suka Damai","postal_code":"24785"}]