[{"id":"1111162001","district_id":"111116","name":"Darussalam","postal_code":"24268"},{"id":"1111162002","district_id":"111116","name":"Blang Mane","postal_code":"24268"},{"id":"1111162003","district_id":"111116","name":"Tanjong Beuridi","postal_code":"24268"},{"id":"1111162004","district_id":"111116","name":"Darul Aman","postal_code":"24268"},{"id":"1111162005","district_id":"111116","name":"Geulanggang Labu","postal_code":"24268"},{"id":"1111162006","district_id":"111116","name":"Teupin Reudeup","postal_code":"24268"},{"id":"1111162007","district_id":"111116","name":"Ulee Jalan","postal_code":"24268"},{"id":"1111162008","district_id":"111116","name":"Paya Crot","postal_code":"24268"},{"id":"1111162009","district_id":"111116","name":"Pulo Panyang","postal_code":"24268"},{"id":"1111162010","district_id":"111116","name":"Me Rayeuk","postal_code":"24268"},{"id":"1111162011","district_id":"111116","name":"Uteun Gathom","postal_code":"24268"},{"id":"1111162012","district_id":"111116","name":"Lueng Kuli","postal_code":"24268"},{"id":"1111162013","district_id":"111116","name":"Lueng Baro","postal_code":"24268"},{"id":"1111162014","district_id":"111116","name":"Mata Ie","postal_code":"24268"},{"id":"1111162015","district_id":"111116","name":"Blang Cut","postal_code":"24268"},{"id":"1111162016","district_id":"111116","name":"Blang Pala","postal_code":"24268"},{"id":"1111162017","district_id":"111116","name":"Krueng Beukah","postal_code":"24268"},{"id":"1111162018","district_id":"111116","name":"Ceubrek","postal_code":"24268"},{"id":"1111162019","district_id":"111116","name":"Uteun Raya","postal_code":"24268"},{"id":"1111162020","district_id":"111116","name":"Pulo Harapan","postal_code":"24268"},{"id":"1111162021","district_id":"111116","name":"Suwak","postal_code":"24268"}]