[{"id":"1111112001","district_id":"111111","name":"Rheum Barat","postal_code":"24253"},{"id":"1111112002","district_id":"111111","name":"Rheum Barouh\/Baroh","postal_code":"24253"},{"id":"1111112003","district_id":"111111","name":"Rheum Timu ","postal_code":"24253"},{"id":"1111112004","district_id":"111111","name":"Blang Kuta Coh","postal_code":"24253"},{"id":"1111112005","district_id":"111111","name":"Blang Kuta Dua Meunasah","postal_code":"24253"},{"id":"1111112006","district_id":"111111","name":"Lancang","postal_code":"24253"},{"id":"1111112007","district_id":"111111","name":"Blang Teumulek","postal_code":"24253"},{"id":"1111112008","district_id":"111111","name":"Meunasah Mesjid","postal_code":"24253"},{"id":"1111112009","district_id":"111111","name":"Jurong Binjee","postal_code":"24253"},{"id":"1111112010","district_id":"111111","name":"Blang Mane Dua Meunasah","postal_code":"24253"},{"id":"1111112011","district_id":"111111","name":"Blang Mane Barat","postal_code":"24253"},{"id":"1111112012","district_id":"111111","name":"Balee","postal_code":"24253"},{"id":"1111112013","district_id":"111111","name":"Arongan","postal_code":"24253"},{"id":"1111112014","district_id":"111111","name":"Meunasah Mamplam","postal_code":"24253"},{"id":"1111112015","district_id":"111111","name":"Pulo Dapong","postal_code":"24253"},{"id":"1111112016","district_id":"111111","name":"Ceurucok ","postal_code":"24253"},{"id":"1111112017","district_id":"111111","name":"Ie Rhob Geulumpang\/Glumpang","postal_code":"24253"},{"id":"1111112018","district_id":"111111","name":"Ie Rhob Barat","postal_code":"24253"},{"id":"1111112019","district_id":"111111","name":"Ie Rhob Timu ","postal_code":"24253"},{"id":"1111112020","district_id":"111111","name":"Ie Rhob Babah Lueng","postal_code":"24253"},{"id":"1111112021","district_id":"111111","name":"Glee Meudong ","postal_code":"24253"},{"id":"1111112022","district_id":"111111","name":"Pulo Drien","postal_code":"24253"},{"id":"1111112023","district_id":"111111","name":"Meunasah Dayah","postal_code":"24253"},{"id":"1111112024","district_id":"111111","name":"Cot Trieng","postal_code":"24253"},{"id":"1111112025","district_id":"111111","name":"Krueng Meuseugob","postal_code":"24253"},{"id":"1111112026","district_id":"111111","name":"Lhok Tanoh","postal_code":"24253"},{"id":"1111112027","district_id":"111111","name":"Blang Tambue","postal_code":"24253"},{"id":"1111112028","district_id":"111111","name":"Keude Tambue","postal_code":"24253"},{"id":"1111112029","district_id":"111111","name":"Meunasah Asan","postal_code":"24253"},{"id":"1111112030","district_id":"111111","name":"Peuneulet Tunong","postal_code":"24253"},{"id":"1111112031","district_id":"111111","name":"Cure Tunong","postal_code":"24253"},{"id":"1111112032","district_id":"111111","name":"Cure Baroh","postal_code":"24253"},{"id":"1111112033","district_id":"111111","name":"Peuneulet Baroh","postal_code":"24253"},{"id":"1111112034","district_id":"111111","name":"Ulee Kareung","postal_code":"24253"},{"id":"1111112035","district_id":"111111","name":"Blang Payang ","postal_code":"24253"},{"id":"1111112036","district_id":"111111","name":"Calok","postal_code":"24253"},{"id":"1111112037","district_id":"111111","name":"Alue Leuhop ","postal_code":"24253"},{"id":"1111112038","district_id":"111111","name":"Paku","postal_code":"24253"},{"id":"1111112039","district_id":"111111","name":"Lhok Mane","postal_code":"24253"},{"id":"1111112040","district_id":"111111","name":"Tambue Barat","postal_code":"24253"},{"id":"1111112041","district_id":"111111","name":"Meunasah Barat","postal_code":"24253"}]