[{"id":"1111012001","district_id":"111101","name":"Keude Aceh","postal_code":"24264"},{"id":"1111012002","district_id":"111101","name":"Sangso","postal_code":"24264"},{"id":"1111012003","district_id":"111101","name":"Pante Rheeng\/Rheng","postal_code":"24264"},{"id":"1111012004","district_id":"111101","name":"Meuliek","postal_code":"24264"},{"id":"1111012005","district_id":"111101","name":"Namploh Baro","postal_code":"24264"},{"id":"1111012006","district_id":"111101","name":"Namploh Manyang","postal_code":"24264"},{"id":"1111012007","district_id":"111101","name":"Namploh Blang Garang","postal_code":"24264"},{"id":"1111012008","district_id":"111101","name":"Namploh Krueng","postal_code":"24264"},{"id":"1111012009","district_id":"111101","name":"Namploh Papeun ","postal_code":"24264"},{"id":"1111012010","district_id":"111101","name":"Meunasah Lueng","postal_code":"24264"},{"id":"1111012011","district_id":"111101","name":"Lhok Seumira","postal_code":"24264"},{"id":"1111012012","district_id":"111101","name":"Ulee Jeumatan","postal_code":"24264"},{"id":"1111012013","district_id":"111101","name":"Lancok","postal_code":"24264"},{"id":"1111012014","district_id":"111101","name":"Paloh","postal_code":"24264"},{"id":"1111012015","district_id":"111101","name":"Mesjid Baro","postal_code":"24264"},{"id":"1111012016","district_id":"111101","name":"Batee Iliek","postal_code":"24264"},{"id":"1111012017","district_id":"111101","name":"Pulo Baroh","postal_code":"24264"},{"id":"1111012018","district_id":"111101","name":"Matang Wakeuh","postal_code":"24264"},{"id":"1111012019","district_id":"111101","name":"Darussalam","postal_code":"24264"},{"id":"1111012020","district_id":"111101","name":"Matang Jereung ","postal_code":"24264"},{"id":"1111012021","district_id":"111101","name":"Matang","postal_code":"24264"},{"id":"1111012022","district_id":"111101","name":"Cot Mane","postal_code":"24264"},{"id":"1111012023","district_id":"111101","name":"Alue Barat","postal_code":"24264"},{"id":"1111012024","district_id":"111101","name":"Cot Siren","postal_code":"24264"},{"id":"1111012025","district_id":"111101","name":"Ulee Alue","postal_code":"24264"},{"id":"1111012026","district_id":"111101","name":"Pineung Siribee ","postal_code":"24264"},{"id":"1111012027","district_id":"111101","name":"Gampong Baro","postal_code":"24264"},{"id":"1111012028","district_id":"111101","name":"Kandang","postal_code":"24264"},{"id":"1111012029","district_id":"111101","name":"Gampong Putoh","postal_code":"24264"},{"id":"1111012030","district_id":"111101","name":"Mideun Jok","postal_code":"24264"},{"id":"1111012031","district_id":"111101","name":"Mideun Geudong","postal_code":"24264"},{"id":"1111012032","district_id":"111101","name":"Lueng Keubeu","postal_code":"24264"},{"id":"1111012033","district_id":"111101","name":"Geulumpang\/Glumpang Bungkok","postal_code":"24264"},{"id":"1111012034","district_id":"111101","name":"Glumpang Meulum","postal_code":"24264"},{"id":"1111012035","district_id":"111101","name":"Cot Meurak Baroh","postal_code":"24264"},{"id":"1111012036","district_id":"111101","name":"Cot Meurak Blang","postal_code":"24264"},{"id":"1111012037","district_id":"111101","name":"Meurah","postal_code":"24264"},{"id":"1111012038","district_id":"111101","name":"Ulee Ue","postal_code":"24264"},{"id":"1111012039","district_id":"111101","name":"Matang Teungoh","postal_code":"24264"},{"id":"1111012040","district_id":"111101","name":"Tanjong Baro","postal_code":"24264"},{"id":"1111012041","district_id":"111101","name":"Angkieng Barat ","postal_code":"24264"},{"id":"1111012042","district_id":"111101","name":"Meunasah Lincah","postal_code":"24264"},{"id":"1111012043","district_id":"111101","name":"Meunasah Lancok","postal_code":"24264"},{"id":"1111012044","district_id":"111101","name":"Meunasah Puuk","postal_code":"24264"},{"id":"1111012045","district_id":"111101","name":"Tonjongan Idem ","postal_code":"24264"},{"id":"1111012084","district_id":"111101","name":"Geulumpang\/Glumpang Payong","postal_code":"24264"}]