[{"id":"1111022018","district_id":"111102","name":"Blang Me Timu ","postal_code":"24263"},{"id":"1111022019","district_id":"111102","name":"Lancang","postal_code":"24263"},{"id":"1111022020","district_id":"111102","name":"Blang Lancang","postal_code":"24263"},{"id":"1111022021","district_id":"111102","name":"Teupin Kupula ","postal_code":"24263"},{"id":"1111022022","district_id":"111102","name":"Tanjong Bungong","postal_code":"24263"},{"id":"1111022023","district_id":"111102","name":"Dayah Baro","postal_code":"24263"},{"id":"1111022024","district_id":"111102","name":"Ulee Rabo","postal_code":"24263"},{"id":"1111022025","district_id":"111102","name":"Lueng Teungoh ","postal_code":"24263"},{"id":"1111022026","district_id":"111102","name":"Lampoh Oe","postal_code":"24263"},{"id":"1111022027","district_id":"111102","name":"Pulo Rangkileh","postal_code":"24263"},{"id":"1111022028","district_id":"111102","name":"Tufah","postal_code":"24263"},{"id":"1111022029","district_id":"111102","name":"Sampo Ajad ","postal_code":"24263"},{"id":"1111022030","district_id":"111102","name":"Darul Aman","postal_code":"24263"},{"id":"1111022031","district_id":"111102","name":"Lhok Kulam","postal_code":"24263"},{"id":"1111022032","district_id":"111102","name":"Ulee Blang","postal_code":"24263"},{"id":"1111022033","district_id":"111102","name":"Uteun Peupaleh ","postal_code":"24263"},{"id":"1111022034","district_id":"111102","name":"Ulee Gajah","postal_code":"24263"},{"id":"1111022035","district_id":"111102","name":"Alue Seutui","postal_code":"24263"},{"id":"1111022036","district_id":"111102","name":"Blang Neubok","postal_code":"24263"},{"id":"1111022037","district_id":"111102","name":"Matang Bangka","postal_code":"24263"},{"id":"1111022038","district_id":"111102","name":"Matang Teungoh","postal_code":"24263"},{"id":"1111022039","district_id":"111102","name":"Matang Nibong","postal_code":"24263"},{"id":"1111022040","district_id":"111102","name":"Blang Me Barat ","postal_code":"24263"},{"id":"1111022041","district_id":"111102","name":"Keude Jeunieb","postal_code":"24263"},{"id":"1111022042","district_id":"111102","name":"Cot Glumpang Baroh ","postal_code":"24263"},{"id":"1111022043","district_id":"111102","name":"Cot Glumpang Tunong ","postal_code":"24263"},{"id":"1111022044","district_id":"111102","name":"Meunasah Keutapang","postal_code":"24263"},{"id":"1111022045","district_id":"111102","name":"Meunasah Dayah","postal_code":"24263"},{"id":"1111022046","district_id":"111102","name":"Lheu Simpang ","postal_code":"24263"},{"id":"1111022047","district_id":"111102","name":"Lheu Barat ","postal_code":"24263"},{"id":"1111022048","district_id":"111102","name":"Jeumpa Sikureng ","postal_code":"24263"},{"id":"1111022049","district_id":"111102","name":"Janggot Seungko","postal_code":"24263"},{"id":"1111022050","district_id":"111102","name":"Meunasah Tambo","postal_code":"24263"},{"id":"1111022051","district_id":"111102","name":"Meunasah Keupula","postal_code":"24263"},{"id":"1111022052","district_id":"111102","name":"Meunasah Tunong Lueng","postal_code":"24263"},{"id":"1111022053","district_id":"111102","name":"Meunasah Alue","postal_code":"24263"},{"id":"1111022054","district_id":"111102","name":"Blang Pohroh ","postal_code":"24263"},{"id":"1111022057","district_id":"111102","name":"Meunasah Lueng","postal_code":"24263"},{"id":"1111022058","district_id":"111102","name":"Dayah Blang Raleu","postal_code":"24263"},{"id":"1111022059","district_id":"111102","name":"Meunasah Blang","postal_code":"24263"},{"id":"1111022060","district_id":"111102","name":"Alue Lamsaba","postal_code":"24263"},{"id":"1111022061","district_id":"111102","name":"Meunasah Kota","postal_code":"24263"},{"id":"1111022062","district_id":"111102","name":"Paya Bili","postal_code":"24263"}]