[{"id":"1111042032","district_id":"111104","name":"Glumpang Payong","postal_code":"24251"},{"id":"1111042033","district_id":"111104","name":"Blang Seunong","postal_code":"24251"},{"id":"1111042034","district_id":"111104","name":"Cot Leusong","postal_code":"24251"},{"id":"1111042035","district_id":"111104","name":"Batee Timoh","postal_code":"24251"},{"id":"1111042036","district_id":"111104","name":"Lipah Rayeuk","postal_code":"24251"},{"id":"1111042037","district_id":"111104","name":"Cot Geureundong","postal_code":"24251"},{"id":"1111042038","district_id":"111104","name":"Lipah Cut","postal_code":"24251"},{"id":"1111042039","district_id":"111104","name":"Beurawang","postal_code":"24251"},{"id":"1111042042","district_id":"111104","name":"Geudong Tampu","postal_code":"24251"},{"id":"1111042043","district_id":"111104","name":"Cot Tarom Baroh","postal_code":"24251"},{"id":"1111042044","district_id":"111104","name":"Blang Cot Baroh","postal_code":"24251"},{"id":"1111042045","district_id":"111104","name":"Blang Cot Tunong","postal_code":"24251"},{"id":"1111042046","district_id":"111104","name":"Seuleumbah","postal_code":"24251"},{"id":"1111042047","district_id":"111104","name":"Cot Keutapang","postal_code":"24251"},{"id":"1111042048","district_id":"111104","name":"Cot Tarom Tunong","postal_code":"24251"},{"id":"1111042049","district_id":"111104","name":"Blang Bladeh","postal_code":"24251"},{"id":"1111042050","district_id":"111104","name":"Mon Jambee","postal_code":"24251"},{"id":"1111042051","district_id":"111104","name":"Blang Dalam","postal_code":"24251"},{"id":"1111042052","district_id":"111104","name":"Kuala Jeumpa","postal_code":"24251"},{"id":"1111042053","district_id":"111104","name":"Cot Gadong","postal_code":"24251"},{"id":"1111042054","district_id":"111104","name":"Cot Bada","postal_code":"24251"},{"id":"1111042055","district_id":"111104","name":"Teupok Baroh","postal_code":"24251"},{"id":"1111042056","district_id":"111104","name":"Teupok Tunong","postal_code":"24251"},{"id":"1111042057","district_id":"111104","name":"Pulo Lawang","postal_code":"24251"},{"id":"1111042058","district_id":"111104","name":"Abeuk Usong","postal_code":"24251"},{"id":"1111042059","district_id":"111104","name":"Paloh Seulimeng","postal_code":"24251"},{"id":"1111042060","district_id":"111104","name":"Abeuk Tingkeum","postal_code":"24251"},{"id":"1111042061","district_id":"111104","name":"Blang Mee","postal_code":"24251"},{"id":"1111042062","district_id":"111104","name":"Blang Seupeung","postal_code":"24251"},{"id":"1111042063","district_id":"111104","name":"Blang Gandai","postal_code":"24251"},{"id":"1111042064","district_id":"111104","name":"Cot Ulim","postal_code":"24251"},{"id":"1111042065","district_id":"111104","name":"Cot Iboeh","postal_code":"24251"},{"id":"1111042071","district_id":"111104","name":"Blang Rheum","postal_code":"24251"},{"id":"1111042072","district_id":"111104","name":"Paloh Panyang","postal_code":"24251"},{"id":"1111042073","district_id":"111104","name":"Seuneubok Lhong","postal_code":"24251"},{"id":"1111042075","district_id":"111104","name":"Salah Sirong Jaya","postal_code":"24251"},{"id":"1111042076","district_id":"111104","name":"Mon Mane","postal_code":"24251"},{"id":"1111042077","district_id":"111104","name":"Alue Limeng","postal_code":"24251"},{"id":"1111042078","district_id":"111104","name":"Cot Meugoe","postal_code":"24251"},{"id":"1111042079","district_id":"111104","name":"Cot Iboeh Timu","postal_code":"24251"},{"id":"1111042080","district_id":"111104","name":"Kuta Meuligoe","postal_code":"24251"},{"id":"1111042081","district_id":"111104","name":"Lhaksmana","postal_code":"24251"}]