[{"id":"1111122001","district_id":"111112","name":"Keude Plimbang","postal_code":"24266"},{"id":"1111122002","district_id":"111112","name":"Krueng Baro","postal_code":"24266"},{"id":"1111122003","district_id":"111112","name":"Seuneubok Nalan","postal_code":"24266"},{"id":"1111122004","district_id":"111112","name":"Rambong Payong","postal_code":"24266"},{"id":"1111122005","district_id":"111112","name":"Seuneubok Aceh","postal_code":"24266"},{"id":"1111122006","district_id":"111112","name":"Seuneubok Plimbang","postal_code":"24266"},{"id":"1111122007","district_id":"111112","name":"Seuneubok Punti","postal_code":"24266"},{"id":"1111122008","district_id":"111112","name":"Uteun Sikumbong","postal_code":"24266"},{"id":"1111122009","district_id":"111112","name":"Teupin Panah","postal_code":"24266"},{"id":"1111122010","district_id":"111112","name":"Matang Kulee","postal_code":"24266"},{"id":"1111122011","district_id":"111112","name":"Lancok Bungo","postal_code":"24266"},{"id":"1111122012","district_id":"111112","name":"Uteun Rungkom","postal_code":"24266"},{"id":"1111122013","district_id":"111112","name":"Padang Kasab","postal_code":"24266"},{"id":"1111122014","district_id":"111112","name":"Seuneubok Seumawe","postal_code":"24266"},{"id":"1111122015","district_id":"111112","name":"Jambo Dalam","postal_code":"24266"},{"id":"1111122016","district_id":"111112","name":"Cot Gleumpang","postal_code":"24266"},{"id":"1111122017","district_id":"111112","name":"Puuek","postal_code":"24266"},{"id":"1111122018","district_id":"111112","name":"Balee Daka","postal_code":"24266"},{"id":"1111122019","district_id":"111112","name":"Paloh Pupu","postal_code":"24266"},{"id":"1111122020","district_id":"111112","name":"Seunebok Teungoh","postal_code":"24266"},{"id":"1111122021","district_id":"111112","name":"Garab","postal_code":"24266"},{"id":"1111122022","district_id":"111112","name":"Kuta Trieng","postal_code":"24266"}]