[{"id":"1114092001","district_id":"111409","name":"Pulo Tinggi","postal_code":"23653"},{"id":"1114092002","district_id":"111409","name":"Alue Krueng","postal_code":"23653"},{"id":"1114092003","district_id":"111409","name":"Pasi Teubee","postal_code":"23653"},{"id":"1114092004","district_id":"111409","name":"Timpleung ","postal_code":"23653"},{"id":"1114092005","district_id":"111409","name":"Krueng Beukah","postal_code":"23653"},{"id":"1114092006","district_id":"111409","name":"Tuwi Kareung ","postal_code":"23653"},{"id":"1114092007","district_id":"111409","name":"Lhok Guci","postal_code":"23653"},{"id":"1114092008","district_id":"111409","name":"Tuwi Peuriya ","postal_code":"23653"},{"id":"1114092009","district_id":"111409","name":"Sarah Raya","postal_code":"23653"},{"id":"1114092010","district_id":"111409","name":"Alue Jang","postal_code":"23653"},{"id":"1114092011","district_id":"111409","name":"Ceuraceu","postal_code":"23653"},{"id":"1114092012","district_id":"111409","name":"Alue Punti","postal_code":"23653"},{"id":"1114092013","district_id":"111409","name":"Bintah","postal_code":"23653"},{"id":"1114092014","district_id":"111409","name":"Buket Keumuneng","postal_code":"23653"}]