[{"id":"1116032001","district_id":"111603","name":"Kesehatan","postal_code":"24476"},{"id":"1116032002","district_id":"111603","name":"Suka Jadi","postal_code":"24476"},{"id":"1116032006","district_id":"111603","name":"Menanggini","postal_code":"24476"},{"id":"1116032007","district_id":"111603","name":"Tanjung Karang","postal_code":"24476"},{"id":"1116032009","district_id":"111603","name":"Bundar","postal_code":"24476"},{"id":"1116032011","district_id":"111603","name":"Dalam","postal_code":"24476"},{"id":"1116032012","district_id":"111603","name":"Tanah Terban","postal_code":"24476"},{"id":"1116032013","district_id":"111603","name":"Air Tenang","postal_code":"24476"},{"id":"1116032014","district_id":"111603","name":"Johar","postal_code":"24476"},{"id":"1116032015","district_id":"111603","name":"Tupah","postal_code":"24476"},{"id":"1116032016","district_id":"111603","name":"Banai","postal_code":"24476"},{"id":"1116032017","district_id":"111603","name":"Rantau Panjang","postal_code":"24476"},{"id":"1116032018","district_id":"111603","name":"Medang Ara","postal_code":"24476"},{"id":"1116032019","district_id":"111603","name":"Pahlawan","postal_code":"24476"},{"id":"1116032020","district_id":"111603","name":"Alur Selalas","postal_code":"24476"},{"id":"1116032021","district_id":"111603","name":"Paya Tampah","postal_code":"24476"},{"id":"1116032022","district_id":"111603","name":"Alur Baung","postal_code":"24476"},{"id":"1116032023","district_id":"111603","name":"Kebun Tanah Terban","postal_code":"24476"},{"id":"1116032024","district_id":"111603","name":"Kebun Medang Ara","postal_code":"24476"},{"id":"1116032025","district_id":"111603","name":"Kebun Afdeling Seleleh","postal_code":"24476"},{"id":"1116032026","district_id":"111603","name":"Paya Awe","postal_code":"24476"},{"id":"1116032027","district_id":"111603","name":"Simpang Empat","postal_code":"24476"},{"id":"1116032028","district_id":"111603","name":"Paya Kulbi","postal_code":"24476"},{"id":"1116032029","district_id":"111603","name":"Alur Bemban","postal_code":"24476"},{"id":"1116032030","district_id":"111603","name":"Paya Meta","postal_code":"24476"},{"id":"1116032031","district_id":"111603","name":"Tanjung Seumantoh","postal_code":"24476"},{"id":"1116032032","district_id":"111603","name":"Bukit Keranji","postal_code":"24476"},{"id":"1116032033","district_id":"111603","name":"Kebun Tanjung Seumantoh","postal_code":"24476"},{"id":"1116032034","district_id":"111603","name":"Bukit Panjang","postal_code":"24476"},{"id":"1116032035","district_id":"111603","name":"Alue Lhok","postal_code":"24476"},{"id":"1116032036","district_id":"111603","name":"Suka Jadi Paya Bujok","postal_code":"24476"}]