[{"id":"1118042001","district_id":"111804","name":"Keude Ulee Gle","postal_code":"24188"},{"id":"1118042002","district_id":"111804","name":"Ulee Gle","postal_code":"24188"},{"id":"1118042003","district_id":"111804","name":"Blang Dalam","postal_code":"24188"},{"id":"1118042004","district_id":"111804","name":"Pulo","postal_code":"24188"},{"id":"1118042005","district_id":"111804","name":"Baro","postal_code":"24188"},{"id":"1118042006","district_id":"111804","name":"Meuko Kuthang","postal_code":"24188"},{"id":"1118042007","district_id":"111804","name":"Uteun Bayu","postal_code":"24188"},{"id":"1118042008","district_id":"111804","name":"Alue Ketapang","postal_code":"24188"},{"id":"1118042009","district_id":"111804","name":"Jaulanga Barat","postal_code":"24188"},{"id":"1118042010","district_id":"111804","name":"Kumba","postal_code":"24188"},{"id":"1118042011","district_id":"111804","name":"Babah Krueng","postal_code":"24188"},{"id":"1118042012","district_id":"111804","name":"Pohroh","postal_code":"24188"},{"id":"1118042013","district_id":"111804","name":"Seunong","postal_code":"24188"},{"id":"1118042014","district_id":"111804","name":"Alue Mee","postal_code":"24188"},{"id":"1118042015","district_id":"111804","name":"Blang Kuta","postal_code":"24188"},{"id":"1118042016","district_id":"111804","name":"Drien Tujoh","postal_code":"24188"},{"id":"1118042017","district_id":"111804","name":"Alue Sane","postal_code":"24188"},{"id":"1118042018","district_id":"111804","name":"Gahru","postal_code":"24188"},{"id":"1118042019","district_id":"111804","name":"Lhok Pusong","postal_code":"24188"},{"id":"1118042020","district_id":"111804","name":"Paya Pisang Klat","postal_code":"24188"},{"id":"1118042021","district_id":"111804","name":"Cot Geurefai","postal_code":"24188"},{"id":"1118042022","district_id":"111804","name":"Muko Dayah","postal_code":"24188"},{"id":"1118042023","district_id":"111804","name":"Meuko Buloh","postal_code":"24188"},{"id":"1118042024","district_id":"111804","name":"Peulakan Tunong","postal_code":"24188"},{"id":"1118042025","district_id":"111804","name":"Adan","postal_code":"24188"},{"id":"1118042026","district_id":"111804","name":"Meugit Kayee Panyang","postal_code":"24188"},{"id":"1118042027","district_id":"111804","name":"Meugit Sagoe","postal_code":"24188"},{"id":"1118042028","district_id":"111804","name":"Meurandeh Alue","postal_code":"24188"},{"id":"1118042029","district_id":"111804","name":"Reudeup Melayu","postal_code":"24188"},{"id":"1118042030","district_id":"111804","name":"Meunasah Paku","postal_code":"24188"},{"id":"1118042031","district_id":"111804","name":"Jeulanga Mata Ie","postal_code":"24188"},{"id":"1118042032","district_id":"111804","name":"Jeulanga Mesjid","postal_code":"24188"},{"id":"1118042033","district_id":"111804","name":"Pulo Gapu","postal_code":"24188"},{"id":"1118042034","district_id":"111804","name":"Blang Miroe","postal_code":"24188"},{"id":"1118042035","district_id":"111804","name":"Beurasan","postal_code":"24188"},{"id":"1118042036","district_id":"111804","name":"Cot Keng","postal_code":"24188"},{"id":"1118042037","district_id":"111804","name":"Krueng Kiran","postal_code":"24188"},{"id":"1118042038","district_id":"111804","name":"Asan Kumbang","postal_code":"24188"},{"id":"1118042039","district_id":"111804","name":"Drien Bungong","postal_code":"24188"},{"id":"1118042040","district_id":"111804","name":"Peulakan Cibrek","postal_code":"24188"},{"id":"1118042041","district_id":"111804","name":"Paya Tunong","postal_code":"24188"},{"id":"1118042042","district_id":"111804","name":"Peulakan Tambo","postal_code":"24188"},{"id":"1118042043","district_id":"111804","name":"Paya Baroh","postal_code":"24188"},{"id":"1118042044","district_id":"111804","name":"Meuko Baroh","postal_code":"24188"},{"id":"1118042045","district_id":"111804","name":"Kuta Krueng","postal_code":"24188"}]