[{"id":"1171032001","district_id":"117103","name":"Punge Jurong","postal_code":"23231"},{"id":"1171032002","district_id":"117103","name":"Ulee Lheue","postal_code":"23234"},{"id":"1171032003","district_id":"117103","name":"Lambung","postal_code":"23233"},{"id":"1171032004","district_id":"117103","name":"Deyah Gelumpang ","postal_code":"23232"},{"id":"1171032005","district_id":"117103","name":"Deyah Baro ","postal_code":"23232"},{"id":"1171032006","district_id":"117103","name":"Alue Deah Teungoh ","postal_code":"23232"},{"id":"1171032007","district_id":"117103","name":"Lampaseh Aceh","postal_code":"23231"},{"id":"1171032008","district_id":"117103","name":"Blang Oi","postal_code":"23233"},{"id":"1171032009","district_id":"117103","name":"Asoe Nanggroe ","postal_code":"23234"},{"id":"1171032010","district_id":"117103","name":"Gampong Blang","postal_code":"23234"},{"id":"1171032011","district_id":"117103","name":"Gampong Pie","postal_code":"23233"},{"id":"1171032012","district_id":"117103","name":"Lamjabat","postal_code":"23234"},{"id":"1171032013","district_id":"117103","name":"Cot Lamkuweuh ","postal_code":"23233"},{"id":"1171032014","district_id":"117103","name":"Surien","postal_code":"23234"},{"id":"1171032015","district_id":"117103","name":"Gampong Baro","postal_code":"23234"},{"id":"1171032016","district_id":"117103","name":"Punge Ujong","postal_code":"23233"}]