[{"id":"1173022001","district_id":"117302","name":"Kuta Blang","postal_code":"24351"},{"id":"1173022002","district_id":"117302","name":"Tumpok Teungoh","postal_code":"24311"},{"id":"1173022003","district_id":"117302","name":"Simpang Empat","postal_code":"24313"},{"id":"1173022004","district_id":"117302","name":"Kampung Jawa Lhokseumawe ","postal_code":"24351"},{"id":"1173022005","district_id":"117302","name":"Kota Lhokseumawe ","postal_code":"24314"},{"id":"1173022006","district_id":"117302","name":"Mon Geudong","postal_code":"24351"},{"id":"1173022007","district_id":"117302","name":"Keude Aceh","postal_code":"24351"},{"id":"1173022008","district_id":"117302","name":"Pusong Lhokseumawe ","postal_code":"24351"},{"id":"1173022009","district_id":"117302","name":"Hagu Teungoh","postal_code":"24351"},{"id":"1173022010","district_id":"117302","name":"Uteun Bayi","postal_code":"24351"},{"id":"1173022011","district_id":"117302","name":"Ujong Blang","postal_code":"24351"},{"id":"1173022012","district_id":"117302","name":"Hagu Selatan","postal_code":"24351"},{"id":"1173022013","district_id":"117302","name":"Pusong Baru","postal_code":"24314"},{"id":"1173022014","district_id":"117302","name":"Ulee Jalan","postal_code":"24351"},{"id":"1173022015","district_id":"117302","name":"Banda Masen ","postal_code":"24351"},{"id":"1173022016","district_id":"117302","name":"Lancang Garam","postal_code":"24351"},{"id":"1173022017","district_id":"117302","name":"Jawa Baru ","postal_code":"24315"},{"id":"1173022018","district_id":"117302","name":"Hagu Barat Laut","postal_code":"24351"}]