[{"id":"1174042001","district_id":"117404","name":"Pondok Kemuning ","postal_code":"24416"},{"id":"1174042002","district_id":"117404","name":"Seulalah","postal_code":"24416"},{"id":"1174042003","district_id":"117404","name":"Pondok Pabrik","postal_code":"24416"},{"id":"1174042004","district_id":"117404","name":"Sidodadi","postal_code":"24411"},{"id":"1174042005","district_id":"117404","name":"Sidorejo","postal_code":"24411"},{"id":"1174042006","district_id":"117404","name":"Baro ","postal_code":"24416"},{"id":"1174042007","district_id":"117404","name":"Meurandeh","postal_code":"24416"},{"id":"1174042008","district_id":"117404","name":"Asam Peutik ","postal_code":"24416"},{"id":"1174042009","district_id":"117404","name":"Baroh Langsa Lama","postal_code":"24416"},{"id":"1174042010","district_id":"117404","name":"Seulalah Baru","postal_code":"24416"},{"id":"1174042011","district_id":"117404","name":"Sukajadi Kebun Ireng ","postal_code":"24411"},{"id":"1174042012","district_id":"117404","name":"Meurandeh Teungoh","postal_code":"24416"},{"id":"1174042013","district_id":"117404","name":"Meurandeh Dayah","postal_code":"24416"},{"id":"1174042014","district_id":"117404","name":"Meurandeh Aceh","postal_code":"24416"},{"id":"1174042015","district_id":"117404","name":"Batee Puteh ","postal_code":"24411"}]