[{"id":"1202142001","district_id":"120214","name":"Garoga Sibargot","postal_code":"22473"},{"id":"1202142002","district_id":"120214","name":"Lontung Jae I","postal_code":"22473"},{"id":"1202142003","district_id":"120214","name":"Parsosoran","postal_code":"22473"},{"id":"1202142004","district_id":"120214","name":"Padang Siandomang","postal_code":"22473"},{"id":"1202142005","district_id":"120214","name":"Sibaganding","postal_code":"22473"},{"id":"1202142006","district_id":"120214","name":"Sirmpang Bolon","postal_code":"22473"},{"id":"1202142007","district_id":"120214","name":"Gonting Garoga","postal_code":"22473"},{"id":"1202142008","district_id":"120214","name":"Lontung Jae II","postal_code":"22473"},{"id":"1202142009","district_id":"120214","name":"Gonting Salak","postal_code":"22473"},{"id":"1202142010","district_id":"120214","name":"Sibalanga","postal_code":"22473"},{"id":"1202142011","district_id":"120214","name":"Aek Tangga","postal_code":"22473"},{"id":"1202142012","district_id":"120214","name":"Parinsoran","postal_code":"22473"},{"id":"1202142013","district_id":"120214","name":"Parmanuhan","postal_code":"22473"}]