[{"id":"1202102001","district_id":"120210","name":"Simamora Hasibuan","postal_code":"22458"},{"id":"1202102002","district_id":"120210","name":"Lumban Julu","postal_code":"22458"},{"id":"1202102003","district_id":"120210","name":"Pagaran","postal_code":"22458"},{"id":"1202102004","district_id":"120210","name":"Sibaragas","postal_code":"22458"},{"id":"1202102005","district_id":"120210","name":"Sipultak","postal_code":"22458"},{"id":"1202102006","district_id":"120210","name":"Lubis","postal_code":"22458"},{"id":"1202102007","district_id":"120210","name":"Banualuhu ","postal_code":"22458"},{"id":"1202102008","district_id":"120210","name":"Parhorboan","postal_code":"22458"},{"id":"1202102009","district_id":"120210","name":"Lumban Motung","postal_code":"22458"},{"id":"1202102010","district_id":"120210","name":"Lumban Ina Ina","postal_code":"22458"},{"id":"1202102011","district_id":"120210","name":"Doloksaribu ","postal_code":"22458"},{"id":"1202102012","district_id":"120210","name":"Lumban Silintong","postal_code":"22458"},{"id":"1202102013","district_id":"120210","name":"Sipultak Dolok","postal_code":"22458"},{"id":"1202102014","district_id":"120210","name":"Hasibuan","postal_code":"22458"}]