[{"id":"1203061001","district_id":"120306","name":"Simarpinggan","postal_code":"22732"},{"id":"1203061007","district_id":"120306","name":"Napa","postal_code":"22732"},{"id":"1203061014","district_id":"120306","name":"Tapian Nauli","postal_code":"22732"},{"id":"1203061019","district_id":"120306","name":"Pardomuan","postal_code":"22732"},{"id":"1203062004","district_id":"120306","name":"Situmbaga","postal_code":"22732"},{"id":"1203062005","district_id":"120306","name":"Sinyior","postal_code":"22732"},{"id":"1203062006","district_id":"120306","name":"Pintu Padang","postal_code":"22732"},{"id":"1203062008","district_id":"120306","name":"Sibong-bong ","postal_code":"22732"},{"id":"1203062009","district_id":"120306","name":"Siamporik Dolok","postal_code":"22732"},{"id":"1203062010","district_id":"120306","name":"Siamporik Lombang","postal_code":"22732"},{"id":"1203062011","district_id":"120306","name":"Sihopur","postal_code":"22732"},{"id":"1203062012","district_id":"120306","name":"Tandihat","postal_code":"22732"},{"id":"1203062013","district_id":"120306","name":"Perkebunan Marpinggan ","postal_code":"22732"},{"id":"1203062015","district_id":"120306","name":"Aek Natas","postal_code":"22732"},{"id":"1203062016","district_id":"120306","name":"Dolok Gadang \/ Godang","postal_code":"22732"},{"id":"1203062017","district_id":"120306","name":"Sihuik Huik","postal_code":"22732"},{"id":"1203062018","district_id":"120306","name":"Gunung Baringin","postal_code":"22732"}]