[{"id":"1204052001","district_id":"120405","name":"Ononamolo I Bot","postal_code":"22854"},{"id":"1204052021","district_id":"120405","name":"Dima","postal_code":"22854"},{"id":"1204052022","district_id":"120405","name":"Sinarikhi","postal_code":"22854"},{"id":"1204052023","district_id":"120405","name":"Ombolata Salo'o ","postal_code":"22854"},{"id":"1204052024","district_id":"120405","name":"Sisobalauru","postal_code":"22854"},{"id":"1204052025","district_id":"120405","name":"Tuhegafoa II","postal_code":"22854"},{"id":"1204052027","district_id":"120405","name":"Fadoro Lauru","postal_code":"22854"},{"id":"1204052028","district_id":"120405","name":"Lasara Tanose'o","postal_code":"22854"},{"id":"1204052030","district_id":"120405","name":"Hiliduho","postal_code":"22854"},{"id":"1204052031","district_id":"120405","name":"Hiligodu Tanoseo","postal_code":"22854"},{"id":"1204052032","district_id":"120405","name":"Sisobahili I Tanoseo","postal_code":"22854"},{"id":"1204052033","district_id":"120405","name":"Onozitolidulu","postal_code":"22854"},{"id":"1204052034","district_id":"120405","name":"Mazingo Tanose'o ","postal_code":"22854"},{"id":"1204052040","district_id":"120405","name":"Onowaembo Hiligara","postal_code":"22854"},{"id":"1204052041","district_id":"120405","name":"Silimabanua","postal_code":"22854"},{"id":"1204052042","district_id":"120405","name":"Ombolata Sisarahili","postal_code":"22854"}]