[{"id":"1206102001","district_id":"120610","name":"Lau Pengulu","postal_code":"22165"},{"id":"1206102002","district_id":"120610","name":"Lau Mulgap","postal_code":"22165"},{"id":"1206102003","district_id":"120610","name":"Lau Kesumpat ","postal_code":"22165"},{"id":"1206102004","district_id":"120610","name":"Rimo Bunga","postal_code":"22165"},{"id":"1206102005","district_id":"120610","name":"Tanjung Pamah","postal_code":"22165"},{"id":"1206102006","district_id":"120610","name":"Kuta Pengkih","postal_code":"22165"},{"id":"1206102007","district_id":"120610","name":"Bandar Purba","postal_code":"22165"},{"id":"1206102008","district_id":"120610","name":"Mardingding","postal_code":"22165"},{"id":"1206102009","district_id":"120610","name":"Lau Pakam","postal_code":"22165"},{"id":"1206102010","district_id":"120610","name":"Lau Solu","postal_code":"22165"},{"id":"1206102011","district_id":"120610","name":"Lau Garut","postal_code":"22165"},{"id":"1206102012","district_id":"120610","name":"Bukit Makmur","postal_code":"22165"}]