[{"id":"1206032001","district_id":"120603","name":"Paribun","postal_code":"22172"},{"id":"1206032002","district_id":"120603","name":"Rumamis","postal_code":"22172"},{"id":"1206032003","district_id":"120603","name":"Sinaman","postal_code":"22172"},{"id":"1206032004","district_id":"120603","name":"Sukanalu","postal_code":"22172"},{"id":"1206032005","district_id":"120603","name":"Barusjulu ","postal_code":"22172"},{"id":"1206032006","district_id":"120603","name":"Tangkidik","postal_code":"22172"},{"id":"1206032007","district_id":"120603","name":"Sukajulu","postal_code":"22172"},{"id":"1206032008","district_id":"120603","name":"Barusjahe ","postal_code":"22172"},{"id":"1206032009","district_id":"120603","name":"Bulanjahe ","postal_code":"22172"},{"id":"1206032010","district_id":"120603","name":"Pertumbuken","postal_code":"22172"},{"id":"1206032011","district_id":"120603","name":"Talimbaru","postal_code":"22172"},{"id":"1206032012","district_id":"120603","name":"Sikab","postal_code":"22172"},{"id":"1206032013","district_id":"120603","name":"Persadanta","postal_code":"22172"},{"id":"1206032014","district_id":"120603","name":"Bulanjulu ","postal_code":"22172"},{"id":"1206032015","district_id":"120603","name":"Semangat","postal_code":"22172"},{"id":"1206032016","district_id":"120603","name":"Serdang","postal_code":"22172"},{"id":"1206032017","district_id":"120603","name":"Tanjung Barus","postal_code":"22172"},{"id":"1206032018","district_id":"120603","name":"Sarimanis","postal_code":"22172"},{"id":"1206032019","district_id":"120603","name":"Penampen","postal_code":"22172"}]