[{"id":"1206162002","district_id":"120616","name":"Kutagugung ","postal_code":"22151"},{"id":"1206162003","district_id":"120616","name":"Kuta Tonggal","postal_code":"22151"},{"id":"1206162004","district_id":"120616","name":"Naman","postal_code":"22151"},{"id":"1206162005","district_id":"120616","name":"Sukanalu ","postal_code":"22151"},{"id":"1206162006","district_id":"120616","name":"Kebayaken","postal_code":"22151"},{"id":"1206162007","district_id":"120616","name":"Kutarayat ","postal_code":"22151"},{"id":"1206162009","district_id":"120616","name":"Sukandebi ","postal_code":"22151"},{"id":"1206162010","district_id":"120616","name":"Gung Pinto","postal_code":"22151"},{"id":"1206162011","district_id":"120616","name":"Kutambelin ","postal_code":"22151"},{"id":"1206162012","district_id":"120616","name":"Ndeskati","postal_code":"22151"},{"id":"1206162013","district_id":"120616","name":"Sukatepu","postal_code":"22151"},{"id":"1206162014","district_id":"120616","name":"Sigarang Garang","postal_code":"22151"}]