[{"id":"1208132001","district_id":"120813","name":"Negeri Dolok","postal_code":"21173"},{"id":"1208132002","district_id":"120813","name":"Dolok Parmonangan","postal_code":"21173"},{"id":"1208132003","district_id":"120813","name":"Dolok Tomuan","postal_code":"21173"},{"id":"1208132004","district_id":"120813","name":"Marihat Dolok","postal_code":"21173"},{"id":"1208132005","district_id":"120813","name":"Tiga Dolok","postal_code":"21173"},{"id":"1208132006","district_id":"120813","name":"Ujung Bondar","postal_code":"21173"},{"id":"1208132007","district_id":"120813","name":"Marihat Raja","postal_code":"21173"},{"id":"1208132008","district_id":"120813","name":"Bandar Dolok","postal_code":"21173"},{"id":"1208132009","district_id":"120813","name":"Gunung Mariah","postal_code":"21173"},{"id":"1208132010","district_id":"120813","name":"Siatasan","postal_code":"21173"},{"id":"1208132011","district_id":"120813","name":"Marihat Marsada","postal_code":"21173"},{"id":"1208132012","district_id":"120813","name":"Pondok Buluh","postal_code":"21173"},{"id":"1208132013","district_id":"120813","name":"Marihat Pondok","postal_code":"21173"},{"id":"1208132014","district_id":"120813","name":"Lumban Gorat","postal_code":"21173"},{"id":"1208132015","district_id":"120813","name":"Palianopat","postal_code":"21173"}]