[{"id":"1208071008","district_id":"120807","name":"Sindar Raya","postal_code":"21156"},{"id":"1208072001","district_id":"120807","name":"Sambosar Raya","postal_code":"21156"},{"id":"1208072002","district_id":"120807","name":"Panduman","postal_code":"21156"},{"id":"1208072003","district_id":"120807","name":"Ambarokan Panei Raya","postal_code":"21156"},{"id":"1208072004","district_id":"120807","name":"Bah Tonang","postal_code":"21156"},{"id":"1208072005","district_id":"120807","name":"Bah Bulian","postal_code":"21156"},{"id":"1208072006","district_id":"120807","name":"Bangun Raya","postal_code":"21156"},{"id":"1208072007","district_id":"120807","name":"Durian Banggal","postal_code":"21156"},{"id":"1208072008","district_id":"120807","name":"Sorba Dolog","postal_code":"21156"},{"id":"1208072009","district_id":"120807","name":"Gunung Datas","postal_code":"21156"},{"id":"1208072010","district_id":"120807","name":"Puli Buah","postal_code":"21156"},{"id":"1208072011","district_id":"120807","name":"Banu Raya","postal_code":"21156"},{"id":"1208072012","district_id":"120807","name":"Marubun Siboras","postal_code":"21156"},{"id":"1208072013","district_id":"120807","name":"Banjaran","postal_code":"21156"}]