[{"id":"1212021001","district_id":"121202","name":"Pasar Laguboti ","postal_code":"22381"},{"id":"1212022002","district_id":"121202","name":"Sibuea","postal_code":"22381"},{"id":"1212022003","district_id":"121202","name":"Sintong Marnipi","postal_code":"22381"},{"id":"1212022004","district_id":"121202","name":"Sibarani Nasampulu\/Namungk","postal_code":"22381"},{"id":"1212022005","district_id":"121202","name":"Aruan","postal_code":"22381"},{"id":"1212022006","district_id":"121202","name":"Sidulang","postal_code":"22381"},{"id":"1212022007","district_id":"121202","name":"Ujung Tanduk","postal_code":"22381"},{"id":"1212022008","district_id":"121202","name":"Haunatas II","postal_code":"22381"},{"id":"1212022009","district_id":"121202","name":"Pardomuan Nauli","postal_code":"22381"},{"id":"1212022010","district_id":"121202","name":"Sitangkola","postal_code":"22381"},{"id":"1212022011","district_id":"121202","name":"Tinggir Nipasir","postal_code":"22381"},{"id":"1212022012","district_id":"121202","name":"Haunatas I","postal_code":"22381"},{"id":"1212022013","district_id":"121202","name":"Pintu Bosi","postal_code":"22381"},{"id":"1212022014","district_id":"121202","name":"Simatibung","postal_code":"22381"},{"id":"1212022015","district_id":"121202","name":"Lumban Binanga","postal_code":"22381"},{"id":"1212022016","district_id":"121202","name":"Ompu Raja Hutapea","postal_code":"22381"},{"id":"1212022017","district_id":"121202","name":"Gasaribu ","postal_code":"22381"},{"id":"1212022018","district_id":"121202","name":"Pardinggaran","postal_code":"22381"},{"id":"1212022019","district_id":"121202","name":"Sitoluama","postal_code":"22381"},{"id":"1212022020","district_id":"121202","name":"Lumban Bagasan","postal_code":"22381"},{"id":"1212022021","district_id":"121202","name":"Siraja Gorat","postal_code":"22381"},{"id":"1212022022","district_id":"121202","name":"Ompu Raja Hutapea Timur","postal_code":"22381"},{"id":"1212022023","district_id":"121202","name":"Ompu Raja Hatulian","postal_code":"22381"}]