[{"id":"1212011034","district_id":"121201","name":"Balige I","postal_code":"22316"},{"id":"1212011035","district_id":"121201","name":"Balige III","postal_code":"22315"},{"id":"1212011036","district_id":"121201","name":"Pardede Onan","postal_code":"22313"},{"id":"1212011037","district_id":"121201","name":"Sangkar Nihuta","postal_code":"22312"},{"id":"1212011038","district_id":"121201","name":"Lumban Dolok Hauma Bange","postal_code":"22314"},{"id":"1212011039","district_id":"121201","name":"Napitupulu Bagasan","postal_code":"22311"},{"id":"1212012003","district_id":"121201","name":"Hutanamora","postal_code":"22312"},{"id":"1212012004","district_id":"121201","name":"Hutagaol Peatalun","postal_code":"22312"},{"id":"1212012005","district_id":"121201","name":"Hinalang Bagasan","postal_code":"22312"},{"id":"1212012006","district_id":"121201","name":"Matio","postal_code":"22312"},{"id":"1212012007","district_id":"121201","name":"Lumban Pea","postal_code":"22312"},{"id":"1212012008","district_id":"121201","name":"Hutabulu Mejan","postal_code":"22312"},{"id":"1212012010","district_id":"121201","name":"Lumban Gaol","postal_code":"22312"},{"id":"1212012011","district_id":"121201","name":"Parsuratan","postal_code":"22312"},{"id":"1212012012","district_id":"121201","name":"Baruara","postal_code":"22312"},{"id":"1212012013","district_id":"121201","name":"Aek Bolon Julu","postal_code":"22312"},{"id":"1212012014","district_id":"121201","name":"Sibolahotang SAS","postal_code":"22312"},{"id":"1212012015","district_id":"121201","name":"Lumban Bulbul","postal_code":"22312"},{"id":"1212012016","district_id":"121201","name":"Sianipar Sihailhail","postal_code":"22312"},{"id":"1212012017","district_id":"121201","name":"Silalahi Pagar Batu","postal_code":"22312"},{"id":"1212012018","district_id":"121201","name":"Lumban Silintong","postal_code":"22312"},{"id":"1212012019","district_id":"121201","name":"Saribu Raja Janji Maria","postal_code":"22312"},{"id":"1212012022","district_id":"121201","name":"Longat","postal_code":"22312"},{"id":"1212012023","district_id":"121201","name":"Balige II","postal_code":"22316"},{"id":"1212012024","district_id":"121201","name":"Aek Bolon Jae","postal_code":"22312"},{"id":"1212012025","district_id":"121201","name":"Lumban Gorat","postal_code":"22312"},{"id":"1212012026","district_id":"121201","name":"Sibuntuon","postal_code":"22312"},{"id":"1212012027","district_id":"121201","name":"Siboruon","postal_code":"22312"},{"id":"1212012028","district_id":"121201","name":"Paindoan","postal_code":"22312"},{"id":"1212012029","district_id":"121201","name":"Bonan Dolok I","postal_code":"22312"},{"id":"1212012030","district_id":"121201","name":"Bonan Dolok II","postal_code":"22312"},{"id":"1212012031","district_id":"121201","name":"Bonan Dolok III","postal_code":"22312"},{"id":"1212012032","district_id":"121201","name":"Huta Dame","postal_code":"22312"},{"id":"1212012040","district_id":"121201","name":"Lumban Pea Timur","postal_code":"22312"},{"id":"1212012041","district_id":"121201","name":"Tambunan Sunge","postal_code":"22312"}]