[{"id":"1213111003","district_id":"121311","name":"Huta Godang","postal_code":"22999"},{"id":"1213112001","district_id":"121311","name":"Alahan Kae","postal_code":"22999"},{"id":"1213112002","district_id":"121311","name":"Habincaran","postal_code":"22999"},{"id":"1213112004","district_id":"121311","name":"Huta Padang UP","postal_code":"22999"},{"id":"1213112005","district_id":"121311","name":"Hutaimbaru UP","postal_code":"22999"},{"id":"1213112006","district_id":"121311","name":"Muara Saladi","postal_code":"22994"},{"id":"1213112007","district_id":"121311","name":"Patahajang","postal_code":"22999"},{"id":"1213112008","district_id":"121311","name":"Simpang Banyak Jae","postal_code":"22999"},{"id":"1213112009","district_id":"121311","name":"Simpang Banyak Julu","postal_code":"22999"},{"id":"1213112010","district_id":"121311","name":"Simpang Duhu Dolok","postal_code":"22999"},{"id":"1213112011","district_id":"121311","name":"Simpang Duhu Lombang","postal_code":"22999"},{"id":"1213112012","district_id":"121311","name":"Simpang Pining","postal_code":"22999"},{"id":"1213112013","district_id":"121311","name":"Tolang","postal_code":"22999"}]