[{"id":"1214042001","district_id":"121404","name":"Duru","postal_code":"22881"},{"id":"1214042002","district_id":"121404","name":"Tuwaso","postal_code":"22881"},{"id":"1214042003","district_id":"121404","name":"Hilioromao ","postal_code":"22881"},{"id":"1214042004","district_id":"121404","name":"Eho","postal_code":"22881"},{"id":"1214042005","district_id":"121404","name":"Sialema","postal_code":"22881"},{"id":"1214042006","district_id":"121404","name":"Bowonifaoso ","postal_code":"22881"},{"id":"1214042007","district_id":"121404","name":"Hilianombasela","postal_code":"22881"},{"id":"1214042008","district_id":"121404","name":"Lumbui Melayu","postal_code":"22881"},{"id":"1214042009","district_id":"121404","name":"Hiliorodua Tebolo ","postal_code":"22881"},{"id":"1214042010","district_id":"121404","name":"Tebolo Melayu","postal_code":"22881"},{"id":"1214042021","district_id":"121404","name":"Lumbui Nias","postal_code":"22881"},{"id":"1214042022","district_id":"121404","name":"Baruyu Sibohou","postal_code":"22881"},{"id":"1214042023","district_id":"121404","name":"Sepakat","postal_code":"22881"},{"id":"1214042024","district_id":"121404","name":"Tano Mokinu","postal_code":"22881"},{"id":"1214042025","district_id":"121404","name":"Hilikana","postal_code":"22881"},{"id":"1214042026","district_id":"121404","name":"Hilinifaese","postal_code":"22881"},{"id":"1214042027","district_id":"121404","name":"Omega","postal_code":"22881"}]