[{"id":"1214242001","district_id":"121424","name":"Fondrakoraya","postal_code":"22866"},{"id":"1214242002","district_id":"121424","name":"Orudua Sibohou ","postal_code":"22866"},{"id":"1214242003","district_id":"121424","name":"Sisarahili Susua","postal_code":"22866"},{"id":"1214242004","district_id":"121424","name":"Susua","postal_code":"22866"},{"id":"1214242005","district_id":"121424","name":"Lahusa Susua","postal_code":"22866"},{"id":"1214242006","district_id":"121424","name":"Ramba-Ramba","postal_code":"22866"},{"id":"1214242007","district_id":"121424","name":"Hilinifaoso","postal_code":"22866"},{"id":"1214242008","district_id":"121424","name":"Sifaoroasi","postal_code":"22866"},{"id":"1214242009","district_id":"121424","name":"Amandraya ","postal_code":"22866"},{"id":"1214242010","district_id":"121424","name":"Foikhu Fondrako","postal_code":"22866"},{"id":"1214242011","district_id":"121424","name":"Hiliwosi","postal_code":"22866"},{"id":"1214242012","district_id":"121424","name":"Orahili Fondrako","postal_code":"22866"}]