[{"id":"1216061001","district_id":"121606","name":"Dolok Sanggul ","postal_code":"22457"},{"id":"1216062002","district_id":"121606","name":"Sileang","postal_code":"22457"},{"id":"1216062003","district_id":"121606","name":"Purba Manalu","postal_code":"22457"},{"id":"1216062004","district_id":"121606","name":"Pasaribu","postal_code":"22457"},{"id":"1216062005","district_id":"121606","name":"Simarigung","postal_code":"22457"},{"id":"1216062006","district_id":"121606","name":"Sampean","postal_code":"22457"},{"id":"1216062007","district_id":"121606","name":"Sigala Gala ","postal_code":"22457"},{"id":"1216062008","district_id":"121606","name":"Sosor Gonting","postal_code":"22457"},{"id":"1216062009","district_id":"121606","name":"Sosor Tambok","postal_code":"22457"},{"id":"1216062010","district_id":"121606","name":"Purba Dolok","postal_code":"22457"},{"id":"1216062011","district_id":"121606","name":"Sihite I","postal_code":"22457"},{"id":"1216062012","district_id":"121606","name":"Lumban Tobing","postal_code":"22457"},{"id":"1216062013","district_id":"121606","name":"Hutabagasan","postal_code":"22457"},{"id":"1216062014","district_id":"121606","name":"Matiti II","postal_code":"22457"},{"id":"1216062015","district_id":"121606","name":"Saitnihuta","postal_code":"22457"},{"id":"1216062016","district_id":"121606","name":"Hutaraja","postal_code":"22457"},{"id":"1216062017","district_id":"121606","name":"Lumban Purba","postal_code":"22457"},{"id":"1216062018","district_id":"121606","name":"Bonanionan ","postal_code":"22457"},{"id":"1216062019","district_id":"121606","name":"Parik Sinomba","postal_code":"22457"},{"id":"1216062020","district_id":"121606","name":"Sihite II","postal_code":"22457"},{"id":"1216062021","district_id":"121606","name":"Janji","postal_code":"22457"},{"id":"1216062022","district_id":"121606","name":"Pakkat","postal_code":"22457"},{"id":"1216062023","district_id":"121606","name":"Sirisirisi","postal_code":"22457"},{"id":"1216062024","district_id":"121606","name":"Hutagurgur ","postal_code":"22457"},{"id":"1216062025","district_id":"121606","name":"Matiti ","postal_code":"22457"},{"id":"1216062026","district_id":"121606","name":"Aek Lung","postal_code":"22457"},{"id":"1216062027","district_id":"121606","name":"Simangaronsang","postal_code":"22457"},{"id":"1216062028","district_id":"121606","name":"Sosortolong Sihite III","postal_code":"22457"}]