[{"id":"1217081026","district_id":"121708","name":"Pasar Pangururan","postal_code":"22390"},{"id":"1217081027","district_id":"121708","name":"Pintu Sona","postal_code":"22390"},{"id":"1217081028","district_id":"121708","name":"Siogung-Ogung","postal_code":"22390"},{"id":"1217082001","district_id":"121708","name":"Lumban SS Dolok","postal_code":"22390"},{"id":"1217082002","district_id":"121708","name":"Lumban SS Torua","postal_code":"22390"},{"id":"1217082003","district_id":"121708","name":"Parbaba Dolok","postal_code":"22390"},{"id":"1217082004","district_id":"121708","name":"Huta Tinggi","postal_code":"22390"},{"id":"1217082005","district_id":"121708","name":"Parhorasan","postal_code":"22390"},{"id":"1217082006","district_id":"121708","name":"Pardomuan Nauli","postal_code":"22390"},{"id":"1217082007","district_id":"121708","name":"Parsaoran I","postal_code":"22390"},{"id":"1217082008","district_id":"121708","name":"Rianiate","postal_code":"22390"},{"id":"1217082009","district_id":"121708","name":"Huta Bolon","postal_code":"22390"},{"id":"1217082010","district_id":"121708","name":"Panampangan","postal_code":"22390"},{"id":"1217082011","district_id":"121708","name":"Pardugul","postal_code":"22390"},{"id":"1217082012","district_id":"121708","name":"Huta Namora","postal_code":"22390"},{"id":"1217082013","district_id":"121708","name":"Parlondut","postal_code":"22390"},{"id":"1217082014","district_id":"121708","name":"Tanjung Bunga","postal_code":"22390"},{"id":"1217082015","district_id":"121708","name":"Parmonangan","postal_code":"22390"},{"id":"1217082016","district_id":"121708","name":"Sait Nihuta","postal_code":"22390"},{"id":"1217082017","district_id":"121708","name":"Situngkir","postal_code":"22390"},{"id":"1217082018","district_id":"121708","name":"Sianting-Anting","postal_code":"22390"},{"id":"1217082019","district_id":"121708","name":"Sialanguan","postal_code":"22390"},{"id":"1217082020","district_id":"121708","name":"Lumban Pinggol","postal_code":"22390"},{"id":"1217082021","district_id":"121708","name":"Pardomuan I","postal_code":"22390"},{"id":"1217082022","district_id":"121708","name":"Sitolu Huta","postal_code":"22390"},{"id":"1217082023","district_id":"121708","name":"Sinabulan","postal_code":"22390"},{"id":"1217082024","district_id":"121708","name":"Aek Nauli","postal_code":"22390"},{"id":"1217082025","district_id":"121708","name":"Siopat Sosor","postal_code":"22390"}]