[{"id":"1218091029","district_id":"121809","name":"Pekan Dolok Masihul","postal_code":"20991"},{"id":"1218092001","district_id":"121809","name":"Dame","postal_code":"20991"},{"id":"1218092002","district_id":"121809","name":"Blok ","postal_code":"20991"},{"id":"1218092003","district_id":"121809","name":"Kota Tengah","postal_code":"20991"},{"id":"1218092004","district_id":"121809","name":"Silau Merawan","postal_code":"20991"},{"id":"1218092005","district_id":"121809","name":"Pekan Kamis ","postal_code":"20991"},{"id":"1218092006","district_id":"121809","name":"Batu ","postal_code":"20991"},{"id":"1218092007","district_id":"121809","name":"Batu ","postal_code":"20991"},{"id":"1218092008","district_id":"121809","name":"Baja Ronggi","postal_code":"20991"},{"id":"1218092009","district_id":"121809","name":"Dolok Sagala","postal_code":"20991"},{"id":"1218092010","district_id":"121809","name":"Dolok Manampang","postal_code":"20991"},{"id":"1218092011","district_id":"121809","name":"Pardomuan","postal_code":"20991"},{"id":"1218092012","district_id":"121809","name":"Tegal Sari","postal_code":"20991"},{"id":"1218092013","district_id":"121809","name":"Pertambatan","postal_code":"20991"},{"id":"1218092015","district_id":"121809","name":"Huta Nauli","postal_code":"20991"},{"id":"1218092016","district_id":"121809","name":"Bantan","postal_code":"20991"},{"id":"1218092017","district_id":"121809","name":"Bukit Cermin Hilir","postal_code":"20991"},{"id":"1218092018","district_id":"121809","name":"Malasori ","postal_code":"20991"},{"id":"1218092019","district_id":"121809","name":"Sarang Giting ","postal_code":"20991"},{"id":"1218092020","district_id":"121809","name":"Durian Puloan","postal_code":"20991"},{"id":"1218092021","district_id":"121809","name":"Sarang Torop","postal_code":"20991"},{"id":"1218092022","district_id":"121809","name":"Havea","postal_code":"20991"},{"id":"1218092023","district_id":"121809","name":"Aras Panjang","postal_code":"20991"},{"id":"1218092024","district_id":"121809","name":"Martebing","postal_code":"20991"},{"id":"1218092025","district_id":"121809","name":"Kerapuh","postal_code":"20991"},{"id":"1218092026","district_id":"121809","name":"Tanjung Maria","postal_code":"20991"},{"id":"1218092027","district_id":"121809","name":"Bah Kerapuh","postal_code":"20991"},{"id":"1218092028","district_id":"121809","name":"Ujung Silau","postal_code":"20991"}]