[{"id":"1218042001","district_id":"121804","name":"Cempedak Lobang","postal_code":"20995"},{"id":"1218042002","district_id":"121804","name":"Firdaus","postal_code":"20995"},{"id":"1218042004","district_id":"121804","name":"Pergulaan","postal_code":"20995"},{"id":"1218042006","district_id":"121804","name":"Sei Rampah","postal_code":"20995"},{"id":"1218042008","district_id":"121804","name":"Sei Rejo","postal_code":"20995"},{"id":"1218042009","district_id":"121804","name":"Sei Parit","postal_code":"20995"},{"id":"1218042010","district_id":"121804","name":"Silau Rakyat","postal_code":"20995"},{"id":"1218042012","district_id":"121804","name":"Firdaus Estate","postal_code":"20995"},{"id":"1218042014","district_id":"121804","name":"Pematang Ganjang","postal_code":"20995"},{"id":"1218042015","district_id":"121804","name":"Pematang Pelintahan","postal_code":"20995"},{"id":"1218042016","district_id":"121804","name":"Rambung Estate","postal_code":"20995"},{"id":"1218042017","district_id":"121804","name":"Rambung Sialang Hulu","postal_code":"20995"},{"id":"1218042018","district_id":"121804","name":"Rambung Sialang Tengah","postal_code":"20995"},{"id":"1218042019","district_id":"121804","name":"Rambung Sialang Hilir","postal_code":"20995"},{"id":"1218042024","district_id":"121804","name":"Simpang Empat","postal_code":"20995"},{"id":"1218042026","district_id":"121804","name":"Sinah Kasih","postal_code":"20995"},{"id":"1218042027","district_id":"121804","name":"Tanah Raja","postal_code":"20995"}]