[{"id":"1218141012","district_id":"121814","name":"Melati Kebun","postal_code":"20986"},{"id":"1218142001","district_id":"121814","name":"Bengabing","postal_code":"20986"},{"id":"1218142002","district_id":"121814","name":"Bingkat","postal_code":"20986"},{"id":"1218142003","district_id":"121814","name":"Jati Mulyo","postal_code":"20986"},{"id":"1218142004","district_id":"121814","name":"Karang Anyar","postal_code":"20986"},{"id":"1218142005","district_id":"121814","name":"Lestari Dadi","postal_code":"20986"},{"id":"1218142006","district_id":"121814","name":"Pegajahan","postal_code":"20986"},{"id":"1218142007","district_id":"121814","name":"Petuaran Hulu","postal_code":"20986"},{"id":"1218142008","district_id":"121814","name":"Petuaran Hilir","postal_code":"20986"},{"id":"1218142009","district_id":"121814","name":"Pondok Tengah","postal_code":"20986"},{"id":"1218142010","district_id":"121814","name":"Sukasari","postal_code":"20986"},{"id":"1218142011","district_id":"121814","name":"Tanjung Putus","postal_code":"20986"},{"id":"1218142013","district_id":"121814","name":"Sennah","postal_code":"20986"}]