[{"id":"1219041001","district_id":"121904","name":"Lima Puluh Kota","postal_code":"21255"},{"id":"1219042011","district_id":"121904","name":"Mangkai Baru","postal_code":"21255"},{"id":"1219042012","district_id":"121904","name":"Mangkai Lama","postal_code":"21255"},{"id":"1219042014","district_id":"121904","name":"Perkebunan Dolok","postal_code":"21255"},{"id":"1219042015","district_id":"121904","name":"Perkebunan Kwala Gunung","postal_code":"21255"},{"id":"1219042016","district_id":"121904","name":"Antara","postal_code":"21255"},{"id":"1219042017","district_id":"121904","name":"Perkebunan Lima Puluh","postal_code":"21255"},{"id":"1219042018","district_id":"121904","name":"Perkebunan Limau Manis","postal_code":"21255"},{"id":"1219042019","district_id":"121904","name":"Perkebunan Tanah Gambus","postal_code":"21255"},{"id":"1219042025","district_id":"121904","name":"Simpang Gambus","postal_code":"21255"},{"id":"1219042026","district_id":"121904","name":"Sumber Makmur","postal_code":"21255"},{"id":"1219042027","district_id":"121904","name":"Sumber Padi","postal_code":"21255"}]