[{"id":"1221152001","district_id":"122115","name":"Pasir Julu","postal_code":"22765"},{"id":"1221152002","district_id":"122115","name":"Lumban Huayan","postal_code":"22765"},{"id":"1221152003","district_id":"122115","name":"Siborna Bunut","postal_code":"22765"},{"id":"1221152004","district_id":"122115","name":"Mananti Sosa Julu","postal_code":"22765"},{"id":"1221152005","district_id":"122115","name":"Ampolu","postal_code":"22765"},{"id":"1221152006","district_id":"122115","name":"Siginduang","postal_code":"22765"},{"id":"1221152007","district_id":"122115","name":"Ramba","postal_code":"22765"},{"id":"1221152008","district_id":"122115","name":"Roburan","postal_code":"22765"},{"id":"1221152009","district_id":"122115","name":"Tanjung","postal_code":"22765"},{"id":"1221152010","district_id":"122115","name":"Hurung Jilok","postal_code":"22765"},{"id":"1221152011","district_id":"122115","name":"Pasir Jae","postal_code":"22765"},{"id":"1221152012","district_id":"122115","name":"Sungai Jior","postal_code":"22765"}]