[{"id":"1221062001","district_id":"122106","name":"Simanuldang Jae","postal_code":"22767"},{"id":"1221062002","district_id":"122106","name":"Simanuldang Julu","postal_code":"22767"},{"id":"1221062003","district_id":"122106","name":"Tapian Nauli","postal_code":"22767"},{"id":"1221062004","district_id":"122106","name":"Handang Kopo","postal_code":"22767"},{"id":"1221062005","district_id":"122106","name":"Subulussalam","postal_code":"22767"},{"id":"1221062006","district_id":"122106","name":"Pintu Padang","postal_code":"22767"},{"id":"1221062007","district_id":"122106","name":"Matondang","postal_code":"22767"},{"id":"1221062008","district_id":"122106","name":"Pasar Ipuh","postal_code":"22767"},{"id":"1221062009","district_id":"122106","name":"Paringgonan","postal_code":"22767"},{"id":"1221062010","district_id":"122106","name":"Paringgonan Julu","postal_code":"22767"},{"id":"1221062011","district_id":"122106","name":"Paran Batu","postal_code":"22767"},{"id":"1221062012","district_id":"122106","name":"Sibual Buali","postal_code":"22767"},{"id":"1221062013","district_id":"122106","name":"Tanjung","postal_code":"22767"},{"id":"1221062014","district_id":"122106","name":"Siraisan","postal_code":"22767"},{"id":"1221062015","district_id":"122106","name":"Aek Haruaya","postal_code":"22767"}]