[{"id":"1221172001","district_id":"122117","name":"Tanjung Ale","postal_code":"22776"},{"id":"1221172002","district_id":"122117","name":"Sigala-Gala","postal_code":"22776"},{"id":"1221172003","district_id":"122117","name":"Simangambat","postal_code":"22776"},{"id":"1221172004","district_id":"122117","name":"Pir Trans Sosa I B","postal_code":"22776"},{"id":"1221172005","district_id":"122117","name":"Pir Trans Sosa I A","postal_code":"22776"},{"id":"1221172006","district_id":"122117","name":"Gunung Manaon","postal_code":"22742"},{"id":"1221172007","district_id":"122117","name":"Muara Tige","postal_code":"22742"},{"id":"1221172008","district_id":"122117","name":"Sibodak Papaso","postal_code":"22742"},{"id":"1221172009","district_id":"122117","name":"Gunung Inten","postal_code":"22742"},{"id":"1221172010","district_id":"122117","name":"Pagaran Baringin","postal_code":"22742"},{"id":"1221172011","district_id":"122117","name":"Salambue","postal_code":"22742"},{"id":"1221172012","district_id":"122117","name":"Papaso","postal_code":"22742"},{"id":"1221172013","district_id":"122117","name":"Rombayan","postal_code":"22742"}]