[{"id":"1221122001","district_id":"122112","name":"Lubuk Gonting","postal_code":"22755"},{"id":"1221122002","district_id":"122112","name":"Padang Hasior Dolok","postal_code":"22755"},{"id":"1221122003","district_id":"122112","name":"Padang Hasior ","postal_code":"22755"},{"id":"1221122004","district_id":"122112","name":"Sitada Tada","postal_code":"22755"},{"id":"1221122005","district_id":"122112","name":"Paran Dolok","postal_code":"22755"},{"id":"1221122006","district_id":"122112","name":"Ujung Gading","postal_code":"22755"},{"id":"1221122007","district_id":"122112","name":"Simaninggir","postal_code":"22755"},{"id":"1221122008","district_id":"122112","name":"Tanjung Morang","postal_code":"22755"},{"id":"1221122009","district_id":"122112","name":"Silenjeng","postal_code":"22755"},{"id":"1221122010","district_id":"122112","name":"Aek Goti","postal_code":"22755"},{"id":"1221122011","district_id":"122112","name":"Gulangan","postal_code":"22755"},{"id":"1221122012","district_id":"122112","name":"Ujung Padang","postal_code":"22755"},{"id":"1221122013","district_id":"122112","name":"Balangka","postal_code":"22755"}]