[{"id":"1223011001","district_id":"122301","name":"Aek Kanopan","postal_code":"21457"},{"id":"1223011002","district_id":"122301","name":"Aek Kanopan Timur","postal_code":"21457"},{"id":"1223012003","district_id":"122301","name":"Kuala Beringin","postal_code":"21457"},{"id":"1223012004","district_id":"122301","name":"Parpaudangan","postal_code":"21457"},{"id":"1223012005","district_id":"122301","name":"Pulo Dogom","postal_code":"21457"},{"id":"1223012006","district_id":"122301","name":"Londut","postal_code":"21457"},{"id":"1223012007","district_id":"122301","name":"Perkebunan Kanopan Ulu","postal_code":"21457"},{"id":"1223012008","district_id":"122301","name":"Perkebunan Membang Muda","postal_code":"21457"},{"id":"1223012009","district_id":"122301","name":"Perkebunan Labuhan Haji","postal_code":"21457"},{"id":"1223012010","district_id":"122301","name":"Perkebunan Hanna","postal_code":"21457"},{"id":"1223012011","district_id":"122301","name":"Sonomartani","postal_code":"21457"},{"id":"1223012012","district_id":"122301","name":"Sukarame","postal_code":"21457"},{"id":"1223012013","district_id":"122301","name":"Sukarame Baru","postal_code":"21457"}]