[{"id":"1224072001","district_id":"122407","name":"Bitaya","postal_code":"22861"},{"id":"1224072002","district_id":"122407","name":"Lahemboho","postal_code":"22861"},{"id":"1224072003","district_id":"122407","name":"Anaoma","postal_code":"22861"},{"id":"1224072004","district_id":"122407","name":"Dahana Tugala Oyo","postal_code":"22861"},{"id":"1224072005","district_id":"122407","name":"Fulolo","postal_code":"22861"},{"id":"1224072006","district_id":"122407","name":"Hiligawoni","postal_code":"22861"},{"id":"1224072007","district_id":"122407","name":"Ononamolo Tumula","postal_code":"22861"},{"id":"1224072008","district_id":"122407","name":"Banua Sibohou I","postal_code":"22861"},{"id":"1224072009","district_id":"122407","name":"Ombolata","postal_code":"22861"},{"id":"1224072010","district_id":"122407","name":"Banua Sibohou II","postal_code":"22861"},{"id":"1224072011","district_id":"122407","name":"Dahana Alasa","postal_code":"22861"},{"id":"1224072012","district_id":"122407","name":"Ononamolo Alasa","postal_code":"22861"},{"id":"1224072013","district_id":"122407","name":"Loloana'a","postal_code":"22861"},{"id":"1224072014","district_id":"122407","name":"Hilisebua Siwalubanua ","postal_code":"22861"}]