[{"id":"1225052001","district_id":"122505","name":"Simaeasi ","postal_code":"22862"},{"id":"1225052002","district_id":"122505","name":"Lologolu","postal_code":"22862"},{"id":"1225052003","district_id":"122505","name":"Tuwuna ","postal_code":"22862"},{"id":"1225052004","district_id":"122505","name":"Tuhemberua","postal_code":"22862"},{"id":"1225052005","district_id":"122505","name":"Lolozirugi","postal_code":"22862"},{"id":"1225052006","district_id":"122505","name":"Lakhene ","postal_code":"22862"},{"id":"1225052007","district_id":"122505","name":"Hiliwaloo I ","postal_code":"22862"},{"id":"1225052008","district_id":"122505","name":"Sianaa ","postal_code":"22862"},{"id":"1225052009","district_id":"122505","name":"Fadoro","postal_code":"22862"},{"id":"1225052010","district_id":"122505","name":"Iraonogambo ","postal_code":"22862"},{"id":"1225052011","district_id":"122505","name":"Tuhoowo ","postal_code":"22862"},{"id":"1225052012","district_id":"122505","name":"Fadoro Bahili","postal_code":"22862"},{"id":"1225052013","district_id":"122505","name":"Tumori","postal_code":"22862"},{"id":"1225052014","district_id":"122505","name":"Lasara Baene","postal_code":"22862"},{"id":"1225052015","district_id":"122505","name":"Tetehosi","postal_code":"22862"},{"id":"1225052016","district_id":"122505","name":"Sisarahili I","postal_code":"22862"},{"id":"1225052017","district_id":"122505","name":"Doli-Doli","postal_code":"22862"},{"id":"1225052018","district_id":"122505","name":"Hayo","postal_code":"22867"},{"id":"1225052019","district_id":"122505","name":"ZuzuNdrao","postal_code":"22862"},{"id":"1225052020","district_id":"122505","name":"Sisobambowo","postal_code":"22862"}]