[{"id":"1277011001","district_id":"127701","name":"Wek I","postal_code":"22715"},{"id":"1277011002","district_id":"127701","name":"Wek II","postal_code":"22718"},{"id":"1277011003","district_id":"127701","name":"Wek III","postal_code":"22719"},{"id":"1277011004","district_id":"127701","name":"Wek IV","postal_code":"22719"},{"id":"1277011005","district_id":"127701","name":"Tanobato","postal_code":"22716"},{"id":"1277011006","district_id":"127701","name":"Tobat","postal_code":"22716"},{"id":"1277011007","district_id":"127701","name":"Batang Ayumi Jae","postal_code":"22716"},{"id":"1277011008","district_id":"127701","name":"Batang Ayumi Julu","postal_code":"22711"},{"id":"1277011009","district_id":"127701","name":"Sadabuan","postal_code":"22715"},{"id":"1277011010","district_id":"127701","name":"Panyanggar","postal_code":"22714"},{"id":"1277011011","district_id":"127701","name":"Bonan Dolok","postal_code":"22712"},{"id":"1277011012","district_id":"127701","name":"Losung Batu","postal_code":"22713"},{"id":"1277011013","district_id":"127701","name":"Timbangan","postal_code":"22711"},{"id":"1277011014","district_id":"127701","name":"Bincar","postal_code":"22711"},{"id":"1277011015","district_id":"127701","name":"Kantin","postal_code":"22711"},{"id":"1277011016","district_id":"127701","name":"Kayu Ombun","postal_code":"22711"}]