[{"id":"1277051001","district_id":"127705","name":"Sihitang","postal_code":"22730"},{"id":"1277051002","district_id":"127705","name":"Pijor Koling","postal_code":"22730"},{"id":"1277052003","district_id":"127705","name":"Palopat ","postal_code":"22730"},{"id":"1277052004","district_id":"127705","name":"Salambue","postal_code":"22730"},{"id":"1277052005","district_id":"127705","name":"Purbatua Pijor Koling","postal_code":"22730"},{"id":"1277052006","district_id":"127705","name":"Sigulang","postal_code":"22730"},{"id":"1277052007","district_id":"127705","name":"Manunggang Julu","postal_code":"22730"},{"id":"1277052008","district_id":"127705","name":"Goti","postal_code":"22730"},{"id":"1277052009","district_id":"127705","name":"Manegen","postal_code":"22730"},{"id":"1277052010","district_id":"127705","name":"Huta Koje ","postal_code":"22730"},{"id":"1277052011","district_id":"127705","name":"Hutalimbong ","postal_code":"22730"},{"id":"1277052012","district_id":"127705","name":"Huta Padang","postal_code":"22730"},{"id":"1277052013","district_id":"127705","name":"Perkebunan Pijor Koling","postal_code":"22730"},{"id":"1277052014","district_id":"127705","name":"Labuhan Labo","postal_code":"22730"},{"id":"1277052015","district_id":"127705","name":"Huta Lombang","postal_code":"22730"},{"id":"1277052016","district_id":"127705","name":"Manunggang Jae","postal_code":"22730"},{"id":"1277052017","district_id":"127705","name":"Labuhan Rasoki","postal_code":"22730"},{"id":"1277052018","district_id":"127705","name":"Tarutung Baru","postal_code":"22730"}]