[{"id":"1278042001","district_id":"127804","name":"Sifalaete","postal_code":"22870"},{"id":"1278042002","district_id":"127804","name":"Hilimbawodesolo ","postal_code":"22870"},{"id":"1278042003","district_id":"127804","name":"Dahana","postal_code":"22870"},{"id":"1278042004","district_id":"127804","name":"Bawodesolo","postal_code":"22870"},{"id":"1278042005","district_id":"127804","name":"Tuhegeo I","postal_code":"22870"},{"id":"1278042006","district_id":"127804","name":"Simanaere","postal_code":"22870"},{"id":"1278042007","district_id":"127804","name":"Humene","postal_code":"22870"},{"id":"1278042008","district_id":"127804","name":"Siwalubanua II","postal_code":"22870"},{"id":"1278042009","district_id":"127804","name":"Helefanikha","postal_code":"22870"},{"id":"1278042010","district_id":"127804","name":"Tetehosi I","postal_code":"22870"},{"id":"1278042011","district_id":"127804","name":"Fowa","postal_code":"22870"},{"id":"1278042012","district_id":"127804","name":"Binaka","postal_code":"22870"},{"id":"1278042013","district_id":"127804","name":"Idanotae","postal_code":"22870"},{"id":"1278042014","district_id":"127804","name":"Tetehosi II","postal_code":"22870"},{"id":"1278042015","district_id":"127804","name":"Lolo'ana'a Idanoi ","postal_code":"22870"},{"id":"1278042016","district_id":"127804","name":"Siwalubanua I","postal_code":"22870"},{"id":"1278042017","district_id":"127804","name":"Hilihambawa","postal_code":"22870"},{"id":"1278042018","district_id":"127804","name":"Awa'ai ","postal_code":"22870"},{"id":"1278042019","district_id":"127804","name":"Lewuoguru Idanoi","postal_code":"22870"},{"id":"1278042020","district_id":"127804","name":"Fadoro","postal_code":"22870"},{"id":"1278042021","district_id":"127804","name":"Hiliweto Idanoi","postal_code":"22870"},{"id":"1278042022","district_id":"127804","name":"Hilimbowo Idanoi","postal_code":"22870"},{"id":"1278042023","district_id":"127804","name":"Onowaembo","postal_code":"22870"},{"id":"1278042024","district_id":"127804","name":"Ombolata","postal_code":"22870"},{"id":"1278042025","district_id":"127804","name":"Samasi","postal_code":"22870"},{"id":"1278042026","district_id":"127804","name":"Tuhegeo II","postal_code":"22870"}]