[{"id":"1301052001","district_id":"130105","name":"Painan","postal_code":"25651"},{"id":"1301052002","district_id":"130105","name":"Tambang","postal_code":"25651"},{"id":"1301052003","district_id":"130105","name":"Salido","postal_code":"25651"},{"id":"1301052004","district_id":"130105","name":"Lumpo","postal_code":"25651"},{"id":"1301052005","district_id":"130105","name":"Bunga Pasang Salido","postal_code":"25651"},{"id":"1301052006","district_id":"130105","name":"Sago Salido","postal_code":"25651"},{"id":"1301052007","district_id":"130105","name":"Salido Sari Bulan","postal_code":"25651"},{"id":"1301052008","district_id":"130105","name":"Koto Rawang","postal_code":"25651"},{"id":"1301052009","district_id":"130105","name":"Limau Gadang Lumpo","postal_code":"25651"},{"id":"1301052010","district_id":"130105","name":"Batu Kunik Lumpo","postal_code":"25651"},{"id":"1301052011","district_id":"130105","name":"Taratak Tangah Lumpo","postal_code":"25651"},{"id":"1301052012","district_id":"130105","name":"Ampuan Lumpo","postal_code":"25651"},{"id":"1301052013","district_id":"130105","name":"Ampang Tareh Lumpo","postal_code":"25651"},{"id":"1301052014","district_id":"130105","name":"Balai Sinayan Lumpo","postal_code":"25651"},{"id":"1301052015","district_id":"130105","name":"Sungai Gayo Lumpo ","postal_code":"25651"},{"id":"1301052016","district_id":"130105","name":"Sungai Sariak Lumpo ","postal_code":"25651"},{"id":"1301052017","district_id":"130105","name":"Bukik Kaciak Lumpo ","postal_code":"25651"},{"id":"1301052018","district_id":"130105","name":"Gunung Bungkuak Lumpo ","postal_code":"25651"},{"id":"1301052019","district_id":"130105","name":"Painan Selatan Painan","postal_code":"25651"},{"id":"1301052020","district_id":"130105","name":"Painan Timur Painan","postal_code":"25651"}]