[{"id":"1301062005","district_id":"130106","name":"Koto Berapak","postal_code":"25652"},{"id":"1301062006","district_id":"130106","name":"Talaok","postal_code":"25652"},{"id":"1301062007","district_id":"130106","name":"Pasar Baru","postal_code":"25652"},{"id":"1301062008","district_id":"130106","name":"Gurun Panjang","postal_code":"25652"},{"id":"1301062009","district_id":"130106","name":"Api-api Pasar Baru","postal_code":"25652"},{"id":"1301062010","district_id":"130106","name":"Tanjung Durian Pasar Baru","postal_code":"25652"},{"id":"1301062011","district_id":"130106","name":"Asam Kamba Pasar Baru","postal_code":"25652"},{"id":"1301062012","district_id":"130106","name":"Sawah Laweh Pasar Baru","postal_code":"25652"},{"id":"1301062013","district_id":"130106","name":"Kapeh Panji Jaya Talaok","postal_code":"25652"},{"id":"1301062014","district_id":"130106","name":"Aur Begalung Talaok","postal_code":"25652"},{"id":"1301062015","district_id":"130106","name":"Kapelgam Koto Berapak","postal_code":"25652"},{"id":"1301062016","district_id":"130106","name":"Koto Baru Koto Berapak","postal_code":"25652"},{"id":"1301062017","district_id":"130106","name":"Kubang Koto Berapak","postal_code":"25652"},{"id":"1301062018","district_id":"130106","name":"Kapujan Koto Berapak","postal_code":"25652"},{"id":"1301062019","district_id":"130106","name":"Gurun Panjang Utara","postal_code":"25652"},{"id":"1301062020","district_id":"130106","name":"Gurun Panjang Barat","postal_code":"25652"},{"id":"1301062021","district_id":"130106","name":"Gurun Panjang Selatan","postal_code":"25652"}]