[{"id":"1312032003","district_id":"131203","name":"Lingkuang Aua","postal_code":"26566"},{"id":"1312032004","district_id":"131203","name":"Aua Kuniang","postal_code":"26566"},{"id":"1312032006","district_id":"131203","name":"Aia Gadang","postal_code":"26566"},{"id":"1312032007","district_id":"131203","name":"Lingkuang Aua Timur","postal_code":"26566"},{"id":"1312032008","district_id":"131203","name":"Lingkuang Aua Baru","postal_code":"26566"},{"id":"1312032009","district_id":"131203","name":"Lingkuang Aua Bandarajo","postal_code":"26566"},{"id":"1312032010","district_id":"131203","name":"Lingkuang Aua Jambak","postal_code":"26566"},{"id":"1312032011","district_id":"131203","name":"Lingkuang Aua Koto Dalam","postal_code":"26566"},{"id":"1312032012","district_id":"131203","name":"Lingkuang Aua Barat","postal_code":"26566"},{"id":"1312032013","district_id":"131203","name":"Lingkuang Aua Hilia","postal_code":"26566"},{"id":"1312032014","district_id":"131203","name":"Sukomananti Aua Kuniang","postal_code":"26566"},{"id":"1312032015","district_id":"131203","name":"Aia Gadang Timur","postal_code":"26566"},{"id":"1312032016","district_id":"131203","name":"Aia Gadang Barat","postal_code":"26566"},{"id":"1312032017","district_id":"131203","name":"Pinaga Aua Kuniang","postal_code":"26566"},{"id":"1312032018","district_id":"131203","name":"Lubuak Landua Aua Kuniang","postal_code":"26566"},{"id":"1312032019","district_id":"131203","name":"Lembah Binuang Aua Kuniang","postal_code":"26566"}]