[{"id":"1371011001","district_id":"137101","name":"Belakang Pondok","postal_code":"25211"},{"id":"1371011002","district_id":"137101","name":"Alang Laweh","postal_code":"25211"},{"id":"1371011003","district_id":"137101","name":"Ranah Parak Rumbio","postal_code":"25212"},{"id":"1371011004","district_id":"137101","name":"Pasa Gadang","postal_code":"25213"},{"id":"1371011005","district_id":"137101","name":"Batang Arau","postal_code":"25215"},{"id":"1371011006","district_id":"137101","name":"Seberang Palinggam","postal_code":"25215"},{"id":"1371011007","district_id":"137101","name":"Seberang Padang","postal_code":"25214"},{"id":"1371011008","district_id":"137101","name":"Mata Air","postal_code":"25216"},{"id":"1371011009","district_id":"137101","name":"Rawang","postal_code":"25216"},{"id":"1371011010","district_id":"137101","name":"Teluk Bayur","postal_code":"25217"},{"id":"1371011011","district_id":"137101","name":"Air Manis","postal_code":"25217"},{"id":"1371011012","district_id":"137101","name":"Bukit Gado-gado","postal_code":"25215"}]