[{"id":"1402031019","district_id":"140203","name":"Simpang Kelayang","postal_code":"29352"},{"id":"1402032007","district_id":"140203","name":"Pulau Sengkilo","postal_code":"29352"},{"id":"1402032008","district_id":"140203","name":"Kota Medan","postal_code":"29352"},{"id":"1402032009","district_id":"140203","name":"Simpang Kota Medan","postal_code":"29352"},{"id":"1402032010","district_id":"140203","name":"Polak Pisang","postal_code":"29352"},{"id":"1402032018","district_id":"140203","name":"Pelangko","postal_code":"29352"},{"id":"1402032020","district_id":"140203","name":"Teluk Sejuah","postal_code":"29352"},{"id":"1402032021","district_id":"140203","name":"Bongkal Malang","postal_code":"29352"},{"id":"1402032022","district_id":"140203","name":"Dusun Tua","postal_code":"29352"},{"id":"1402032024","district_id":"140203","name":"Sungai Banyak Ikan","postal_code":"29352"},{"id":"1402032025","district_id":"140203","name":"Tanjung Beludu","postal_code":"29352"},{"id":"1402032026","district_id":"140203","name":"Sungai Pasir Putih","postal_code":"29352"},{"id":"1402032027","district_id":"140203","name":"Sungai Golang","postal_code":"29352"},{"id":"1402032028","district_id":"140203","name":"Pasir Beringin","postal_code":"29352"},{"id":"1402032029","district_id":"140203","name":"Sungai Kuning Benio","postal_code":"29352"},{"id":"1402032030","district_id":"140203","name":"Bukit Selanjut","postal_code":"29352"},{"id":"1402032031","district_id":"140203","name":"Dusun Tua Pelang","postal_code":"29352"}]