[{"id":"1403122001","district_id":"140312","name":"Lubuk Muda","postal_code":"28771"},{"id":"1403122002","district_id":"140312","name":"Tanjung Belit","postal_code":"28771"},{"id":"1403122003","district_id":"140312","name":"Sungai Siput","postal_code":"28771"},{"id":"1403122004","district_id":"140312","name":"Sepotong","postal_code":"28771"},{"id":"1403122005","district_id":"140312","name":"Lubuk Gaung","postal_code":"28771"},{"id":"1403122006","district_id":"140312","name":"Langkat","postal_code":"28771"},{"id":"1403122007","district_id":"140312","name":"Sadar Jaya","postal_code":"28771"},{"id":"1403122008","district_id":"140312","name":"Sungai Linau","postal_code":"28771"},{"id":"1403122009","district_id":"140312","name":"Bandar Jaya","postal_code":"28771"},{"id":"1403122010","district_id":"140312","name":"Muara Dua","postal_code":"28771"},{"id":"1403122011","district_id":"140312","name":"Tanjung Damai","postal_code":"28771"},{"id":"1403122012","district_id":"140312","name":"Sumber Jaya","postal_code":"28771"},{"id":"1403122013","district_id":"140312","name":"Lubuk Garam","postal_code":"28771"},{"id":"1403122014","district_id":"140312","name":"Liang Banir","postal_code":"28771"},{"id":"1403122015","district_id":"140312","name":"Tanjung Datuk","postal_code":"28771"},{"id":"1403122016","district_id":"140312","name":"Koto Raja","postal_code":"28771"},{"id":"1403122017","district_id":"140312","name":"Sungai Nibung","postal_code":"28771"}]