[{"id":"1404162001","district_id":"140416","name":"Hibrida Mulia ","postal_code":"29258"},{"id":"1404162002","district_id":"140416","name":"Indra Sari Jaya","postal_code":"29258"},{"id":"1404162003","district_id":"140416","name":"Tunggal Rahayu Jaya","postal_code":"29258"},{"id":"1404162004","district_id":"140416","name":"Griya Mukti Jaya","postal_code":"29258"},{"id":"1404162005","district_id":"140416","name":"Beringin Mulia ","postal_code":"29258"},{"id":"1404162006","district_id":"140416","name":"Hibrida Jaya","postal_code":"29258"},{"id":"1404162007","district_id":"140416","name":"Sumber Jaya","postal_code":"29258"},{"id":"1404162008","district_id":"140416","name":"Sumber Makmur Jaya","postal_code":"29258"},{"id":"1404162009","district_id":"140416","name":"Sumber Sari Jaya","postal_code":"29258"},{"id":"1404162010","district_id":"140416","name":"Kelapa Patih Jaya","postal_code":"29258"},{"id":"1404162011","district_id":"140416","name":"Sapta Mulia Jaya ","postal_code":"29258"},{"id":"1404162012","district_id":"140416","name":"Saka Rotan","postal_code":"29258"},{"id":"1404162013","district_id":"140416","name":"Gembaran","postal_code":"29258"}]