[{"id":"1406072001","district_id":"140607","name":"Rambah Samo","postal_code":"28565"},{"id":"1406072002","district_id":"140607","name":"Rambah Samo Barat","postal_code":"28565"},{"id":"1406072003","district_id":"140607","name":"Rambah Baru","postal_code":"28565"},{"id":"1406072004","district_id":"140607","name":"Rambah Utama","postal_code":"28565"},{"id":"1406072005","district_id":"140607","name":"Pasir Makmur","postal_code":"28565"},{"id":"1406072006","district_id":"140607","name":"Karya Mulya","postal_code":"28565"},{"id":"1406072007","district_id":"140607","name":"Marga Mulya","postal_code":"28565"},{"id":"1406072008","district_id":"140607","name":"Langkitin","postal_code":"28565"},{"id":"1406072009","district_id":"140607","name":"Masda Makmur","postal_code":"28565"},{"id":"1406072010","district_id":"140607","name":"Lubuk Napal","postal_code":"28565"},{"id":"1406072011","district_id":"140607","name":"Teluk Aur","postal_code":"28565"},{"id":"1406072012","district_id":"140607","name":"Sei Salak","postal_code":"28565"},{"id":"1406072013","district_id":"140607","name":"Sei Kuning","postal_code":"28565"},{"id":"1406072014","district_id":"140607","name":"Lubuk Bilang","postal_code":"28565"}]