[{"id":"1407152001","district_id":"140715","name":"Rantau Panjang Kiri","postal_code":"28990"},{"id":"1407152002","district_id":"140715","name":"Teluknilap","postal_code":"28990"},{"id":"1407152003","district_id":"140715","name":"Sungaimajo","postal_code":"28990"},{"id":"1407152004","district_id":"140715","name":"Sungaipinang","postal_code":"28990"},{"id":"1407152005","district_id":"140715","name":"Sungaipanji-panji","postal_code":"28990"},{"id":"1407152006","district_id":"140715","name":"Jojol","postal_code":"28990"},{"id":"1407152007","district_id":"140715","name":"Pulauhalang Muka","postal_code":"28990"},{"id":"1407152008","district_id":"140715","name":"Pulauhalang Belakang","postal_code":"28990"},{"id":"1407152009","district_id":"140715","name":"Rantau Panjang Kiri Hilir","postal_code":"28990"},{"id":"1407152010","district_id":"140715","name":"Teluknilap Jaya","postal_code":"28990"},{"id":"1407152011","district_id":"140715","name":"Sungaimajo Pusako","postal_code":"28990"},{"id":"1407152012","district_id":"140715","name":"Pulauhalang Hulu","postal_code":"28990"}]