[{"id":"1408072001","district_id":"140807","name":"Kerinci Kanan","postal_code":"28654"},{"id":"1408072002","district_id":"140807","name":"Kerinci Kiri","postal_code":"28654"},{"id":"1408072003","district_id":"140807","name":"Buana Bakti\/Bhakti","postal_code":"28654"},{"id":"1408072004","district_id":"140807","name":"Bukit Harapan","postal_code":"28654"},{"id":"1408072005","district_id":"140807","name":"Kumbara Utama","postal_code":"28654"},{"id":"1408072006","district_id":"140807","name":"Bukit Agung","postal_code":"28654"},{"id":"1408072008","district_id":"140807","name":"Simpang Perak Jaya","postal_code":"28654"},{"id":"1408072009","district_id":"140807","name":"Buatan Baru","postal_code":"28654"},{"id":"1408072010","district_id":"140807","name":"Gabung Makmur","postal_code":"28654"},{"id":"1408072011","district_id":"140807","name":"Jati Mulia\/Mulya","postal_code":"28654"},{"id":"1408072012","district_id":"140807","name":"Seminai","postal_code":"28654"},{"id":"1408072013","district_id":"140807","name":"Delima Jaya","postal_code":"28654"}]