[{"id":"1409112001","district_id":"140911","name":"Pasar Inuman","postal_code":"29569"},{"id":"1409112002","district_id":"140911","name":"Koto Inuman","postal_code":"29569"},{"id":"1409112003","district_id":"140911","name":"Pulaupanjang Hulu ","postal_code":"29569"},{"id":"1409112004","district_id":"140911","name":"Pulaupanjang Hilir ","postal_code":"29569"},{"id":"1409112005","district_id":"140911","name":"Sigaruntang","postal_code":"29569"},{"id":"1409112006","district_id":"140911","name":"Pulaubusuk ","postal_code":"29569"},{"id":"1409112007","district_id":"140911","name":"Bedeng Sikuran","postal_code":"29569"},{"id":"1409112008","district_id":"140911","name":"Banjar Nan Tigo ","postal_code":"29569"},{"id":"1409112009","district_id":"140911","name":"Pulausipan ","postal_code":"29569"},{"id":"1409112010","district_id":"140911","name":"Pulaubusuk Jaya ","postal_code":"29569"},{"id":"1409112011","district_id":"140911","name":"Seberang Pulau Busuk","postal_code":"29569"},{"id":"1409112012","district_id":"140911","name":"Lebuh Lurus","postal_code":"29569"},{"id":"1409112013","district_id":"140911","name":"Kampung Baru Koto","postal_code":"29569"},{"id":"1409112014","district_id":"140911","name":"Ketaping Jaya","postal_code":"29569"}]