[{"id":"1409041001","district_id":"140904","name":"Pasar Usang","postal_code":"29561"},{"id":"1409041002","district_id":"140904","name":"Pasar Baru","postal_code":"29561"},{"id":"1409042003","district_id":"140904","name":"Simpang Tanah Lapang","postal_code":"29561"},{"id":"1409042004","district_id":"140904","name":"Rawang Bonto","postal_code":"29561"},{"id":"1409042005","district_id":"140904","name":"Koto Tuo","postal_code":"29561"},{"id":"1409042006","district_id":"140904","name":"Banuaran","postal_code":"29561"},{"id":"1409042007","district_id":"140904","name":"Kampung Madura","postal_code":"29561"},{"id":"1409042009","district_id":"140904","name":"Pulau Kijang","postal_code":"29561"},{"id":"1409042015","district_id":"140904","name":"Pulaumadinah","postal_code":"29561"},{"id":"1409042016","district_id":"140904","name":"Kampung Tengah","postal_code":"29561"},{"id":"1409042017","district_id":"140904","name":"Kampung Medan","postal_code":"29561"},{"id":"1409042018","district_id":"140904","name":"Kepala Pulau","postal_code":"29561"},{"id":"1409042019","district_id":"140904","name":"Teratak Baru","postal_code":"29561"},{"id":"1409042020","district_id":"140904","name":"Dusun Tuo","postal_code":"29561"},{"id":"1409042028","district_id":"140904","name":"Gunungmelintang","postal_code":"29561"},{"id":"1409042030","district_id":"140904","name":"Simpang Pulauberalo","postal_code":"29561"}]