[{"id":"1409141015","district_id":"140914","name":"Beringin Jaya","postal_code":"29567"},{"id":"1409142001","district_id":"140914","name":"Pulaukomang Sentajo","postal_code":"29567"},{"id":"1409142002","district_id":"140914","name":"Muaro Sentajo","postal_code":"29567"},{"id":"1409142003","district_id":"140914","name":"Koto Sentajo","postal_code":"29567"},{"id":"1409142004","district_id":"140914","name":"Kampungbaru Sentajo ","postal_code":"29567"},{"id":"1409142005","district_id":"140914","name":"Pulaukopung Sentajo","postal_code":"29567"},{"id":"1409142006","district_id":"140914","name":"Teratak Air Hitam","postal_code":"29567"},{"id":"1409142007","district_id":"140914","name":"Seberang Teratak Air Hitam","postal_code":"29567"},{"id":"1409142008","district_id":"140914","name":"Parit Teratak Air Hitam","postal_code":"29567"},{"id":"1409142009","district_id":"140914","name":"Jalur Patah","postal_code":"29567"},{"id":"1409142010","district_id":"140914","name":"Geringing Baru","postal_code":"29567"},{"id":"1409142011","district_id":"140914","name":"Marsawa","postal_code":"29567"},{"id":"1409142012","district_id":"140914","name":"Langsat Hulu","postal_code":"29567"},{"id":"1409142013","district_id":"140914","name":"Muara Langsat","postal_code":"29567"},{"id":"1409142014","district_id":"140914","name":"Geringging Jaya","postal_code":"29567"}]