[{"id":"1409082001","district_id":"140908","name":"Koto Baru","postal_code":"29560"},{"id":"1409082002","district_id":"140908","name":"Petai","postal_code":"29560"},{"id":"1409082003","district_id":"140908","name":"Sungaipaku ","postal_code":"29560"},{"id":"1409082004","district_id":"140908","name":"Tanjungpauh ","postal_code":"29560"},{"id":"1409082005","district_id":"140908","name":"Simpang Raya","postal_code":"29560"},{"id":"1409082006","district_id":"140908","name":"Sungaibuluh ","postal_code":"29560"},{"id":"1409082007","district_id":"140908","name":"Suka Damai","postal_code":"29560"},{"id":"1409082008","district_id":"140908","name":"Sumber Jaya","postal_code":"29560"},{"id":"1409082009","district_id":"140908","name":"Muara Bahan","postal_code":"29560"},{"id":"1409082010","district_id":"140908","name":"Bukitraya ","postal_code":"29560"},{"id":"1409082011","district_id":"140908","name":"Beringin Jaya","postal_code":"29560"},{"id":"1409082012","district_id":"140908","name":"Suka Maju ","postal_code":"29560"}]