[{"id":"1409122001","district_id":"140912","name":"Lubuk Ambacang","postal_code":"29568"},{"id":"1409122002","district_id":"140912","name":"Sungaikelelawar","postal_code":"29568"},{"id":"1409122003","district_id":"140912","name":"Tanjung","postal_code":"29568"},{"id":"1409122004","district_id":"140912","name":"Sungaipinang","postal_code":"29568"},{"id":"1409122005","district_id":"140912","name":"Sungaialah","postal_code":"29568"},{"id":"1409122006","district_id":"140912","name":"Koto Kombu","postal_code":"29568"},{"id":"1409122007","district_id":"140912","name":"Sumpu","postal_code":"29568"},{"id":"1409122008","district_id":"140912","name":"Mudik Ulo","postal_code":"29568"},{"id":"1409122009","district_id":"140912","name":"Inuman","postal_code":"29568"},{"id":"1409122010","district_id":"140912","name":"Tanjungmedang","postal_code":"29568"},{"id":"1409122011","district_id":"140912","name":"Serosa","postal_code":"29568"},{"id":"1409122012","district_id":"140912","name":"Sampurago","postal_code":"29568"}]