[{"id":"1501052002","district_id":"150105","name":"Baru Semurup","postal_code":"37168"},{"id":"1501052004","district_id":"150105","name":"Koto Dua Lama","postal_code":"37168"},{"id":"1501052012","district_id":"150105","name":"Koto Di Air ","postal_code":"37168"},{"id":"1501052013","district_id":"150105","name":"Pasar Semurup","postal_code":"37168"},{"id":"1501052014","district_id":"150105","name":"Balai","postal_code":"37168"},{"id":"1501052015","district_id":"150105","name":"Koto Majidin Hilir","postal_code":"37168"},{"id":"1501052016","district_id":"150105","name":"Pendung Hilir","postal_code":"37168"},{"id":"1501052018","district_id":"150105","name":"Pendung Mudik","postal_code":"37168"},{"id":"1501052022","district_id":"150105","name":"Air Tenang","postal_code":"37168"},{"id":"1501052024","district_id":"150105","name":"Muara Semerah","postal_code":"37168"},{"id":"1501052029","district_id":"150105","name":"Koto Majidin Mudik","postal_code":"37168"},{"id":"1501052035","district_id":"150105","name":"Muara Semerah Mudik","postal_code":"37168"},{"id":"1501052036","district_id":"150105","name":"Sawahan Koto ","postal_code":"37168"},{"id":"1501052037","district_id":"150105","name":"Sawahan Jaya ","postal_code":"37168"},{"id":"1501052038","district_id":"150105","name":"Koto Majidin Di Air","postal_code":"37168"},{"id":"1501052039","district_id":"150105","name":"Pendung Tengah","postal_code":"37168"}]