[{"id":"1501082001","district_id":"150108","name":"Jujun","postal_code":"37173"},{"id":"1501082002","district_id":"150108","name":"Talang Lindung","postal_code":"37173"},{"id":"1501082003","district_id":"150108","name":"Keluru","postal_code":"37173"},{"id":"1501082004","district_id":"150108","name":"Pidung","postal_code":"37173"},{"id":"1501082005","district_id":"150108","name":"Tanjungbatu ","postal_code":"37173"},{"id":"1501082006","district_id":"150108","name":"Benik","postal_code":"37173"},{"id":"1501082007","district_id":"150108","name":"Kt Tuo P. Tengah ","postal_code":"37173"},{"id":"1501082008","district_id":"150108","name":"Kt. Dian P. Tengah ","postal_code":"37173"},{"id":"1501082012","district_id":"150108","name":"Lempur Danau","postal_code":"37173"},{"id":"1501082013","district_id":"150108","name":"Dsn. Baru P. Tengah ","postal_code":"37173"},{"id":"1501082018","district_id":"150108","name":"Telago ","postal_code":"37173"},{"id":"1501082019","district_id":"150108","name":"Koto Agung","postal_code":"37173"},{"id":"1501082022","district_id":"150108","name":"Pulautengah","postal_code":"37173"},{"id":"1501082023","district_id":"150108","name":"Koto Baru","postal_code":"37173"},{"id":"1501082025","district_id":"150108","name":"Jembatan Merah","postal_code":"37173"},{"id":"1501082026","district_id":"150108","name":"Limok Manaih Pulau","postal_code":"37173"},{"id":"1501082027","district_id":"150108","name":"Pasar Jujun","postal_code":"37173"},{"id":"1501082028","district_id":"150108","name":"Pancuran Bangko","postal_code":"37173"}]