[{"id":"1502092001","district_id":"150209","name":"Nilo Dingin","postal_code":"37373"},{"id":"1502092002","district_id":"150209","name":"Tanjung Berugo","postal_code":"37373"},{"id":"1502092003","district_id":"150209","name":"Tuo","postal_code":"37373"},{"id":"1502092004","district_id":"150209","name":"Koto Rami","postal_code":"37373"},{"id":"1502092005","district_id":"150209","name":"Rancan","postal_code":"37373"},{"id":"1502092006","district_id":"150209","name":"Pasar Masurai","postal_code":"37373"},{"id":"1502092007","district_id":"150209","name":"Rantau Jering","postal_code":"37373"},{"id":"1502092008","district_id":"150209","name":"Tanjung Dalam","postal_code":"37373"},{"id":"1502092009","district_id":"150209","name":"Muaro Pangi","postal_code":"37373"},{"id":"1502092010","district_id":"150209","name":"Sungai Lalang","postal_code":"37373"},{"id":"1502092011","district_id":"150209","name":"Talang Asal","postal_code":"37373"},{"id":"1502092012","district_id":"150209","name":"Muara Kelukup","postal_code":"37373"},{"id":"1502092013","district_id":"150209","name":"Muara Lengayo","postal_code":"37373"},{"id":"1502092014","district_id":"150209","name":"Talang Paruh","postal_code":"37373"},{"id":"1502092015","district_id":"150209","name":"Durian Mukut","postal_code":"37373"}]