[{"id":"1503062001","district_id":"150306","name":"Mandiangin","postal_code":"37492"},{"id":"1503062002","district_id":"150306","name":"Rangkiling Simpang","postal_code":"37492"},{"id":"1503062003","district_id":"150306","name":"Pemusiran","postal_code":"37492"},{"id":"1503062004","district_id":"150306","name":"Gurun Tuo Simpang","postal_code":"37492"},{"id":"1503062005","district_id":"150306","name":"Gurun Mudo","postal_code":"37492"},{"id":"1503062006","district_id":"150306","name":"Gurun Tuo","postal_code":"37492"},{"id":"1503062007","district_id":"150306","name":"Rangkiling","postal_code":"37492"},{"id":"1503062008","district_id":"150306","name":"Mandiangin Tuo","postal_code":"37492"},{"id":"1503062009","district_id":"150306","name":"Kertopati ","postal_code":"37492"},{"id":"1503062010","district_id":"150306","name":"Muaro Ketalo","postal_code":"37492"},{"id":"1503062011","district_id":"150306","name":"Taman Dewa ","postal_code":"37492"},{"id":"1503062012","district_id":"150306","name":"Simpang Kertopati","postal_code":"37492"},{"id":"1503062013","district_id":"150306","name":"Bukit Peranginan ","postal_code":"37492"},{"id":"1503062020","district_id":"150306","name":"Gurun Baru","postal_code":"37492"},{"id":"1503062021","district_id":"150306","name":"Kute Jaye","postal_code":"37492"},{"id":"1503062022","district_id":"150306","name":"Mandiangin Pasar","postal_code":"37492"},{"id":"1503062023","district_id":"150306","name":"Sungai Rotan ","postal_code":"37492"},{"id":"1503062028","district_id":"150306","name":"Talang Serdang","postal_code":"37492"}]