[{"id":"1503031001","district_id":"150303","name":"Dusun Sarolangun","postal_code":"37481"},{"id":"1503031015","district_id":"150303","name":"Sukasari","postal_code":"37481"},{"id":"1503031016","district_id":"150303","name":"Pasar Sarolangun","postal_code":"37481"},{"id":"1503031019","district_id":"150303","name":"Sarolangun Kembang","postal_code":"37481"},{"id":"1503031025","district_id":"150303","name":"Gunung Kembang","postal_code":"37481"},{"id":"1503031026","district_id":"150303","name":"Aur Gading","postal_code":"37481"},{"id":"1503032002","district_id":"150303","name":"Bernai","postal_code":"37481"},{"id":"1503032003","district_id":"150303","name":"Sungai Baung","postal_code":"37481"},{"id":"1503032004","district_id":"150303","name":"Panti","postal_code":"37481"},{"id":"1503032005","district_id":"150303","name":"Tinting","postal_code":"37481"},{"id":"1503032006","district_id":"150303","name":"Sungai Abang","postal_code":"37481"},{"id":"1503032013","district_id":"150303","name":"Lidung","postal_code":"37481"},{"id":"1503032014","district_id":"150303","name":"Ladang Panjang","postal_code":"37481"},{"id":"1503032024","district_id":"150303","name":"Desa Baru","postal_code":"37481"},{"id":"1503032027","district_id":"150303","name":"Ujung Tanjung","postal_code":"37481"},{"id":"1503032028","district_id":"150303","name":"Bernai Dalam","postal_code":"37481"}]