[{"id":"1504021001","district_id":"150402","name":"Kampung Baru","postal_code":"36653"},{"id":"1504021002","district_id":"150402","name":"Pasar Muara Tembesi","postal_code":"36653"},{"id":"1504022003","district_id":"150402","name":"Jebak","postal_code":"36653"},{"id":"1504022004","district_id":"150402","name":"Ampelu","postal_code":"36653"},{"id":"1504022005","district_id":"150402","name":"Rambutan Masam","postal_code":"36653"},{"id":"1504022006","district_id":"150402","name":"Rantau Kapas Mudo","postal_code":"36653"},{"id":"1504022007","district_id":"150402","name":"Rantau Kapas Tuo","postal_code":"36653"},{"id":"1504022008","district_id":"150402","name":"Sungai Pulai","postal_code":"36653"},{"id":"1504022009","district_id":"150402","name":"Pulau","postal_code":"36653"},{"id":"1504022010","district_id":"150402","name":"Tanjung Marwo","postal_code":"36653"},{"id":"1504022011","district_id":"150402","name":"Suka Ramai ","postal_code":"36653"},{"id":"1504022012","district_id":"150402","name":"Ampelu Mudo","postal_code":"36653"},{"id":"1504022013","district_id":"150402","name":"Pelayangan","postal_code":"36653"},{"id":"1504022015","district_id":"150402","name":"Pematang Lima Suku","postal_code":"36653"}]