[{"id":"1508092001","district_id":"150809","name":"Koto Jayo","postal_code":"37252"},{"id":"1508092002","district_id":"150809","name":"Danau","postal_code":"37252"},{"id":"1508092003","district_id":"150809","name":"Muara Kuamang","postal_code":"37252"},{"id":"1508092004","district_id":"150809","name":"Lubuk","postal_code":"37252"},{"id":"1508092005","district_id":"150809","name":"Purwosari","postal_code":"37252"},{"id":"1508092006","district_id":"150809","name":"Lembah Kuamang","postal_code":"37252"},{"id":"1508092007","district_id":"150809","name":"Sumber Harapan","postal_code":"37252"},{"id":"1508092008","district_id":"150809","name":"Daya Murni","postal_code":"37252"},{"id":"1508092009","district_id":"150809","name":"Sumber Mulya","postal_code":"37252"},{"id":"1508092010","district_id":"150809","name":"Maju Jaya","postal_code":"37252"},{"id":"1508092011","district_id":"150809","name":"Tirta Mulya","postal_code":"37252"},{"id":"1508092012","district_id":"150809","name":"Lingga Kuamang","postal_code":"37252"},{"id":"1508092013","district_id":"150809","name":"Bangun Harjo","postal_code":"37252"},{"id":"1508092014","district_id":"150809","name":"Kuning Gading","postal_code":"37252"},{"id":"1508092015","district_id":"150809","name":"Kuamang Jaya","postal_code":"37252"},{"id":"1508092016","district_id":"150809","name":"Karya Harapan Mukti","postal_code":"37252"},{"id":"1508092017","district_id":"150809","name":"Padang Palangeh","postal_code":"37252"}]