[{"id":"1601141001","district_id":"160114","name":"Baturaja Lama","postal_code":"32114"},{"id":"1601141003","district_id":"160114","name":"Pasar Baru","postal_code":"32116"},{"id":"1601141004","district_id":"160114","name":"Kemalaraja","postal_code":"32111"},{"id":"1601141005","district_id":"160114","name":"Sukaraya","postal_code":"32112"},{"id":"1601141006","district_id":"160114","name":"Sukajadi","postal_code":"32117"},{"id":"1601141011","district_id":"160114","name":"Kemelak Bindung Langit","postal_code":"32111"},{"id":"1601141012","district_id":"160114","name":"Sepancar Lawang Kulon","postal_code":"32111"},{"id":"1601141013","district_id":"160114","name":"Baturaja Permai","postal_code":"32111"},{"id":"1601141014","district_id":"160114","name":"Sekar Jaya","postal_code":"32115"},{"id":"1601142007","district_id":"160114","name":"Tanjung Kemala","postal_code":"32111"},{"id":"1601142008","district_id":"160114","name":"Tanjung Baru","postal_code":"32113"},{"id":"1601142015","district_id":"160114","name":"Air Paoh","postal_code":"32111"},{"id":"1601142016","district_id":"160114","name":"Terusan","postal_code":"32111"}]