[{"id":"1601212001","district_id":"160121","name":"Tanjung Kurung","postal_code":"32156"},{"id":"1601212002","district_id":"160121","name":"Sukarami","postal_code":"32156"},{"id":"1601212003","district_id":"160121","name":"Batanghari","postal_code":"32156"},{"id":"1601212004","district_id":"160121","name":"Nyiur Sayak","postal_code":"32156"},{"id":"1601212005","district_id":"160121","name":"Suka Merindu","postal_code":"32156"},{"id":"1601212006","district_id":"160121","name":"Padang Bindu","postal_code":"32156"},{"id":"1601212007","district_id":"160121","name":"Panggal Panggang","postal_code":"32156"},{"id":"1601212008","district_id":"160121","name":"Bedegung","postal_code":"32156"},{"id":"1601212009","district_id":"160121","name":"Ulak Pandan","postal_code":"32156"},{"id":"1601212010","district_id":"160121","name":"Keban Agung","postal_code":"32156"},{"id":"1601212011","district_id":"160121","name":"Tubohan","postal_code":"32156"},{"id":"1601212012","district_id":"160121","name":"Raksa Jiwa","postal_code":"32156"},{"id":"1601212013","district_id":"160121","name":"Seleman","postal_code":"32156"},{"id":"1601212014","district_id":"160121","name":"Kebun Jati","postal_code":"32156"},{"id":"1601212015","district_id":"160121","name":"Singapura","postal_code":"32156"},{"id":"1601212016","district_id":"160121","name":"Pengaringan","postal_code":"32156"},{"id":"1601212017","district_id":"160121","name":"Banjarsari","postal_code":"32156"},{"id":"1601212018","district_id":"160121","name":"Pandan Dulang","postal_code":"32156"},{"id":"1601212020","district_id":"160121","name":"Panai Makmur","postal_code":"32156"},{"id":"1601212021","district_id":"160121","name":"Guna Makmur","postal_code":"32156"},{"id":"1601212022","district_id":"160121","name":"Tebing Kampung","postal_code":"32156"}]