[{"id":"1601222001","district_id":"160122","name":"Merbau","postal_code":"32192"},{"id":"1601222002","district_id":"160122","name":"Gunung Meraksa","postal_code":"32192"},{"id":"1601222003","district_id":"160122","name":"Kurup","postal_code":"32192"},{"id":"1601222004","district_id":"160122","name":"Banu Ayu","postal_code":"32192"},{"id":"1601222005","district_id":"160122","name":"Tanjung Dalam","postal_code":"32192"},{"id":"1601222006","district_id":"160122","name":"Lubuk Batang Baru","postal_code":"32192"},{"id":"1601222007","district_id":"160122","name":"Lubuk Batang Lama","postal_code":"32192"},{"id":"1601222008","district_id":"160122","name":"Belatung","postal_code":"32192"},{"id":"1601222009","district_id":"160122","name":"Karta Mulya","postal_code":"32192"},{"id":"1601222010","district_id":"160122","name":"Lunggaian","postal_code":"32192"},{"id":"1601222011","district_id":"160122","name":"Bandar Agung","postal_code":"32192"},{"id":"1601222012","district_id":"160122","name":"Tanjung Manggus","postal_code":"32192"},{"id":"1601222015","district_id":"160122","name":"Markisa","postal_code":"32192"},{"id":"1601222016","district_id":"160122","name":"Air Wall","postal_code":"32192"},{"id":"1601222017","district_id":"160122","name":"Sumber Bahagia","postal_code":"32192"}]