[{"id":"1603012011","district_id":"160301","name":"Embawang","postal_code":"31354"},{"id":"1603012012","district_id":"160301","name":"Pagar Dewa","postal_code":"31354"},{"id":"1603012013","district_id":"160301","name":"Tanjung Bulan","postal_code":"31354"},{"id":"1603012014","district_id":"160301","name":"Lesung Batu","postal_code":"31354"},{"id":"1603012015","district_id":"160301","name":"Pandan Enim","postal_code":"31354"},{"id":"1603012016","district_id":"160301","name":"Paduraksa","postal_code":"31354"},{"id":"1603012017","district_id":"160301","name":"Matas","postal_code":"31354"},{"id":"1603012018","district_id":"160301","name":"Tanjung Agung","postal_code":"31354"},{"id":"1603012019","district_id":"160301","name":"Muara Emil","postal_code":"31354"},{"id":"1603012020","district_id":"160301","name":"Tanjung Karangan","postal_code":"31354"},{"id":"1603012021","district_id":"160301","name":"Seleman","postal_code":"31354"},{"id":"1603012022","district_id":"160301","name":"Penyandingan","postal_code":"31354"},{"id":"1603012023","district_id":"160301","name":"Tanjung Lalang","postal_code":"31354"},{"id":"1603012024","district_id":"160301","name":"Pulau Panggung","postal_code":"31354"}]