[{"id":"1604152007","district_id":"160415","name":"Pajar Bulan","postal_code":"31453"},{"id":"1604152008","district_id":"160415","name":"Sukananti","postal_code":"31453"},{"id":"1604152009","district_id":"160415","name":"Karang Lebak","postal_code":"31453"},{"id":"1604152011","district_id":"160415","name":"Babatan","postal_code":"31453"},{"id":"1604152014","district_id":"160415","name":"Muara Tiga","postal_code":"31453"},{"id":"1604152015","district_id":"160415","name":"Sengkuang","postal_code":"31453"},{"id":"1604152016","district_id":"160415","name":"Penindayan","postal_code":"31453"},{"id":"1604152017","district_id":"160415","name":"Datar Balam","postal_code":"31453"},{"id":"1604152018","district_id":"160415","name":"Tebing Tinggi","postal_code":"31453"},{"id":"1604152019","district_id":"160415","name":"Geramat","postal_code":"31453"},{"id":"1604152020","district_id":"160415","name":"Pengentaan","postal_code":"31453"},{"id":"1604152021","district_id":"160415","name":"Lesung Batu","postal_code":"31453"},{"id":"1604152022","district_id":"160415","name":"Air Puar","postal_code":"31453"},{"id":"1604152024","district_id":"160415","name":"Mengkenang","postal_code":"31453"},{"id":"1604152029","district_id":"160415","name":"Lawang Agung Mulak","postal_code":"31453"},{"id":"1604152030","district_id":"160415","name":"Padang Masat","postal_code":"31453"}]