[{"id":"1606112001","district_id":"160611","name":"Karang Agung","postal_code":"30758"},{"id":"1606112002","district_id":"160611","name":"Karang Rejo","postal_code":"30758"},{"id":"1606112003","district_id":"160611","name":"Karang Makmur","postal_code":"30758"},{"id":"1606112004","district_id":"160611","name":"Perumpung Raya","postal_code":"30758"},{"id":"1606112005","district_id":"160611","name":"Galih Sari ","postal_code":"30758"},{"id":"1606112006","district_id":"160611","name":"Karang Tirta","postal_code":"30758"},{"id":"1606112007","district_id":"160611","name":"Purwo Agung ","postal_code":"30758"},{"id":"1606112008","district_id":"160611","name":"Karya Mukti","postal_code":"30758"},{"id":"1606112009","district_id":"160611","name":"Sri Karang Rejo","postal_code":"30758"},{"id":"1606112010","district_id":"160611","name":"Mekar Sari","postal_code":"30758"},{"id":"1606112011","district_id":"160611","name":"Agung Jaya","postal_code":"30758"},{"id":"1606112012","district_id":"160611","name":"Bumi Agung","postal_code":"30758"},{"id":"1606112013","district_id":"160611","name":"Jaya Agung","postal_code":"30758"},{"id":"1606112014","district_id":"160611","name":"Suka Makmur","postal_code":"30758"},{"id":"1606112015","district_id":"160611","name":"Mandala Sari","postal_code":"30758"},{"id":"1606112016","district_id":"160611","name":"Bandar Agung","postal_code":"30758"},{"id":"1606112017","district_id":"160611","name":"Karang Sari","postal_code":"30758"},{"id":"1606112018","district_id":"160611","name":"Sri Gading","postal_code":"30758"},{"id":"1606112019","district_id":"160611","name":"Mulya Agung","postal_code":"30758"},{"id":"1606112020","district_id":"160611","name":"Karang Mukti","postal_code":"30758"},{"id":"1606112021","district_id":"160611","name":"Madya Mulya","postal_code":"30758"},{"id":"1606112022","district_id":"160611","name":"Mulya Jaya","postal_code":"30758"},{"id":"1606112023","district_id":"160611","name":"Sari Agung","postal_code":"30758"},{"id":"1606112024","district_id":"160611","name":"Suka Jadi ","postal_code":"30758"},{"id":"1606112025","district_id":"160611","name":"Ringin Agung","postal_code":"30758"},{"id":"1606112026","district_id":"160611","name":"Tri Mulya Agung","postal_code":"30758"},{"id":"1606112027","district_id":"160611","name":"Mekar Jaya","postal_code":"30758"}]