[{"id":"1606051016","district_id":"160605","name":"Ngulak I","postal_code":"30759"},{"id":"1606051019","district_id":"160605","name":"Ngulak","postal_code":"30759"},{"id":"1606052001","district_id":"160605","name":"Air Balui","postal_code":"30759"},{"id":"1606052002","district_id":"160605","name":"Nganti","postal_code":"30759"},{"id":"1606052003","district_id":"160605","name":"Jud I","postal_code":"30759"},{"id":"1606052004","district_id":"160605","name":"Jud II","postal_code":"30759"},{"id":"1606052005","district_id":"160605","name":"Penggage","postal_code":"30759"},{"id":"1606052006","district_id":"160605","name":"Ngunang","postal_code":"30759"},{"id":"1606052007","district_id":"160605","name":"Ngulak II","postal_code":"30759"},{"id":"1606052008","district_id":"160605","name":"Ngulak III","postal_code":"30759"},{"id":"1606052009","district_id":"160605","name":"Ulak Embacang","postal_code":"30759"},{"id":"1606052010","district_id":"160605","name":"Terusan","postal_code":"30759"},{"id":"1606052011","district_id":"160605","name":"Kemang","postal_code":"30759"},{"id":"1606052012","district_id":"160605","name":"Tanjung Raya","postal_code":"30759"},{"id":"1606052013","district_id":"160605","name":"Air Itam","postal_code":"30759"},{"id":"1606052014","district_id":"160605","name":"Keban I","postal_code":"30759"},{"id":"1606052015","district_id":"160605","name":"Keban II","postal_code":"30759"},{"id":"1606052017","district_id":"160605","name":"Panai","postal_code":"30759"},{"id":"1606052018","district_id":"160605","name":"Macang Sakti","postal_code":"30759"}]