[{"id":"1607122001","district_id":"160712","name":"Telang Sari","postal_code":"30960"},{"id":"1607122002","district_id":"160712","name":"Mulya Sari","postal_code":"30960"},{"id":"1607122003","district_id":"160712","name":"Purwosari","postal_code":"30960"},{"id":"1607122004","district_id":"160712","name":"Sri Menanti","postal_code":"30960"},{"id":"1607122005","district_id":"160712","name":"Sebalik","postal_code":"30960"},{"id":"1607122006","district_id":"160712","name":"Tanjunglago ","postal_code":"30960"},{"id":"1607122007","district_id":"160712","name":"Kuala Puntian","postal_code":"30960"},{"id":"1607122008","district_id":"160712","name":"Sukatani ","postal_code":"30960"},{"id":"1607122009","district_id":"160712","name":"Sukadamai ","postal_code":"30960"},{"id":"1607122010","district_id":"160712","name":"Banyu Urip","postal_code":"30960"},{"id":"1607122011","district_id":"160712","name":"Bangun Sari","postal_code":"30960"},{"id":"1607122012","district_id":"160712","name":"Sumber Mekar Mukti","postal_code":"30960"},{"id":"1607122013","district_id":"160712","name":"Muara Sugih","postal_code":"30960"},{"id":"1607122014","district_id":"160712","name":"Manggar Raya","postal_code":"30960"},{"id":"1607122015","district_id":"160712","name":"Bunga Karang","postal_code":"30960"}]