[{"id":"1607051017","district_id":"160705","name":"Betung","postal_code":"30958"},{"id":"1607051021","district_id":"160705","name":"Rimba Asam","postal_code":"30958"},{"id":"1607051022","district_id":"160705","name":"Betung Selatan","postal_code":"30958"},{"id":"1607052002","district_id":"160705","name":"Pulau Rajak","postal_code":"30958"},{"id":"1607052003","district_id":"160705","name":"Bukit","postal_code":"30958"},{"id":"1607052004","district_id":"160705","name":"Sri Kembang","postal_code":"30958"},{"id":"1607052005","district_id":"160705","name":"Lubuk Karet","postal_code":"30958"},{"id":"1607052014","district_id":"160705","name":"Taja Mulya","postal_code":"30958"},{"id":"1607052015","district_id":"160705","name":"Taja Raya I","postal_code":"30958"},{"id":"1607052016","district_id":"160705","name":"Taja Indah","postal_code":"30958"},{"id":"1607052018","district_id":"160705","name":"Taja Raya II","postal_code":"30958"},{"id":"1607052020","district_id":"160705","name":"Suka Mulya","postal_code":"30958"}]