[{"id":"1607061021","district_id":"160706","name":"Jakabaring Selatan","postal_code":"30967"},{"id":"1607062001","district_id":"160706","name":"Kebon Sahang","postal_code":"30967"},{"id":"1607062002","district_id":"160706","name":"Siju","postal_code":"30967"},{"id":"1607062003","district_id":"160706","name":"Tanah Lembak","postal_code":"30967"},{"id":"1607062004","district_id":"160706","name":"Parit","postal_code":"30967"},{"id":"1607062005","district_id":"160706","name":"Pelaju","postal_code":"30967"},{"id":"1607062006","district_id":"160706","name":"Suka Pindah","postal_code":"30967"},{"id":"1607062007","district_id":"160706","name":"Baru","postal_code":"30967"},{"id":"1607062008","district_id":"160706","name":"Tanjung Kerang","postal_code":"30967"},{"id":"1607062009","district_id":"160706","name":"Rambutan","postal_code":"30967"},{"id":"1607062010","district_id":"160706","name":"Tanjung Merbu","postal_code":"30967"},{"id":"1607062011","district_id":"160706","name":"Sako","postal_code":"30967"},{"id":"1607062012","district_id":"160706","name":"Gelebak Dalam","postal_code":"30967"},{"id":"1607062013","district_id":"160706","name":"Menten","postal_code":"30967"},{"id":"1607062014","district_id":"160706","name":"Pangkalan Gelebak","postal_code":"30967"},{"id":"1607062015","district_id":"160706","name":"Sungai Dua","postal_code":"30967"},{"id":"1607062016","district_id":"160706","name":"Sungaipinang","postal_code":"30967"},{"id":"1607062017","district_id":"160706","name":"Sungai Kedukan","postal_code":"30967"},{"id":"1607062019","district_id":"160706","name":"Durian Gadis","postal_code":"30967"},{"id":"1607062020","district_id":"160706","name":"Pulau Parang","postal_code":"30967"}]