[{"id":"1607011016","district_id":"160701","name":"Mariana","postal_code":"30963"},{"id":"1607011021","district_id":"160701","name":"Mariana Ilir","postal_code":"30963"},{"id":"1607012001","district_id":"160701","name":"Sungairebo ","postal_code":"30963"},{"id":"1607012002","district_id":"160701","name":"Sungaigerong ","postal_code":"30963"},{"id":"1607012003","district_id":"160701","name":"Merah Mata","postal_code":"30963"},{"id":"1607012004","district_id":"160701","name":"Perajen","postal_code":"30963"},{"id":"1607012005","district_id":"160701","name":"Cinta Manis Lama","postal_code":"30963"},{"id":"1607012008","district_id":"160701","name":"Perambahan","postal_code":"30963"},{"id":"1607012011","district_id":"160701","name":"Pematang Palas","postal_code":"30963"},{"id":"1607012012","district_id":"160701","name":"Tirto Sari","postal_code":"30963"},{"id":"1607012014","district_id":"160701","name":"Pulauborang ","postal_code":"30963"},{"id":"1607012025","district_id":"160701","name":"Perambahan Baru","postal_code":"30963"},{"id":"1607012028","district_id":"160701","name":"Duren Ijo","postal_code":"30963"}]