[{"id":"1608152001","district_id":"160815","name":"Karang Melati","postal_code":"32185"},{"id":"1608152002","district_id":"160815","name":"Karang Menjangan","postal_code":"32185"},{"id":"1608152003","district_id":"160815","name":"Karang Anyar","postal_code":"32185"},{"id":"1608152004","district_id":"160815","name":"Tulung Harapan","postal_code":"32185"},{"id":"1608152005","district_id":"160815","name":"Kota Tanah","postal_code":"32185"},{"id":"1608152006","district_id":"160815","name":"Nirwana","postal_code":"32185"},{"id":"1608152007","district_id":"160815","name":"Brunai Mulia ","postal_code":"32185"},{"id":"1608152008","district_id":"160815","name":"Kota Mulya","postal_code":"32185"},{"id":"1608152009","district_id":"160815","name":"Bungin Jaya","postal_code":"32185"},{"id":"1608152010","district_id":"160815","name":"Burnai Jaya","postal_code":"32185"},{"id":"1608152011","district_id":"160815","name":"Mulia Jaya","postal_code":"32185"},{"id":"1608152012","district_id":"160815","name":"Melati Jaya","postal_code":"32185"},{"id":"1608152013","district_id":"160815","name":"Karang Mulya","postal_code":"32185"},{"id":"1608152014","district_id":"160815","name":"Wanasari","postal_code":"32185"},{"id":"1608152015","district_id":"160815","name":"Harapan Jaya","postal_code":"32185"},{"id":"1608152016","district_id":"160815","name":"Melati Agung","postal_code":"32185"},{"id":"1608152017","district_id":"160815","name":"Wana Makmur","postal_code":"32185"},{"id":"1608152018","district_id":"160815","name":"Bawang Tikar","postal_code":"32185"},{"id":"1608152019","district_id":"160815","name":"Karya Bakti","postal_code":"32185"}]