[{"id":"1608062001","district_id":"160806","name":"Karang Negara","postal_code":"32366"},{"id":"1608062002","district_id":"160806","name":"Riang Bandung","postal_code":"32366"},{"id":"1608062005","district_id":"160806","name":"Kota Negara","postal_code":"32366"},{"id":"1608062006","district_id":"160806","name":"Karta Negara","postal_code":"32366"},{"id":"1608062007","district_id":"160806","name":"Pandan Agung","postal_code":"32366"},{"id":"1608062009","district_id":"160806","name":"Sri Mulyo","postal_code":"32366"},{"id":"1608062010","district_id":"160806","name":"Margo Tani","postal_code":"32366"},{"id":"1608062011","district_id":"160806","name":"Jati Mulya II","postal_code":"32366"},{"id":"1608062012","district_id":"160806","name":"Pandan Jaya","postal_code":"32366"},{"id":"1608062014","district_id":"160806","name":"Rasuan Baru","postal_code":"32366"},{"id":"1608062020","district_id":"160806","name":"Banbanrejo","postal_code":"32366"},{"id":"1608062021","district_id":"160806","name":"Suka Negara","postal_code":"32366"},{"id":"1608062022","district_id":"160806","name":"Srikencana","postal_code":"32366"},{"id":"1608062023","district_id":"160806","name":"Dadimulyo","postal_code":"32366"},{"id":"1608062024","district_id":"160806","name":"Riang Bandung Ilir","postal_code":"32366"},{"id":"1608062025","district_id":"160806","name":"Margotani II","postal_code":"32366"},{"id":"1608062026","district_id":"160806","name":"Kota Negara Timur","postal_code":"32366"},{"id":"1608062027","district_id":"160806","name":"Talang Giring","postal_code":"32366"},{"id":"1608062028","district_id":"160806","name":"Kalirejo","postal_code":"32366"}]