[{"id":"1609042001","district_id":"160904","name":"Lawang Agung","postal_code":"32271"},{"id":"1609042002","district_id":"160904","name":"Bayur Tengah","postal_code":"32271"},{"id":"1609042003","district_id":"160904","name":"Tanjung Tebat","postal_code":"32271"},{"id":"1609042004","district_id":"160904","name":"Sugihan","postal_code":"32271"},{"id":"1609042005","district_id":"160904","name":"Penyandingan","postal_code":"32271"},{"id":"1609042006","district_id":"160904","name":"Alun Dua","postal_code":"32271"},{"id":"1609042007","district_id":"160904","name":"Bandar Alam Baru","postal_code":"32271"},{"id":"1609042008","district_id":"160904","name":"Dusun Tengah","postal_code":"32271"},{"id":"1609042009","district_id":"160904","name":"Ulak Agung Ilir","postal_code":"32271"},{"id":"1609042011","district_id":"160904","name":"Gunung Gare","postal_code":"32271"},{"id":"1609042018","district_id":"160904","name":"Ulak Agung Ulu","postal_code":"32271"},{"id":"1609042019","district_id":"160904","name":"Muaradua Kisam ","postal_code":"32271"},{"id":"1609042020","district_id":"160904","name":"Sukananti","postal_code":"32271"},{"id":"1609042021","district_id":"160904","name":"Pagar Dewa","postal_code":"32271"},{"id":"1609042022","district_id":"160904","name":"Tanjung Beringin","postal_code":"32271"},{"id":"1609042028","district_id":"160904","name":"Panantian ","postal_code":"32271"},{"id":"1609042029","district_id":"160904","name":"Sukaraja","postal_code":"32271"},{"id":"1609042040","district_id":"160904","name":"Simpang Lubuk Dalam","postal_code":"32271"}]