[{"id":"1610041030","district_id":"161004","name":"Indralaya Raya","postal_code":"30862"},{"id":"1610041031","district_id":"161004","name":"Indralaya Indah","postal_code":"30862"},{"id":"1610041032","district_id":"161004","name":"Indralaya Mulia","postal_code":"30862"},{"id":"1610042005","district_id":"161004","name":"Lubuk Sakti","postal_code":"30862"},{"id":"1610042006","district_id":"161004","name":"Tanjung Gelam","postal_code":"30862"},{"id":"1610042007","district_id":"161004","name":"Tanjung Agung","postal_code":"30862"},{"id":"1610042008","district_id":"161004","name":"Tanjung Sejaro","postal_code":"30815"},{"id":"1610042009","district_id":"161004","name":"Sakatiga Seberang","postal_code":"30814"},{"id":"1610042010","district_id":"161004","name":"Muara Penimbung Ulu","postal_code":"30862"},{"id":"1610042012","district_id":"161004","name":"Tanjung Seteko","postal_code":"30817"},{"id":"1610042013","district_id":"161004","name":"Saka Tiga","postal_code":"30816"},{"id":"1610042014","district_id":"161004","name":"Ulak Banding","postal_code":"30862"},{"id":"1610042015","district_id":"161004","name":"Muara Penimbung Ilir","postal_code":"30862"},{"id":"1610042016","district_id":"161004","name":"Talang Aur","postal_code":"30862"},{"id":"1610042017","district_id":"161004","name":"Ulak Bedil","postal_code":"30862"},{"id":"1610042018","district_id":"161004","name":"Penyandingan","postal_code":"30862"},{"id":"1610042019","district_id":"161004","name":"Sudimampir","postal_code":"30862"},{"id":"1610042027","district_id":"161004","name":"Ulak Segelung","postal_code":"30862"},{"id":"1610042028","district_id":"161004","name":"Sejaro Sakti","postal_code":"30862"},{"id":"1610042029","district_id":"161004","name":"Tunas Aur","postal_code":"30862"}]