[{"id":"1671051001","district_id":"167105","name":"Delapan-belas Ilir","postal_code":"30121"},{"id":"1671051002","district_id":"167105","name":"Enam-belas Ilir","postal_code":"30122"},{"id":"1671051003","district_id":"167105","name":"Tiga-belas Ilir","postal_code":"30123"},{"id":"1671051004","district_id":"167105","name":"Empat-belas Ilir","postal_code":"30124"},{"id":"1671051005","district_id":"167105","name":"Lima-belas Ilir","postal_code":"30124"},{"id":"1671051006","district_id":"167105","name":"Tujuh-belas Ilir","postal_code":"30125"},{"id":"1671051007","district_id":"167105","name":"Dua-puluh Ilir Tiga","postal_code":"30129"},{"id":"1671051008","district_id":"167105","name":"Dua-puluh Ilir Empat","postal_code":"30128"},{"id":"1671051009","district_id":"167105","name":"Dua-puluh Ilir Satu","postal_code":"30126"},{"id":"1671051010","district_id":"167105","name":"Sungai Pangeran","postal_code":"30121"},{"id":"1671051011","district_id":"167105","name":"Kepandean Baru","postal_code":"30125"}]