[{"id":"1703112001","district_id":"170311","name":"Serangai","postal_code":"38656"},{"id":"1703112002","district_id":"170311","name":"Selolong","postal_code":"38656"},{"id":"1703112003","district_id":"170311","name":"Air Lakok","postal_code":"38656"},{"id":"1703112004","district_id":"170311","name":"Bintunan","postal_code":"38656"},{"id":"1703112005","district_id":"170311","name":"Suka Marga","postal_code":"38656"},{"id":"1703112006","district_id":"170311","name":"Batik Nau","postal_code":"38656"},{"id":"1703112007","district_id":"170311","name":"Pagar Ruyung","postal_code":"38656"},{"id":"1703112008","district_id":"170311","name":"Durian Amparan","postal_code":"38656"},{"id":"1703112009","district_id":"170311","name":"Taba Kulintang","postal_code":"38656"},{"id":"1703112010","district_id":"170311","name":"Ulak Tanding","postal_code":"38656"},{"id":"1703112011","district_id":"170311","name":"Seberang Tunggal","postal_code":"38656"},{"id":"1703112012","district_id":"170311","name":"Sekiau","postal_code":"38656"},{"id":"1703112013","district_id":"170311","name":"Samban Jaya","postal_code":"38656"},{"id":"1703112014","district_id":"170311","name":"Peninjau","postal_code":"38656"},{"id":"1703112015","district_id":"170311","name":"Air Manganyau","postal_code":"38656"}]