[{"id":"1704092001","district_id":"170409","name":"Tanjung Ganti I","postal_code":"38954"},{"id":"1704092002","district_id":"170409","name":"Tanjung Ganti II","postal_code":"38954"},{"id":"1704092003","district_id":"170409","name":"Rigangan I","postal_code":"38954"},{"id":"1704092004","district_id":"170409","name":"Rigangan II","postal_code":"38954"},{"id":"1704092005","district_id":"170409","name":"Rigangan III","postal_code":"38954"},{"id":"1704092006","district_id":"170409","name":"Sukarami","postal_code":"38954"},{"id":"1704092007","district_id":"170409","name":"Darat Sawah","postal_code":"38954"},{"id":"1704092008","district_id":"170409","name":"Siring Agung","postal_code":"38954"},{"id":"1704092009","district_id":"170409","name":"Penantian","postal_code":"38954"},{"id":"1704092010","district_id":"170409","name":"Talang Tais","postal_code":"38954"},{"id":"1704092011","district_id":"170409","name":"Pagar Dewa","postal_code":"38954"},{"id":"1704092012","district_id":"170409","name":"Talang Marap","postal_code":"38954"},{"id":"1704092013","district_id":"170409","name":"Suka Rami II","postal_code":"38954"}]