[{"id":"1704082001","district_id":"170408","name":"Bunga Melur","postal_code":"38967"},{"id":"1704082002","district_id":"170408","name":"Karang Dapo","postal_code":"38967"},{"id":"1704082003","district_id":"170408","name":"Lubuk Gung","postal_code":"38967"},{"id":"1704082004","district_id":"170408","name":"Gunung Tiga","postal_code":"38967"},{"id":"1704082005","district_id":"170408","name":"Suka Merindu","postal_code":"38967"},{"id":"1704082006","district_id":"170408","name":"Mentiring","postal_code":"38967"},{"id":"1704082007","district_id":"170408","name":"Cahaya Batin","postal_code":"38967"},{"id":"1704082008","district_id":"170408","name":"Awat Mata","postal_code":"38967"},{"id":"1704082009","district_id":"170408","name":"Nusuk","postal_code":"38967"},{"id":"1704082010","district_id":"170408","name":"Tanjung Harapan","postal_code":"38967"},{"id":"1704082011","district_id":"170408","name":"Gunung Tiga II","postal_code":"38967"},{"id":"1704082012","district_id":"170408","name":"Padang Panjang","postal_code":"38967"},{"id":"1704082013","district_id":"170408","name":"Masria Baru","postal_code":"38967"}]