[{"id":"1705041005","district_id":"170504","name":"Pajar Bulan","postal_code":"38873"},{"id":"1705042001","district_id":"170504","name":"Maras Jauh","postal_code":"38873"},{"id":"1705042002","district_id":"170504","name":"Bandung Agung","postal_code":"38873"},{"id":"1705042003","district_id":"170504","name":"Pinju Layang","postal_code":"38873"},{"id":"1705042004","district_id":"170504","name":"Nanjungan","postal_code":"38873"},{"id":"1705042006","district_id":"170504","name":"Petai Kayu","postal_code":"38873"},{"id":"1705042007","district_id":"170504","name":"Napalan","postal_code":"38873"},{"id":"1705042008","district_id":"170504","name":"Renah Gajah Mati I ","postal_code":"38873"},{"id":"1705042009","district_id":"170504","name":"Renah Gajah Mati II","postal_code":"38873"},{"id":"1705042010","district_id":"170504","name":"Cugung Langu","postal_code":"38873"},{"id":"1705042011","district_id":"170504","name":"Rantau Panjang","postal_code":"38873"},{"id":"1705042012","district_id":"170504","name":"Air Melancar","postal_code":"38873"},{"id":"1705042013","district_id":"170504","name":"Muara Dua","postal_code":"38873"},{"id":"1705042014","district_id":"170504","name":"Nanti Agung","postal_code":"38873"},{"id":"1705042015","district_id":"170504","name":"Talang Durian","postal_code":"38873"},{"id":"1705042016","district_id":"170504","name":"Gunung Mesir","postal_code":"38873"},{"id":"1705042017","district_id":"170504","name":"Kayu Elang","postal_code":"38873"},{"id":"1705042018","district_id":"170504","name":"Padang Serunaian","postal_code":"38873"},{"id":"1705042019","district_id":"170504","name":"Tebat\/Teba Gunung","postal_code":"38873"},{"id":"1705042020","district_id":"170504","name":"Mekar Sari Mukti","postal_code":"38873"},{"id":"1705042021","district_id":"170504","name":"Kemang Manis","postal_code":"38873"},{"id":"1705042022","district_id":"170504","name":"Gunung Megang","postal_code":"38873"},{"id":"1705042023","district_id":"170504","name":"Telatan","postal_code":"38873"},{"id":"1705042024","district_id":"170504","name":"Suban","postal_code":"38873"}]