[{"id":"1705061006","district_id":"170506","name":"Dermayu","postal_code":"38881"},{"id":"1705062001","district_id":"170506","name":"Sukamaju ","postal_code":"38881"},{"id":"1705062002","district_id":"170506","name":"Talang Alai","postal_code":"38881"},{"id":"1705062003","district_id":"170506","name":"Talang Benuang","postal_code":"38881"},{"id":"1705062004","district_id":"170506","name":"Padang Pelasan","postal_code":"38881"},{"id":"1705062005","district_id":"170506","name":"Air Periukan","postal_code":"38881"},{"id":"1705062007","district_id":"170506","name":"Keban Agung","postal_code":"38881"},{"id":"1705062008","district_id":"170506","name":"Pasar Ngalam","postal_code":"38881"},{"id":"1705062009","district_id":"170506","name":"Sukasari","postal_code":"38881"},{"id":"1705062010","district_id":"170506","name":"Kungkai Baru","postal_code":"38881"},{"id":"1705062011","district_id":"170506","name":"Tawang Rejo","postal_code":"38881"},{"id":"1705062012","district_id":"170506","name":"Lawang Agung","postal_code":"38881"},{"id":"1705062013","district_id":"170506","name":"Taba Lubuk Puding","postal_code":"38881"},{"id":"1705062014","district_id":"170506","name":"Talang Sebaris","postal_code":"38881"},{"id":"1705062015","district_id":"170506","name":"Lubuk Gilang","postal_code":"38881"},{"id":"1705062016","district_id":"170506","name":"Lokasi Baru","postal_code":"38881"}]