[{"id":"1706072001","district_id":"170607","name":"Arga Jaya","postal_code":"38764"},{"id":"1706072002","district_id":"170607","name":"Air Rami","postal_code":"38764"},{"id":"1706072003","district_id":"170607","name":"Rami Mulya ","postal_code":"38764"},{"id":"1706072004","district_id":"170607","name":"Talang Rio","postal_code":"38764"},{"id":"1706072005","district_id":"170607","name":"Makmur Jaya","postal_code":"38764"},{"id":"1706072006","district_id":"170607","name":"Marga Mulia","postal_code":"38764"},{"id":"1706072007","district_id":"170607","name":"Mekar Jaya","postal_code":"38764"},{"id":"1706072008","district_id":"170607","name":"Dusun Pulau","postal_code":"38764"},{"id":"1706072009","district_id":"170607","name":"Bukit Harapan","postal_code":"38764"},{"id":"1706072010","district_id":"170607","name":"Tirta Kencana","postal_code":"38764"},{"id":"1706072011","district_id":"170607","name":"Cinta Asih","postal_code":"38764"},{"id":"1706072012","district_id":"170607","name":"Bukit Mulya","postal_code":"38764"}]