[{"id":"1707011004","district_id":"170701","name":"Kampung Jawa","postal_code":"39259"},{"id":"1707011006","district_id":"170701","name":"Pasar Muara Aman","postal_code":"39259"},{"id":"1707012002","district_id":"170701","name":"Gandung","postal_code":"39259"},{"id":"1707012005","district_id":"170701","name":"Tunggang","postal_code":"39259"},{"id":"1707012007","district_id":"170701","name":"Talang Ulu","postal_code":"39259"},{"id":"1707012014","district_id":"170701","name":"Nangai Amen","postal_code":"39259"},{"id":"1707012016","district_id":"170701","name":"Lebong Tambang","postal_code":"39259"},{"id":"1707012022","district_id":"170701","name":"Ladang Palembang","postal_code":"39259"},{"id":"1707012023","district_id":"170701","name":"Kampung Dalam","postal_code":"39259"},{"id":"1707012024","district_id":"170701","name":"Kampung Muara Aman","postal_code":"39259"},{"id":"1707012028","district_id":"170701","name":"Lokasari","postal_code":"39259"},{"id":"1707012033","district_id":"170701","name":"Gandung Baru","postal_code":"39259"}]