[{"id":"1801042001","district_id":"180104","name":"Hajimena","postal_code":"35362"},{"id":"1801042002","district_id":"180104","name":"Sidosari","postal_code":"35362"},{"id":"1801042003","district_id":"180104","name":"Pemanggilan","postal_code":"35362"},{"id":"1801042004","district_id":"180104","name":"Natar","postal_code":"35362"},{"id":"1801042005","district_id":"180104","name":"Muara Putih","postal_code":"35362"},{"id":"1801042006","district_id":"180104","name":"Negara Ratu","postal_code":"35362"},{"id":"1801042007","district_id":"180104","name":"Merak Batin","postal_code":"35362"},{"id":"1801042008","district_id":"180104","name":"Tanjung Sari ","postal_code":"35362"},{"id":"1801042009","district_id":"180104","name":"Bumi Sari ","postal_code":"35362"},{"id":"1801042010","district_id":"180104","name":"Candi Mas","postal_code":"35362"},{"id":"1801042011","district_id":"180104","name":"Beranti\/Branti Raya","postal_code":"35362"},{"id":"1801042012","district_id":"180104","name":"Haduyang","postal_code":"35362"},{"id":"1801042013","district_id":"180104","name":"Banjar Negeri ","postal_code":"35362"},{"id":"1801042014","district_id":"180104","name":"Mandah","postal_code":"35362"},{"id":"1801042015","district_id":"180104","name":"Rulung Herok\/Helok","postal_code":"35362"},{"id":"1801042016","district_id":"180104","name":"Bandarejo ","postal_code":"35362"},{"id":"1801042017","district_id":"180104","name":"Suka Damai ","postal_code":"35362"},{"id":"1801042018","district_id":"180104","name":"Purwosari","postal_code":"35362"},{"id":"1801042019","district_id":"180104","name":"Pancasila","postal_code":"35362"},{"id":"1801042020","district_id":"180104","name":"Rejosari","postal_code":"35362"},{"id":"1801042021","district_id":"180104","name":"Rulung Raya","postal_code":"35362"},{"id":"1801042022","district_id":"180104","name":"Krawang Sari","postal_code":"35362"},{"id":"1801042023","district_id":"180104","name":"Wai Sari","postal_code":"35362"},{"id":"1801042024","district_id":"180104","name":"Kali Sari","postal_code":"35362"},{"id":"1801042025","district_id":"180104","name":"Rulung Sari","postal_code":"35362"},{"id":"1801042026","district_id":"180104","name":"Rulung Mulya","postal_code":"35362"}]