[{"id":"1802022001","district_id":"180202","name":"Purwodadi","postal_code":"34173"},{"id":"1802022002","district_id":"180202","name":"Sidodadi","postal_code":"34173"},{"id":"1802022003","district_id":"180202","name":"Sidorejo","postal_code":"34173"},{"id":"1802022004","district_id":"180202","name":"Cimarias","postal_code":"34173"},{"id":"1802022005","district_id":"180202","name":"Bangun Rejo","postal_code":"34173"},{"id":"1802022006","district_id":"180202","name":"Sido Luhur","postal_code":"34173"},{"id":"1802022007","district_id":"180202","name":"Sido Mulyo","postal_code":"34173"},{"id":"1802022008","district_id":"180202","name":"Timbul Rejo","postal_code":"34173"},{"id":"1802022009","district_id":"180202","name":"Suka Negara","postal_code":"34173"},{"id":"1802022010","district_id":"180202","name":"Sinar Seputih","postal_code":"34173"},{"id":"1802022011","district_id":"180202","name":"Sinar Luas","postal_code":"34173"},{"id":"1802022012","district_id":"180202","name":"Tanjung Pandan","postal_code":"34173"},{"id":"1802022013","district_id":"180202","name":"Tanjung Jaya","postal_code":"34173"},{"id":"1802022014","district_id":"180202","name":"Sri Pendowo","postal_code":"34173"},{"id":"1802022015","district_id":"180202","name":"Sukowaringin","postal_code":"34173"},{"id":"1802022016","district_id":"180202","name":"Mekar Jaya","postal_code":"34173"},{"id":"1802022017","district_id":"180202","name":"Suka Negeri","postal_code":"34173"}]