[{"id":"1802012001","district_id":"180201","name":"Sri Way Langsep","postal_code":"34174"},{"id":"1802012002","district_id":"180201","name":"Wayakrui","postal_code":"34174"},{"id":"1802012003","district_id":"180201","name":"Kalirejo","postal_code":"34174"},{"id":"1802012004","district_id":"180201","name":"Balai Rejo","postal_code":"34174"},{"id":"1802012005","district_id":"180201","name":"Watu Agung","postal_code":"34174"},{"id":"1802012006","district_id":"180201","name":"Sri Basuki","postal_code":"34174"},{"id":"1802012007","district_id":"180201","name":"Kaliwungu","postal_code":"34174"},{"id":"1802012008","district_id":"180201","name":"Kali Dadi","postal_code":"34174"},{"id":"1802012009","district_id":"180201","name":"Sri Mulyo","postal_code":"34174"},{"id":"1802012010","district_id":"180201","name":"Sri Dadi","postal_code":"34174"},{"id":"1802012011","district_id":"180201","name":"Suko Sari","postal_code":"34174"},{"id":"1802012012","district_id":"180201","name":"Sinar Sari","postal_code":"34174"},{"id":"1802012013","district_id":"180201","name":"Ponco Warno","postal_code":"34174"},{"id":"1802012014","district_id":"180201","name":"Sri Purnomo","postal_code":"34174"},{"id":"1802012015","district_id":"180201","name":"Sinar Rejo","postal_code":"34174"},{"id":"1802012016","district_id":"180201","name":"Agung Timur","postal_code":"34174"},{"id":"1802012017","district_id":"180201","name":"Kalisari","postal_code":"34174"}]