[{"id":"1802082001","district_id":"180208","name":"Rejo Basuki","postal_code":"34155"},{"id":"1802082002","district_id":"180208","name":"Rejo Asri","postal_code":"34155"},{"id":"1802082003","district_id":"180208","name":"Rukti Endah","postal_code":"34155"},{"id":"1802082004","district_id":"180208","name":"Rama Dewa","postal_code":"34155"},{"id":"1802082005","district_id":"180208","name":"Ratna Chaton ","postal_code":"34155"},{"id":"1802082006","district_id":"180208","name":"Rama Yana ","postal_code":"34155"},{"id":"1802082007","district_id":"180208","name":"Rama Indra ","postal_code":"34155"},{"id":"1802082008","district_id":"180208","name":"Rukti Harjo","postal_code":"34155"},{"id":"1802082009","district_id":"180208","name":"Rama Gunawan","postal_code":"34155"},{"id":"1802082010","district_id":"180208","name":"Rama Oetama ","postal_code":"34155"},{"id":"1802082011","district_id":"180208","name":"Rama Nirwana","postal_code":"34155"},{"id":"1802082012","district_id":"180208","name":"Rama Murti","postal_code":"34155"},{"id":"1802082013","district_id":"180208","name":"Rama Klandungan ","postal_code":"34155"},{"id":"1802082014","district_id":"180208","name":"Buyut Baru","postal_code":"34155"}]