[{"id":"1802212001","district_id":"180221","name":"Srikaton ","postal_code":"34161"},{"id":"1802212002","district_id":"180221","name":"Jaya Sakti","postal_code":"34161"},{"id":"1802212003","district_id":"180221","name":"Haji Pemanggilan","postal_code":"34161"},{"id":"1802212004","district_id":"180221","name":"Negara Bumi Ilir","postal_code":"34161"},{"id":"1802212005","district_id":"180221","name":"Bumi Aji","postal_code":"34161"},{"id":"1802212006","district_id":"180221","name":"Negara Aji Tua","postal_code":"34161"},{"id":"1802212007","district_id":"180221","name":"Negara Bumi Udik","postal_code":"34161"},{"id":"1802212008","district_id":"180221","name":"Negara Aji Baru","postal_code":"34161"},{"id":"1802212009","district_id":"180221","name":"Gunung Agung","postal_code":"34161"},{"id":"1802212010","district_id":"180221","name":"Tanjung Harapan","postal_code":"34161"},{"id":"1802212011","district_id":"180221","name":"Bumi Jaya","postal_code":"34161"},{"id":"1802212012","district_id":"180221","name":"Mulyo Haji","postal_code":"34161"}]