[{"id":"1803052001","district_id":"180305","name":"Banjar Agung","postal_code":"34583"},{"id":"1803052002","district_id":"180305","name":"Bumi Agung Marga","postal_code":"34583"},{"id":"1803052003","district_id":"180305","name":"Pungguk Lama","postal_code":"34583"},{"id":"1803052004","district_id":"180305","name":"Gedung Nyapah","postal_code":"34583"},{"id":"1803052005","district_id":"180305","name":"Penagan Ratu","postal_code":"34583"},{"id":"1803052006","district_id":"180305","name":"Peraduan Waras","postal_code":"34583"},{"id":"1803052007","district_id":"180305","name":"Surakarta","postal_code":"34583"},{"id":"1803052008","district_id":"180305","name":"Rejo Mulyo","postal_code":"34583"},{"id":"1803052009","district_id":"180305","name":"Sidomukti","postal_code":"34583"},{"id":"1803052010","district_id":"180305","name":"Bumi Jaya","postal_code":"34583"},{"id":"1803052011","district_id":"180305","name":"Papan Rejo","postal_code":"34583"},{"id":"1803052012","district_id":"180305","name":"Sumber Agung","postal_code":"34583"}]