[{"id":"1806122001","district_id":"180612","name":"Tugu Papak","postal_code":"35386"},{"id":"1806122002","district_id":"180612","name":"Kacapura ","postal_code":"35386"},{"id":"1806122003","district_id":"180612","name":"Sukaraja","postal_code":"35386"},{"id":"1806122004","district_id":"180612","name":"Bangun Rejo","postal_code":"35386"},{"id":"1806122005","district_id":"180612","name":"Tugu Rejo","postal_code":"35386"},{"id":"1806122006","district_id":"180612","name":"Sidodadi ","postal_code":"35386"},{"id":"1806122007","district_id":"180612","name":"Garut","postal_code":"35386"},{"id":"1806122008","district_id":"180612","name":"Karang Rejo","postal_code":"35386"},{"id":"1806122009","district_id":"180612","name":"Kanoman","postal_code":"35386"},{"id":"1806122010","district_id":"180612","name":"Sudimoro","postal_code":"35386"},{"id":"1806122011","district_id":"180612","name":"Sudimoro Bangun","postal_code":"35386"},{"id":"1806122012","district_id":"180612","name":"Sri Purnomo","postal_code":"35386"},{"id":"1806122013","district_id":"180612","name":"Sri Kuncoro","postal_code":"35386"},{"id":"1806122014","district_id":"180612","name":"Sidomulyo ","postal_code":"35386"},{"id":"1806122015","district_id":"180612","name":"Karang Agung","postal_code":"35386"},{"id":"1806122016","district_id":"180612","name":"Tulung Asahan","postal_code":"35386"},{"id":"1806122017","district_id":"180612","name":"Sri Katon","postal_code":"35386"},{"id":"1806122018","district_id":"180612","name":"Pardawaras ","postal_code":"35386"},{"id":"1806122019","district_id":"180612","name":"Sedayu","postal_code":"35386"},{"id":"1806122020","district_id":"180612","name":"Way Kerap","postal_code":"35386"},{"id":"1806122021","district_id":"180612","name":"Margomulyo","postal_code":"35386"},{"id":"1806122022","district_id":"180612","name":"Sukajaya","postal_code":"35386"}]