[{"id":"1807132001","district_id":"180713","name":"Sukaraja Nuban","postal_code":"34372"},{"id":"1807132002","district_id":"180713","name":"Purwosari","postal_code":"34372"},{"id":"1807132003","district_id":"180713","name":"Tulung Balak","postal_code":"34372"},{"id":"1807132004","district_id":"180713","name":"Kedaton ","postal_code":"34372"},{"id":"1807132005","district_id":"180713","name":"Kedaton I ","postal_code":"34372"},{"id":"1807132006","district_id":"180713","name":"Kedaton II ","postal_code":"34372"},{"id":"1807132007","district_id":"180713","name":"Trisnomulyo ","postal_code":"34372"},{"id":"1807132008","district_id":"180713","name":"Cempaka Nuban","postal_code":"34372"},{"id":"1807132009","district_id":"180713","name":"Gedung Dalem ","postal_code":"34372"},{"id":"1807132010","district_id":"180713","name":"Bumi Jawa","postal_code":"34372"},{"id":"1807132011","district_id":"180713","name":"Gunung Tiga","postal_code":"34372"},{"id":"1807132012","district_id":"180713","name":"Negara Ratu","postal_code":"34372"},{"id":"1807132013","district_id":"180713","name":"Sukacari","postal_code":"34372"}]