[{"id":"1807112001","district_id":"180711","name":"Tanjung Harapan","postal_code":"34386"},{"id":"1807112002","district_id":"180711","name":"Negeri Tua","postal_code":"34386"},{"id":"1807112003","district_id":"180711","name":"Negeri Katon","postal_code":"34386"},{"id":"1807112004","district_id":"180711","name":"Negeri Agung","postal_code":"34386"},{"id":"1807112005","district_id":"180711","name":"Negeri Jemanten","postal_code":"34386"},{"id":"1807112006","district_id":"180711","name":"Sukaraja Tiga","postal_code":"34386"},{"id":"1807112007","district_id":"180711","name":"Gedung Wani","postal_code":"34386"},{"id":"1807112008","district_id":"180711","name":"Jaya Guna","postal_code":"34386"},{"id":"1807112009","district_id":"180711","name":"Sukadana Baru","postal_code":"34386"},{"id":"1807112010","district_id":"180711","name":"Nabang Baru","postal_code":"34386"},{"id":"1807112011","district_id":"180711","name":"Surya Mataram","postal_code":"34386"},{"id":"1807112012","district_id":"180711","name":"Gedungwani Timur ","postal_code":"34386"},{"id":"1807112013","district_id":"180711","name":"Trisinar","postal_code":"34386"}]