[{"id":"1810072001","district_id":"181007","name":"Adiluwih ","postal_code":"35674"},{"id":"1810072002","district_id":"181007","name":"Bandung Baru","postal_code":"35674"},{"id":"1810072003","district_id":"181007","name":"Sinarwayah ","postal_code":"35674"},{"id":"1810072004","district_id":"181007","name":"Enggal Rejo","postal_code":"35674"},{"id":"1810072005","district_id":"181007","name":"Sukoharum","postal_code":"35674"},{"id":"1810072006","district_id":"181007","name":"Waringin Sari Timur ","postal_code":"35674"},{"id":"1810072007","district_id":"181007","name":"Tri Tunggal Mulya ","postal_code":"35674"},{"id":"1810072008","district_id":"181007","name":"Purwodadi","postal_code":"35674"},{"id":"1810072009","district_id":"181007","name":"Srikaton","postal_code":"35674"},{"id":"1810072010","district_id":"181007","name":"Tunggul Pawenang","postal_code":"35674"},{"id":"1810072011","district_id":"181007","name":"Bandung Baru Barat","postal_code":"35674"},{"id":"1810072012","district_id":"181007","name":"Totokarto","postal_code":"35674"},{"id":"1810072013","district_id":"181007","name":"Kuta Waringin","postal_code":"35674"}]