[{"id":"1811022001","district_id":"181102","name":"Talang Batu","postal_code":"34695"},{"id":"1811022002","district_id":"181102","name":"Sungai Cambai","postal_code":"34695"},{"id":"1811022003","district_id":"181102","name":"Tanjung Mas Makmur","postal_code":"34695"},{"id":"1811022004","district_id":"181102","name":"Margo Jadi","postal_code":"34695"},{"id":"1811022005","district_id":"181102","name":"Tanjung Meneng","postal_code":"34695"},{"id":"1811022006","district_id":"181102","name":"Eka Mulya","postal_code":"34695"},{"id":"1811022007","district_id":"181102","name":"Wono Sari ","postal_code":"34695"},{"id":"1811022008","district_id":"181102","name":"Dwi Karya Mustika","postal_code":"34695"},{"id":"1811022009","district_id":"181102","name":"Pangkal Mas Jaya","postal_code":"34695"},{"id":"1811022010","district_id":"181102","name":"Pangkal Mas Mulya","postal_code":"34695"},{"id":"1811022011","district_id":"181102","name":"Tanjung Mas Mulya","postal_code":"34695"},{"id":"1811022012","district_id":"181102","name":"Muara Mas","postal_code":"34695"},{"id":"1811022013","district_id":"181102","name":"Tanjung Mas Jaya","postal_code":"34695"},{"id":"1811022014","district_id":"181102","name":"Margo Jaya","postal_code":"34695"},{"id":"1811022015","district_id":"181102","name":"Pangkal Mas","postal_code":"34695"},{"id":"1811022016","district_id":"181102","name":"Tanjung Menang Raya","postal_code":"34695"},{"id":"1811022017","district_id":"181102","name":"Tebing Karya Mandiri","postal_code":"34695"},{"id":"1811022018","district_id":"181102","name":"Tanjung Mas Rejo","postal_code":"34695"},{"id":"1811022019","district_id":"181102","name":"Margo Mulyo","postal_code":"34695"},{"id":"1811022020","district_id":"181102","name":"Muara Asri","postal_code":"34695"}]