[{"id":"1901011001","district_id":"190101","name":"Sungailiat","postal_code":"33211"},{"id":"1901011002","district_id":"190101","name":"Sri Menanti","postal_code":"33214"},{"id":"1901011003","district_id":"190101","name":"Kudai","postal_code":"33213"},{"id":"1901011004","district_id":"190101","name":"Sinar Baru","postal_code":"33212"},{"id":"1901011005","district_id":"190101","name":"Kenanga","postal_code":"33211"},{"id":"1901011006","district_id":"190101","name":"Parit Padang","postal_code":"33215"},{"id":"1901011008","district_id":"190101","name":"Sinar Jaya Jelutung","postal_code":"33212"},{"id":"1901011009","district_id":"190101","name":"Matras","postal_code":"33212"},{"id":"1901011010","district_id":"190101","name":"Jelitik","postal_code":"33211"},{"id":"1901011011","district_id":"190101","name":"Surya Timur","postal_code":"33211"},{"id":"1901011012","district_id":"190101","name":"Lubuk Kelik","postal_code":"33211"},{"id":"1901011013","district_id":"190101","name":"Bukit Betung","postal_code":"33211"},{"id":"1901012007","district_id":"190101","name":"Rebo","postal_code":"33211"}]