[{"id":"3202241013","district_id":"320224","name":"Surade","postal_code":"43179"},{"id":"3202242001","district_id":"320224","name":"Jagamukti","postal_code":"43179"},{"id":"3202242002","district_id":"320224","name":"Citanglar","postal_code":"43179"},{"id":"3202242003","district_id":"320224","name":"Wanasari","postal_code":"43179"},{"id":"3202242005","district_id":"320224","name":"Sirnasari","postal_code":"43179"},{"id":"3202242006","district_id":"320224","name":"Kadaleman","postal_code":"43179"},{"id":"3202242007","district_id":"320224","name":"Gunungsungging","postal_code":"43179"},{"id":"3202242008","district_id":"320224","name":"Cipeundeuy","postal_code":"43179"},{"id":"3202242009","district_id":"320224","name":"Pasiripis","postal_code":"43179"},{"id":"3202242010","district_id":"320224","name":"Buniwangi","postal_code":"43179"},{"id":"3202242011","district_id":"320224","name":"Sukatani","postal_code":"43179"},{"id":"3202242012","district_id":"320224","name":"Kademangan","postal_code":"43179"}]