[{"id":"3203232001","district_id":"320323","name":"Cidamar","postal_code":"43275"},{"id":"3203232002","district_id":"320323","name":"Cibuluh","postal_code":"43275"},{"id":"3203232003","district_id":"320323","name":"Cisalak","postal_code":"43275"},{"id":"3203232004","district_id":"320323","name":"Cimaragang","postal_code":"43275"},{"id":"3203232005","district_id":"320323","name":"Mekarjaya","postal_code":"43275"},{"id":"3203232006","district_id":"320323","name":"Kertajadi","postal_code":"43275"},{"id":"3203232007","district_id":"320323","name":"Sukapura","postal_code":"43275"},{"id":"3203232008","district_id":"320323","name":"Gelarpawitan","postal_code":"43275"},{"id":"3203232009","district_id":"320323","name":"Karangwangi","postal_code":"43275"},{"id":"3203232010","district_id":"320323","name":"Karyabakti","postal_code":"43275"},{"id":"3203232011","district_id":"320323","name":"Jayapura","postal_code":"43275"},{"id":"3203232012","district_id":"320323","name":"Neglasari","postal_code":"43275"},{"id":"3203232013","district_id":"320323","name":"Puncakbaru","postal_code":"43275"},{"id":"3203232014","district_id":"320323","name":"Gelarwangi","postal_code":"43275"}]