[{"id":"3203172003","district_id":"320317","name":"Sukasari","postal_code":"43268"},{"id":"3203172006","district_id":"320317","name":"Pasirdalem","postal_code":"43268"},{"id":"3203172008","district_id":"320317","name":"Talagasari","postal_code":"43268"},{"id":"3203172009","district_id":"320317","name":"Bojongkasih","postal_code":"43268"},{"id":"3203172010","district_id":"320317","name":"Wargaasih","postal_code":"43268"},{"id":"3203172011","district_id":"320317","name":"Sukaraharja","postal_code":"43268"},{"id":"3203172014","district_id":"320317","name":"Sukakerta","postal_code":"43268"},{"id":"3203172016","district_id":"320317","name":"Neglasari","postal_code":"43268"},{"id":"3203172017","district_id":"320317","name":"Sukaresmi","postal_code":"43268"},{"id":"3203172019","district_id":"320317","name":"Wargasari","postal_code":"43268"},{"id":"3203172020","district_id":"320317","name":"Sukaraja","postal_code":"43268"},{"id":"3203172021","district_id":"320317","name":"Kadupandak","postal_code":"43268"},{"id":"3203172022","district_id":"320317","name":"Gandasari","postal_code":"43268"},{"id":"3203172023","district_id":"320317","name":"Sindangsari","postal_code":"43268"}]