[{"id":"3204281014","district_id":"320428","name":"Rancaekek Kencana","postal_code":"40394"},{"id":"3204282001","district_id":"320428","name":"Rancaekek Wetan","postal_code":"40394"},{"id":"3204282002","district_id":"320428","name":"Rancaekek Kulon","postal_code":"40394"},{"id":"3204282003","district_id":"320428","name":"Bojongsalam","postal_code":"40394"},{"id":"3204282004","district_id":"320428","name":"Bojongloa","postal_code":"40394"},{"id":"3204282005","district_id":"320428","name":"Jelegong","postal_code":"40394"},{"id":"3204282006","district_id":"320428","name":"Linggar","postal_code":"40394"},{"id":"3204282007","district_id":"320428","name":"Cangkuang","postal_code":"40394"},{"id":"3204282008","district_id":"320428","name":"Haurpugur","postal_code":"40394"},{"id":"3204282009","district_id":"320428","name":"Sukamanah","postal_code":"40394"},{"id":"3204282010","district_id":"320428","name":"Sukamulya","postal_code":"40394"},{"id":"3204282011","district_id":"320428","name":"Tegal Sumedang","postal_code":"40394"},{"id":"3204282012","district_id":"320428","name":"Sangiang","postal_code":"40394"},{"id":"3204282013","district_id":"320428","name":"Nanjung Mekar","postal_code":"40394"}]