[{"id":"3205142001","district_id":"320514","name":"Malangbong","postal_code":"44188"},{"id":"3205142002","district_id":"320514","name":"Karangmulya","postal_code":"44188"},{"id":"3205142003","district_id":"320514","name":"Cibunar","postal_code":"44188"},{"id":"3205142004","district_id":"320514","name":"Cikarag","postal_code":"44188"},{"id":"3205142005","district_id":"320514","name":"Sakawayana","postal_code":"44188"},{"id":"3205142006","district_id":"320514","name":"Mekarasih","postal_code":"44188"},{"id":"3205142007","district_id":"320514","name":"Cisitu","postal_code":"44188"},{"id":"3205142008","district_id":"320514","name":"Campaka","postal_code":"44188"},{"id":"3205142009","district_id":"320514","name":"Lewobaru","postal_code":"44188"},{"id":"3205142010","district_id":"320514","name":"Sukamanah","postal_code":"44188"},{"id":"3205142011","district_id":"320514","name":"Cilampuyang","postal_code":"44188"},{"id":"3205142012","district_id":"320514","name":"Cinagara","postal_code":"44188"},{"id":"3205142013","district_id":"320514","name":"Sukaratu","postal_code":"44188"},{"id":"3205142014","district_id":"320514","name":"Citeras","postal_code":"44188"},{"id":"3205142015","district_id":"320514","name":"Sukarasa","postal_code":"44188"},{"id":"3205142016","district_id":"320514","name":"Sekarwangi","postal_code":"44188"},{"id":"3205142017","district_id":"320514","name":"Kutanagara","postal_code":"44188"},{"id":"3205142018","district_id":"320514","name":"Sanding","postal_code":"44188"},{"id":"3205142019","district_id":"320514","name":"Cihaurkuning","postal_code":"44188"},{"id":"3205142020","district_id":"320514","name":"Baru Dua","postal_code":"44188"},{"id":"3205142021","district_id":"320514","name":"Sukajaya","postal_code":"44188"},{"id":"3205142022","district_id":"320514","name":"Bunisari","postal_code":"44188"},{"id":"3205142023","district_id":"320514","name":"Mekarmulya","postal_code":"44188"},{"id":"3205142024","district_id":"320514","name":"Girimakmur","postal_code":"44188"}]