[{"id":"3205102001","district_id":"320510","name":"Kadungora","postal_code":"44153"},{"id":"3205102002","district_id":"320510","name":"Gandamekar","postal_code":"44153"},{"id":"3205102003","district_id":"320510","name":"Cikembulan","postal_code":"44153"},{"id":"3205102004","district_id":"320510","name":"Cisaat","postal_code":"44153"},{"id":"3205102005","district_id":"320510","name":"Mandalasari","postal_code":"44153"},{"id":"3205102006","district_id":"320510","name":"Tanggulun","postal_code":"44153"},{"id":"3205102007","district_id":"320510","name":"Mekarbakti","postal_code":"44153"},{"id":"3205102008","district_id":"320510","name":"Karangmulya","postal_code":"44153"},{"id":"3205102009","district_id":"320510","name":"Harumansari","postal_code":"44153"},{"id":"3205102010","district_id":"320510","name":"Talagasari","postal_code":"44153"},{"id":"3205102011","district_id":"320510","name":"Hegarsari","postal_code":"44153"},{"id":"3205102012","district_id":"320510","name":"Neglasari","postal_code":"44153"},{"id":"3205102013","district_id":"320510","name":"Karangtengah","postal_code":"44153"},{"id":"3205102014","district_id":"320510","name":"Rancasalak","postal_code":"44153"}]