[{"id":"3207152001","district_id":"320715","name":"Rancah","postal_code":"46387"},{"id":"3207152002","district_id":"320715","name":"Kiarapayung","postal_code":"46387"},{"id":"3207152003","district_id":"320715","name":"Cileungsir","postal_code":"46387"},{"id":"3207152004","district_id":"320715","name":"Cisontrol","postal_code":"46387"},{"id":"3207152005","district_id":"320715","name":"Situmandala","postal_code":"46387"},{"id":"3207152006","district_id":"320715","name":"Kawunglarang","postal_code":"46387"},{"id":"3207152007","district_id":"320715","name":"Patakaharja","postal_code":"46387"},{"id":"3207152008","district_id":"320715","name":"Bojonggedang","postal_code":"46387"},{"id":"3207152009","district_id":"320715","name":"Karangpari","postal_code":"46387"},{"id":"3207152010","district_id":"320715","name":"Dadiharja","postal_code":"46387"},{"id":"3207152011","district_id":"320715","name":"Jangalaharja","postal_code":"46387"},{"id":"3207152012","district_id":"320715","name":"Giriharja","postal_code":"46387"},{"id":"3207152013","district_id":"320715","name":"Wangunsari","postal_code":"46387"}]