[{"id":"3207011001","district_id":"320701","name":"Ciamis","postal_code":"46211"},{"id":"3207011002","district_id":"320701","name":"Kertasari","postal_code":"46213"},{"id":"3207011003","district_id":"320701","name":"Maleber","postal_code":"46214"},{"id":"3207011004","district_id":"320701","name":"Cigembor","postal_code":"46212"},{"id":"3207011005","district_id":"320701","name":"Benteng","postal_code":"46217"},{"id":"3207011006","district_id":"320701","name":"Linggasari","postal_code":"46216"},{"id":"3207011007","district_id":"320701","name":"Sindangrasa","postal_code":"46215"},{"id":"3207012008","district_id":"320701","name":"Pawindan","postal_code":"46218"},{"id":"3207012009","district_id":"320701","name":"Cisadap","postal_code":"46215"},{"id":"3207012010","district_id":"320701","name":"Imbanagara","postal_code":"46219"},{"id":"3207012011","district_id":"320701","name":"Imbanagara Raya","postal_code":"46219"},{"id":"3207012012","district_id":"320701","name":"Panyingkiran","postal_code":"46211"}]