[{"id":"3208142001","district_id":"320814","name":"Cirea","postal_code":"45558"},{"id":"3208142002","district_id":"320814","name":"Sukasari","postal_code":"45558"},{"id":"3208142003","district_id":"320814","name":"Seda","postal_code":"45558"},{"id":"3208142004","district_id":"320814","name":"Trijaya","postal_code":"45558"},{"id":"3208142005","district_id":"320814","name":"Randobawa Girang ","postal_code":"45558"},{"id":"3208142006","district_id":"320814","name":"Pakembangan","postal_code":"45558"},{"id":"3208142007","district_id":"320814","name":"Randobawa Ilir ","postal_code":"45558"},{"id":"3208142008","district_id":"320814","name":"Kertawinangun","postal_code":"45558"},{"id":"3208142009","district_id":"320814","name":"Mandirancan","postal_code":"45558"},{"id":"3208142010","district_id":"320814","name":"Naggela ","postal_code":"45558"},{"id":"3208142011","district_id":"320814","name":"Nanggerangjaya","postal_code":"45558"},{"id":"3208142012","district_id":"320814","name":"Salakadomas","postal_code":"45558"}]