[{"id":"3208312001","district_id":"320831","name":"Sindangsari","postal_code":"45573"},{"id":"3208312002","district_id":"320831","name":"Kaduagung","postal_code":"45573"},{"id":"3208312003","district_id":"320831","name":"Kertaungaran","postal_code":"45573"},{"id":"3208312004","district_id":"320831","name":"Sindangagung","postal_code":"45573"},{"id":"3208312005","district_id":"320831","name":"Balong","postal_code":"45573"},{"id":"3208312006","district_id":"320831","name":"Kertayasa","postal_code":"45573"},{"id":"3208312007","district_id":"320831","name":"Kertawangunan","postal_code":"45573"},{"id":"3208312008","district_id":"320831","name":"Babakanreuma","postal_code":"45573"},{"id":"3208312009","district_id":"320831","name":"Tirtawangunan","postal_code":"45573"},{"id":"3208312010","district_id":"320831","name":"Dukuhlor","postal_code":"45573"},{"id":"3208312011","district_id":"320831","name":"Taraju","postal_code":"45573"},{"id":"3208312012","district_id":"320831","name":"Mekarmukti","postal_code":"45573"}]