[{"id":"3208172001","district_id":"320817","name":"Cimenga","postal_code":"45562"},{"id":"3208172002","district_id":"320817","name":"Cageur","postal_code":"45562"},{"id":"3208172003","district_id":"320817","name":"Sakertabarat","postal_code":"45562"},{"id":"3208172004","district_id":"320817","name":"Sukarasa","postal_code":"45562"},{"id":"3208172005","district_id":"320817","name":"Paninggaran","postal_code":"45562"},{"id":"3208172006","district_id":"320817","name":"Cipasung","postal_code":"45562"},{"id":"3208172007","district_id":"320817","name":"Kawahmanuk","postal_code":"45562"},{"id":"3208172008","district_id":"320817","name":"Cikupa","postal_code":"45562"},{"id":"3208172009","district_id":"320817","name":"Parung","postal_code":"45562"},{"id":"3208172010","district_id":"320817","name":"Darma","postal_code":"45562"},{"id":"3208172011","district_id":"320817","name":"Jagara","postal_code":"45562"},{"id":"3208172012","district_id":"320817","name":"Bakom","postal_code":"45562"},{"id":"3208172013","district_id":"320817","name":"Karanganyar","postal_code":"45562"},{"id":"3208172014","district_id":"320817","name":"Karangsari","postal_code":"45562"},{"id":"3208172015","district_id":"320817","name":"Sagarahiang","postal_code":"45562"},{"id":"3208172016","district_id":"320817","name":"Gunungsirah","postal_code":"45562"},{"id":"3208172017","district_id":"320817","name":"Sakertatimur","postal_code":"45562"},{"id":"3208172018","district_id":"320817","name":"Tugumulya","postal_code":"45562"},{"id":"3208172019","district_id":"320817","name":"Situsari","postal_code":"45562"}]