[{"id":"3209302001","district_id":"320930","name":"Dompyong Kulon","postal_code":"45190"},{"id":"3209302002","district_id":"320930","name":"Dompyong Wetan","postal_code":"45190"},{"id":"3209302003","district_id":"320930","name":"Kalimekar","postal_code":"45190"},{"id":"3209302004","district_id":"320930","name":"Kalimoro ","postal_code":"45190"},{"id":"3209302005","district_id":"320930","name":"Gagasari","postal_code":"45190"},{"id":"3209302006","district_id":"320930","name":"Kalipasung","postal_code":"45190"},{"id":"3209302007","district_id":"320930","name":"Gebang Kulon","postal_code":"45190"},{"id":"3209302008","district_id":"320930","name":"Gebang","postal_code":"45190"},{"id":"3209302009","district_id":"320930","name":"Gebang Ilir ","postal_code":"45190"},{"id":"3209302010","district_id":"320930","name":"Gebang Udik ","postal_code":"45190"},{"id":"3209302011","district_id":"320930","name":"Gebang Mekar ","postal_code":"45190"},{"id":"3209302012","district_id":"320930","name":"Playangan ","postal_code":"45190"},{"id":"3209302013","district_id":"320930","name":"Melakasari","postal_code":"45190"}]