[{"id":"3210032001","district_id":"321003","name":"Sukasari","postal_code":"45466"},{"id":"3210032002","district_id":"321003","name":"Cisoka","postal_code":"45466"},{"id":"3210032003","district_id":"321003","name":"Sindangpanji","postal_code":"45466"},{"id":"3210032004","district_id":"321003","name":"Cikijing","postal_code":"45466"},{"id":"3210032005","district_id":"321003","name":"Sindang","postal_code":"45466"},{"id":"3210032006","district_id":"321003","name":"Banjaransari","postal_code":"45466"},{"id":"3210032007","district_id":"321003","name":"Kasturi","postal_code":"45466"},{"id":"3210032008","district_id":"321003","name":"Cidulang","postal_code":"45466"},{"id":"3210032009","district_id":"321003","name":"Jagasari","postal_code":"45466"},{"id":"3210032010","district_id":"321003","name":"Bagjasari","postal_code":"45466"},{"id":"3210032011","district_id":"321003","name":"Sunalari","postal_code":"45466"},{"id":"3210032012","district_id":"321003","name":"Cipulus","postal_code":"45466"},{"id":"3210032013","district_id":"321003","name":"Kancana","postal_code":"45466"},{"id":"3210032014","district_id":"321003","name":"Sukamukti","postal_code":"45466"},{"id":"3210032015","district_id":"321003","name":"Cilangcang","postal_code":"45466"}]