[{"id":"3210172001","district_id":"321017","name":"Bongas Wetan","postal_code":"45455"},{"id":"3210172002","district_id":"321017","name":"Bongas Kulon","postal_code":"45455"},{"id":"3210172003","district_id":"321017","name":"Garawangi","postal_code":"45455"},{"id":"3210172004","district_id":"321017","name":"Rancaputat","postal_code":"45455"},{"id":"3210172005","district_id":"321017","name":"Banjaran","postal_code":"45468"},{"id":"3210172006","district_id":"321017","name":"Sepat","postal_code":"45455"},{"id":"3210172007","district_id":"321017","name":"Paningkiran","postal_code":"45455"},{"id":"3210172008","district_id":"321017","name":"Parapatan","postal_code":"45455"},{"id":"3210172009","district_id":"321017","name":"Panjalin Kidul","postal_code":"45455"},{"id":"3210172010","district_id":"321017","name":"Cidenok","postal_code":"45455"},{"id":"3210172011","district_id":"321017","name":"Lojikobong ","postal_code":"45455"},{"id":"3210172012","district_id":"321017","name":"Panjalin Lor","postal_code":"45455"},{"id":"3210172013","district_id":"321017","name":"Sumberjaya","postal_code":"45455"},{"id":"3210172014","district_id":"321017","name":"Pancaksuji","postal_code":"45455"},{"id":"3210172015","district_id":"321017","name":"Gelok Mulya","postal_code":"45455"}]