[{"id":"3214102001","district_id":"321410","name":"Pasawahananyar","postal_code":"41172"},{"id":"3214102002","district_id":"321410","name":"Pasawahan","postal_code":"41172"},{"id":"3214102003","district_id":"321410","name":"Sawahkulon ","postal_code":"41172"},{"id":"3214102004","district_id":"321410","name":"Ciherang","postal_code":"41172"},{"id":"3214102005","district_id":"321410","name":"Cidahu","postal_code":"41172"},{"id":"3214102006","district_id":"321410","name":"Pasawahankidul ","postal_code":"41172"},{"id":"3214102007","district_id":"321410","name":"Kertajaya","postal_code":"41172"},{"id":"3214102008","district_id":"321410","name":"Lebakanyar ","postal_code":"41172"},{"id":"3214102009","district_id":"321410","name":"Selaawi","postal_code":"41172"},{"id":"3214102010","district_id":"321410","name":"Margasari","postal_code":"41171"},{"id":"3214102011","district_id":"321410","name":"Warungkadu ","postal_code":"41172"},{"id":"3214102012","district_id":"321410","name":"Cihuni","postal_code":"41172"}]