[{"id":"3218052001","district_id":"321805","name":"Karangkamiri","postal_code":"46391"},{"id":"3218052002","district_id":"321805","name":"Cimanggu","postal_code":"46391"},{"id":"3218052003","district_id":"321805","name":"Langkaplancar","postal_code":"46391"},{"id":"3218052004","district_id":"321805","name":"Pangkalan","postal_code":"46391"},{"id":"3218052005","district_id":"321805","name":"Bojongkondang","postal_code":"46391"},{"id":"3218052006","district_id":"321805","name":"Bangunjaya","postal_code":"46391"},{"id":"3218052007","district_id":"321805","name":"Jayasari","postal_code":"46391"},{"id":"3218052008","district_id":"321805","name":"Jadimulya","postal_code":"46391"},{"id":"3218052009","district_id":"321805","name":"Jadikarya","postal_code":"46391"},{"id":"3218052010","district_id":"321805","name":"Bojong","postal_code":"46391"},{"id":"3218052011","district_id":"321805","name":"Bangunkarya","postal_code":"46391"},{"id":"3218052012","district_id":"321805","name":"Sukamulya","postal_code":"46391"},{"id":"3218052013","district_id":"321805","name":"Mekarwangi","postal_code":"46391"},{"id":"3218052014","district_id":"321805","name":"Cisarua","postal_code":"46391"},{"id":"3218052015","district_id":"321805","name":"Bungur Raya","postal_code":"46391"}]