[{"id":"3301162001","district_id":"330116","name":"Panulisan","postal_code":"53266"},{"id":"3301162002","district_id":"330116","name":"Matenggeng","postal_code":"53266"},{"id":"3301162003","district_id":"330116","name":"Ciwalen","postal_code":"53266"},{"id":"3301162004","district_id":"330116","name":"Dayeuhluhur","postal_code":"53266"},{"id":"3301162005","district_id":"330116","name":"Hanum","postal_code":"53266"},{"id":"3301162006","district_id":"330116","name":"Datar","postal_code":"53266"},{"id":"3301162007","district_id":"330116","name":"Bingkeng","postal_code":"53266"},{"id":"3301162008","district_id":"330116","name":"Bolang","postal_code":"53266"},{"id":"3301162009","district_id":"330116","name":"Kutaagung","postal_code":"53266"},{"id":"3301162010","district_id":"330116","name":"Cijeruk","postal_code":"53266"},{"id":"3301162011","district_id":"330116","name":"Cilumping","postal_code":"53266"},{"id":"3301162012","district_id":"330116","name":"Sumpinghayu","postal_code":"53266"},{"id":"3301162013","district_id":"330116","name":"Panulisan Barat","postal_code":"53266"},{"id":"3301162014","district_id":"330116","name":"Panulisan Timur","postal_code":"53266"}]