[{"id":"3301122001","district_id":"330112","name":"Cidadap","postal_code":"53255"},{"id":"3301122002","district_id":"330112","name":"Pangawaren","postal_code":"53255"},{"id":"3301122003","district_id":"330112","name":"Gunungtelu","postal_code":"53255"},{"id":"3301122004","district_id":"330112","name":"Sindangbarang","postal_code":"53255"},{"id":"3301122005","district_id":"330112","name":"Karangpucung","postal_code":"53255"},{"id":"3301122006","district_id":"330112","name":"Ciporos","postal_code":"53255"},{"id":"3301122007","district_id":"330112","name":"Tayem","postal_code":"53255"},{"id":"3301122008","district_id":"330112","name":"Bengbulang","postal_code":"53255"},{"id":"3301122009","district_id":"330112","name":"Surusunda","postal_code":"53255"},{"id":"3301122010","district_id":"330112","name":"Babakan","postal_code":"53255"},{"id":"3301122011","district_id":"330112","name":"Ciruyung","postal_code":"53255"},{"id":"3301122012","district_id":"330112","name":"Pamulihan","postal_code":"53255"},{"id":"3301122013","district_id":"330112","name":"Tayem Timur","postal_code":"53255"},{"id":"3301122014","district_id":"330112","name":"Sidamulya","postal_code":"53255"}]