[{"id":"3302212001","district_id":"330221","name":"Silado","postal_code":"53183"},{"id":"3302212002","district_id":"330221","name":"Karangturi","postal_code":"53183"},{"id":"3302212003","district_id":"330221","name":"Karangcegak","postal_code":"53183"},{"id":"3302212004","district_id":"330221","name":"Sumbang","postal_code":"53183"},{"id":"3302212005","district_id":"330221","name":"Tambaksogra","postal_code":"53183"},{"id":"3302212006","district_id":"330221","name":"Kebanggan","postal_code":"53183"},{"id":"3302212007","district_id":"330221","name":"Kawungcarang","postal_code":"53183"},{"id":"3302212008","district_id":"330221","name":"Karanggintung","postal_code":"53183"},{"id":"3302212009","district_id":"330221","name":"Datar","postal_code":"53183"},{"id":"3302212010","district_id":"330221","name":"Banjarsari Kulon","postal_code":"53183"},{"id":"3302212011","district_id":"330221","name":"Banjarsari Wetan","postal_code":"53183"},{"id":"3302212012","district_id":"330221","name":"Banteran","postal_code":"53183"},{"id":"3302212013","district_id":"330221","name":"Ciberem","postal_code":"53183"},{"id":"3302212014","district_id":"330221","name":"Susukan","postal_code":"53183"},{"id":"3302212015","district_id":"330221","name":"Sikapat","postal_code":"53183"},{"id":"3302212016","district_id":"330221","name":"Gandatapa","postal_code":"53183"},{"id":"3302212017","district_id":"330221","name":"Kotayasa","postal_code":"53183"},{"id":"3302212018","district_id":"330221","name":"Limpakuwus","postal_code":"53183"},{"id":"3302212019","district_id":"330221","name":"Kedungmalang ","postal_code":"53183"}]