[{"id":"3302192001","district_id":"330219","name":"Kalikidang","postal_code":"53181"},{"id":"3302192002","district_id":"330219","name":"Wiradadi","postal_code":"53181"},{"id":"3302192003","district_id":"330219","name":"Karangkedawung","postal_code":"53181"},{"id":"3302192004","district_id":"330219","name":"Sokaraja Tengah","postal_code":"53181"},{"id":"3302192005","district_id":"330219","name":"Sokaraja Kidul","postal_code":"53181"},{"id":"3302192006","district_id":"330219","name":"Klahang","postal_code":"53181"},{"id":"3302192007","district_id":"330219","name":"Banjarsari Kidul","postal_code":"53181"},{"id":"3302192008","district_id":"330219","name":"Sokaraja Wetan","postal_code":"53181"},{"id":"3302192009","district_id":"330219","name":"Jompo Kulon","postal_code":"53181"},{"id":"3302192010","district_id":"330219","name":"Banjaranyar","postal_code":"53181"},{"id":"3302192011","district_id":"330219","name":"Lemberang","postal_code":"53181"},{"id":"3302192012","district_id":"330219","name":"Karangduren","postal_code":"53181"},{"id":"3302192013","district_id":"330219","name":"Sokaraja Lor","postal_code":"53181"},{"id":"3302192014","district_id":"330219","name":"Kedondong","postal_code":"53181"},{"id":"3302192015","district_id":"330219","name":"Pamijen","postal_code":"53181"},{"id":"3302192016","district_id":"330219","name":"Sokaraja Kulon","postal_code":"53181"},{"id":"3302192017","district_id":"330219","name":"Karangnanas","postal_code":"53181"},{"id":"3302192018","district_id":"330219","name":"Karangrau","postal_code":"53181"}]