[{"id":"3303092001","district_id":"330309","name":"Gandasuli","postal_code":"53353"},{"id":"3303092002","district_id":"330309","name":"Kalapacung","postal_code":"53353"},{"id":"3303092003","district_id":"330309","name":"Karangmalang","postal_code":"53353"},{"id":"3303092004","district_id":"330309","name":"Banjarsari","postal_code":"53353"},{"id":"3303092005","district_id":"330309","name":"Majapura","postal_code":"53353"},{"id":"3303092006","district_id":"330309","name":"Bobotsari","postal_code":"53353"},{"id":"3303092007","district_id":"330309","name":"Karangduren","postal_code":"53353"},{"id":"3303092008","district_id":"330309","name":"Pakuncen","postal_code":"53353"},{"id":"3303092009","district_id":"330309","name":"Karangtalun","postal_code":"53353"},{"id":"3303092010","district_id":"330309","name":"Gunungkarang","postal_code":"53353"},{"id":"3303092011","district_id":"330309","name":"Talagening","postal_code":"53353"},{"id":"3303092012","district_id":"330309","name":"Tlagayasa","postal_code":"53353"},{"id":"3303092013","district_id":"330309","name":"Dagan","postal_code":"53353"},{"id":"3303092014","district_id":"330309","name":"Palumbungan","postal_code":"53353"},{"id":"3303092015","district_id":"330309","name":"Limbasari","postal_code":"53353"},{"id":"3303092016","district_id":"330309","name":"Palumbungan Wetan","postal_code":"53353"}]