[{"id":"3303061011","district_id":"330306","name":"Mewek","postal_code":"53371"},{"id":"3303061012","district_id":"330306","name":"Karangmanyar","postal_code":"53371"},{"id":"3303061013","district_id":"330306","name":"Kalikabong","postal_code":"53321"},{"id":"3303062001","district_id":"330306","name":"Jompo","postal_code":"53371"},{"id":"3303062002","district_id":"330306","name":"Rabak","postal_code":"53371"},{"id":"3303062003","district_id":"330306","name":"Blater","postal_code":"53371"},{"id":"3303062004","district_id":"330306","name":"Manduraga","postal_code":"53371"},{"id":"3303062005","district_id":"330306","name":"Karangsari","postal_code":"53371"},{"id":"3303062006","district_id":"330306","name":"Kalimanah Kulon","postal_code":"53371"},{"id":"3303062007","district_id":"330306","name":"Sidakangen","postal_code":"53371"},{"id":"3303062008","district_id":"330306","name":"Karangpetir","postal_code":"53371"},{"id":"3303062009","district_id":"330306","name":"Kalimanah Wetan","postal_code":"53371"},{"id":"3303062010","district_id":"330306","name":"Grecol","postal_code":"53371"},{"id":"3303062014","district_id":"330306","name":"Selabaya","postal_code":"53371"},{"id":"3303062015","district_id":"330306","name":"Klapasawit","postal_code":"53371"},{"id":"3303062016","district_id":"330306","name":"Kedungwuluh","postal_code":"53371"},{"id":"3303062017","district_id":"330306","name":"Babakan","postal_code":"53371"}]