[{"id":"3304172001","district_id":"330417","name":"Karangtengah","postal_code":"53457"},{"id":"3304172002","district_id":"330417","name":"Suwidak","postal_code":"53457"},{"id":"3304172003","district_id":"330417","name":"Bantar","postal_code":"53457"},{"id":"3304172004","district_id":"330417","name":"Pandansari","postal_code":"53457"},{"id":"3304172005","district_id":"330417","name":"Pagergunung","postal_code":"53457"},{"id":"3304172006","district_id":"330417","name":"Dawuhan","postal_code":"53457"},{"id":"3304172007","district_id":"330417","name":"Kubang","postal_code":"53457"},{"id":"3304172008","district_id":"330417","name":"Susukan","postal_code":"53457"},{"id":"3304172009","district_id":"330417","name":"Wanayasa","postal_code":"53457"},{"id":"3304172010","district_id":"330417","name":"Pesantren","postal_code":"53457"},{"id":"3304172011","district_id":"330417","name":"Balun","postal_code":"53457"},{"id":"3304172012","district_id":"330417","name":"Tempuran","postal_code":"53457"},{"id":"3304172013","district_id":"330417","name":"Wanaraja","postal_code":"53457"},{"id":"3304172014","district_id":"330417","name":"Jatilawang","postal_code":"53457"},{"id":"3304172015","district_id":"330417","name":"Legoksayem","postal_code":"53457"},{"id":"3304172016","district_id":"330417","name":"Kasimpar","postal_code":"53457"},{"id":"3304172017","district_id":"330417","name":"Penanggungan","postal_code":"53457"}]