[{"id":"3304152001","district_id":"330415","name":"Kalilunjar","postal_code":"53454"},{"id":"3304152002","district_id":"330415","name":"Karangsari","postal_code":"53454"},{"id":"3304152003","district_id":"330415","name":"Sarwodadi","postal_code":"53454"},{"id":"3304152004","district_id":"330415","name":"Grogol","postal_code":"53454"},{"id":"3304152005","district_id":"330415","name":"Giritirta","postal_code":"53454"},{"id":"3304152006","district_id":"330415","name":"Biting","postal_code":"53454"},{"id":"3304152007","district_id":"330415","name":"Tlahap","postal_code":"53454"},{"id":"3304152008","district_id":"330415","name":"Darmayasa","postal_code":"53454"},{"id":"3304152009","district_id":"330415","name":"Pejawaran","postal_code":"53454"},{"id":"3304152010","district_id":"330415","name":"Penusupan ","postal_code":"53454"},{"id":"3304152011","district_id":"330415","name":"Ratamba","postal_code":"53454"},{"id":"3304152012","district_id":"330415","name":"Sidengok","postal_code":"53454"},{"id":"3304152013","district_id":"330415","name":"Pegundungan","postal_code":"53454"},{"id":"3304152014","district_id":"330415","name":"Beji","postal_code":"53454"},{"id":"3304152015","district_id":"330415","name":"Semangkung","postal_code":"53454"},{"id":"3304152016","district_id":"330415","name":"Condongcampur ","postal_code":"53454"},{"id":"3304152017","district_id":"330415","name":"Gembol","postal_code":"53454"}]