[{"id":"3306162001","district_id":"330616","name":"Benowo","postal_code":"54183"},{"id":"3306162002","district_id":"330616","name":"Kalitapas","postal_code":"54183"},{"id":"3306162003","district_id":"330616","name":"Kaliwader","postal_code":"54183"},{"id":"3306162004","district_id":"330616","name":"Kedungpucang ","postal_code":"54183"},{"id":"3306162005","district_id":"330616","name":"Sendangsari","postal_code":"54183"},{"id":"3306162006","district_id":"330616","name":"Kaliboto","postal_code":"54183"},{"id":"3306162007","district_id":"330616","name":"Kaliurip ","postal_code":"54183"},{"id":"3306162008","district_id":"330616","name":"Kedungloteng ","postal_code":"54183"},{"id":"3306162009","district_id":"330616","name":"Wadas","postal_code":"54183"},{"id":"3306162010","district_id":"330616","name":"Cacaban Kidul","postal_code":"54183"},{"id":"3306162011","district_id":"330616","name":"Cacaban Lor","postal_code":"54183"},{"id":"3306162012","district_id":"330616","name":"Pekacangan","postal_code":"54183"},{"id":"3306162013","district_id":"330616","name":"Medono","postal_code":"54183"},{"id":"3306162014","district_id":"330616","name":"Bleber","postal_code":"54183"},{"id":"3306162015","district_id":"330616","name":"Bener","postal_code":"54183"},{"id":"3306162016","district_id":"330616","name":"Karangsari ","postal_code":"54183"},{"id":"3306162017","district_id":"330616","name":"Guntur","postal_code":"54183"},{"id":"3306162018","district_id":"330616","name":"Legetan","postal_code":"54183"},{"id":"3306162019","district_id":"330616","name":"Ketosari","postal_code":"54183"},{"id":"3306162020","district_id":"330616","name":"Kamijoro","postal_code":"54183"},{"id":"3306162021","district_id":"330616","name":"Jati","postal_code":"54183"},{"id":"3306162022","district_id":"330616","name":"Mayungsari ","postal_code":"54183"},{"id":"3306162023","district_id":"330616","name":"Kalijambe","postal_code":"54183"},{"id":"3306162024","district_id":"330616","name":"Sukowuwuh","postal_code":"54183"},{"id":"3306162025","district_id":"330616","name":"Limbangan","postal_code":"54183"},{"id":"3306162026","district_id":"330616","name":"Nglaris","postal_code":"54183"},{"id":"3306162027","district_id":"330616","name":"Sidomukti","postal_code":"54183"},{"id":"3306162028","district_id":"330616","name":"Ngasinan","postal_code":"54183"}]