[{"id":"3306071010","district_id":"330607","name":"Borokulon","postal_code":"54171"},{"id":"3306071026","district_id":"330607","name":"Kledungkradenan","postal_code":"54171"},{"id":"3306071027","district_id":"330607","name":"Kledung Karangdalem","postal_code":"54171"},{"id":"3306072001","district_id":"330607","name":"Seborokrapyak","postal_code":"54171"},{"id":"3306072002","district_id":"330607","name":"Triwarno","postal_code":"54171"},{"id":"3306072003","district_id":"330607","name":"Bajangrejo","postal_code":"54171"},{"id":"3306072004","district_id":"330607","name":"Bencorejo","postal_code":"54171"},{"id":"3306072005","district_id":"330607","name":"Surorejo","postal_code":"54171"},{"id":"3306072006","district_id":"330607","name":"Wangunrejo","postal_code":"54171"},{"id":"3306072007","district_id":"330607","name":"Cengkawakrejo","postal_code":"54171"},{"id":"3306072008","district_id":"330607","name":"Popongan","postal_code":"54171"},{"id":"3306072009","district_id":"330607","name":"Borowetan","postal_code":"54171"},{"id":"3306072011","district_id":"330607","name":"Tegalrejo","postal_code":"54171"},{"id":"3306072012","district_id":"330607","name":"Banyuurip","postal_code":"54171"},{"id":"3306072013","district_id":"330607","name":"Malangrejo","postal_code":"54171"},{"id":"3306072014","district_id":"330607","name":"Tegalkuning","postal_code":"54171"},{"id":"3306072015","district_id":"330607","name":"Kliwonan","postal_code":"54171"},{"id":"3306072016","district_id":"330607","name":"Kertosono","postal_code":"54171"},{"id":"3306072017","district_id":"330607","name":"Tanjunganom","postal_code":"54171"},{"id":"3306072018","district_id":"330607","name":"Sawit","postal_code":"54171"},{"id":"3306072019","district_id":"330607","name":"Sumbersari","postal_code":"54171"},{"id":"3306072020","district_id":"330607","name":"Pakisrejo","postal_code":"54171"},{"id":"3306072021","district_id":"330607","name":"Candingasinan","postal_code":"54171"},{"id":"3306072022","district_id":"330607","name":"Sokowaten","postal_code":"54171"},{"id":"3306072023","district_id":"330607","name":"Golok","postal_code":"54171"},{"id":"3306072024","district_id":"330607","name":"Candisari","postal_code":"54171"},{"id":"3306072025","district_id":"330607","name":"Condongsari","postal_code":"54171"}]