[{"id":"3307031008","district_id":"330703","name":"Sapuran","postal_code":"56375"},{"id":"3307032001","district_id":"330703","name":"Bogoran","postal_code":"56375"},{"id":"3307032002","district_id":"330703","name":"Karangsari","postal_code":"56375"},{"id":"3307032003","district_id":"330703","name":"Pecekelan","postal_code":"56375"},{"id":"3307032004","district_id":"330703","name":"Glagah","postal_code":"56375"},{"id":"3307032005","district_id":"330703","name":"Surojoyo","postal_code":"56375"},{"id":"3307032006","district_id":"330703","name":"Talunombo","postal_code":"56375"},{"id":"3307032007","district_id":"330703","name":"Tempursari","postal_code":"56375"},{"id":"3307032009","district_id":"330703","name":"Jolontoro","postal_code":"56375"},{"id":"3307032010","district_id":"330703","name":"Sedayu","postal_code":"56375"},{"id":"3307032011","district_id":"330703","name":"Ngadisalam","postal_code":"56375"},{"id":"3307032012","district_id":"330703","name":"Tempuranduwur","postal_code":"56375"},{"id":"3307032013","district_id":"330703","name":"Marongsari","postal_code":"56375"},{"id":"3307032014","district_id":"330703","name":"Batursari","postal_code":"56375"},{"id":"3307032015","district_id":"330703","name":"Banyumudal","postal_code":"56375"},{"id":"3307032016","district_id":"330703","name":"Ngadikerso","postal_code":"56375"},{"id":"3307032017","district_id":"330703","name":"Rimpak","postal_code":"56375"}]