[{"id":"3309132001","district_id":"330913","name":"Pelem","postal_code":"57377"},{"id":"3309132002","district_id":"330913","name":"Bendungan","postal_code":"57377"},{"id":"3309132003","district_id":"330913","name":"Temon","postal_code":"57377"},{"id":"3309132004","district_id":"330913","name":"Teter","postal_code":"57377"},{"id":"3309132005","district_id":"330913","name":"Simo","postal_code":"57377"},{"id":"3309132006","district_id":"330913","name":"Walen","postal_code":"57377"},{"id":"3309132007","district_id":"330913","name":"Pentur","postal_code":"57377"},{"id":"3309132008","district_id":"330913","name":"Gunung","postal_code":"57377"},{"id":"3309132009","district_id":"330913","name":"Talakbroto","postal_code":"57377"},{"id":"3309132010","district_id":"330913","name":"Kedunglengkong","postal_code":"57377"},{"id":"3309132011","district_id":"330913","name":"Blagung","postal_code":"57377"},{"id":"3309132012","district_id":"330913","name":"Sumber","postal_code":"57377"},{"id":"3309132013","district_id":"330913","name":"Wates","postal_code":"57377"}]