[{"id":"3310192001","district_id":"331019","name":"Mundu","postal_code":"57482"},{"id":"3310192002","district_id":"331019","name":"Sedayu","postal_code":"57482"},{"id":"3310192003","district_id":"331019","name":"Pomah","postal_code":"57482"},{"id":"3310192004","district_id":"331019","name":"Bono","postal_code":"57482"},{"id":"3310192005","district_id":"331019","name":"Kiringan","postal_code":"57482"},{"id":"3310192006","district_id":"331019","name":"Majegan","postal_code":"57482"},{"id":"3310192007","district_id":"331019","name":"Dalangan","postal_code":"57482"},{"id":"3310192008","district_id":"331019","name":"Gedongjetis","postal_code":"57482"},{"id":"3310192009","district_id":"331019","name":"Sorogaten","postal_code":"57482"},{"id":"3310192010","district_id":"331019","name":"Beji","postal_code":"57482"},{"id":"3310192011","district_id":"331019","name":"Kemiri","postal_code":"57482"},{"id":"3310192012","district_id":"331019","name":"Sudimoro","postal_code":"57482"},{"id":"3310192013","district_id":"331019","name":"Tulung","postal_code":"57482"},{"id":"3310192014","district_id":"331019","name":"Malangan","postal_code":"57482"},{"id":"3310192015","district_id":"331019","name":"Pucangmiliran","postal_code":"57482"},{"id":"3310192016","district_id":"331019","name":"Cokro","postal_code":"57482"},{"id":"3310192017","district_id":"331019","name":"Daleman","postal_code":"57482"},{"id":"3310192018","district_id":"331019","name":"Wunut","postal_code":"57482"}]