[{"id":"3310092001","district_id":"331009","name":"Nangsri","postal_code":"57485"},{"id":"3310092002","district_id":"331009","name":"Barukan","postal_code":"57485"},{"id":"3310092003","district_id":"331009","name":"Borangan","postal_code":"57485"},{"id":"3310092004","district_id":"331009","name":"Sukorini","postal_code":"57485"},{"id":"3310092005","district_id":"331009","name":"Ngemplakseneng","postal_code":"57485"},{"id":"3310092006","district_id":"331009","name":"Sapen","postal_code":"57485"},{"id":"3310092007","district_id":"331009","name":"Kecemen","postal_code":"57485"},{"id":"3310092008","district_id":"331009","name":"Tijayan","postal_code":"57485"},{"id":"3310092009","district_id":"331009","name":"Bendan","postal_code":"57485"},{"id":"3310092010","district_id":"331009","name":"Tanjungsari","postal_code":"57485"},{"id":"3310092011","district_id":"331009","name":"Solodiran","postal_code":"57485"},{"id":"3310092012","district_id":"331009","name":"Taskombang","postal_code":"57485"},{"id":"3310092013","district_id":"331009","name":"Kranggan","postal_code":"57485"},{"id":"3310092014","district_id":"331009","name":"Kebonalas","postal_code":"57485"},{"id":"3310092015","district_id":"331009","name":"Leses","postal_code":"57485"},{"id":"3310092016","district_id":"331009","name":"Kepurun","postal_code":"57485"}]