[{"id":"3310142001","district_id":"331014","name":"Trasan","postal_code":"57472"},{"id":"3310142002","district_id":"331014","name":"Sawahan","postal_code":"57472"},{"id":"3310142003","district_id":"331014","name":"Juwiran","postal_code":"57472"},{"id":"3310142004","district_id":"331014","name":"Jetis","postal_code":"57472"},{"id":"3310142005","district_id":"331014","name":"Ketitang","postal_code":"57472"},{"id":"3310142006","district_id":"331014","name":"Gondangsari","postal_code":"57472"},{"id":"3310142007","district_id":"331014","name":"Serenan","postal_code":"57472"},{"id":"3310142008","district_id":"331014","name":"Tlogorandu","postal_code":"57472"},{"id":"3310142009","district_id":"331014","name":"Bolopleret","postal_code":"57472"},{"id":"3310142010","district_id":"331014","name":"Tanjung","postal_code":"57472"},{"id":"3310142011","district_id":"331014","name":"Kenaiban","postal_code":"57472"},{"id":"3310142012","district_id":"331014","name":"Bulurejo","postal_code":"57472"},{"id":"3310142013","district_id":"331014","name":"Jaten","postal_code":"57472"},{"id":"3310142014","district_id":"331014","name":"Mrisen","postal_code":"57472"},{"id":"3310142015","district_id":"331014","name":"Pundungan","postal_code":"57472"},{"id":"3310142016","district_id":"331014","name":"Juwiring","postal_code":"57472"},{"id":"3310142017","district_id":"331014","name":"Kwarasan","postal_code":"57472"},{"id":"3310142018","district_id":"331014","name":"Carikan","postal_code":"57472"},{"id":"3310142019","district_id":"331014","name":"Taji","postal_code":"57472"}]