[{"id":"3311072001","district_id":"331107","name":"Pranan","postal_code":"57555"},{"id":"3311072002","district_id":"331107","name":"Karangwuni","postal_code":"57555"},{"id":"3311072003","district_id":"331107","name":"Bugel","postal_code":"57555"},{"id":"3311072004","district_id":"331107","name":"Ngombakan","postal_code":"57555"},{"id":"3311072005","district_id":"331107","name":"Bakalan","postal_code":"57555"},{"id":"3311072006","district_id":"331107","name":"Godog","postal_code":"57555"},{"id":"3311072007","district_id":"331107","name":"Kemasan","postal_code":"57555"},{"id":"3311072008","district_id":"331107","name":"Kenokorejo","postal_code":"57555"},{"id":"3311072009","district_id":"331107","name":"Tepisari","postal_code":"57555"},{"id":"3311072010","district_id":"331107","name":"Bulu","postal_code":"57555"},{"id":"3311072011","district_id":"331107","name":"Rejosari","postal_code":"57555"},{"id":"3311072012","district_id":"331107","name":"Polokarto","postal_code":"57555"},{"id":"3311072013","district_id":"331107","name":"Mranggen","postal_code":"57513"},{"id":"3311072014","district_id":"331107","name":"Wonorejo","postal_code":"57555"},{"id":"3311072015","district_id":"331107","name":"Jatisobo","postal_code":"57555"},{"id":"3311072016","district_id":"331107","name":"Kayuapak","postal_code":"57555"},{"id":"3311072017","district_id":"331107","name":"Genengsari","postal_code":"57555"}]