[{"id":"3311012001","district_id":"331101","name":"Grogol","postal_code":"57562"},{"id":"3311012002","district_id":"331101","name":"Karangtengah","postal_code":"57562"},{"id":"3311012003","district_id":"331101","name":"Karangwuni","postal_code":"57562"},{"id":"3311012004","district_id":"331101","name":"Krajan","postal_code":"57562"},{"id":"3311012005","district_id":"331101","name":"Jatingarang","postal_code":"57562"},{"id":"3311012006","district_id":"331101","name":"Karanganyar","postal_code":"57562"},{"id":"3311012007","district_id":"331101","name":"Alasombo","postal_code":"57562"},{"id":"3311012008","district_id":"331101","name":"Karangmojo","postal_code":"57562"},{"id":"3311012009","district_id":"331101","name":"Weru","postal_code":"57562"},{"id":"3311012010","district_id":"331101","name":"Karakan","postal_code":"57562"},{"id":"3311012011","district_id":"331101","name":"Tegalsari","postal_code":"57562"},{"id":"3311012012","district_id":"331101","name":"Tawang","postal_code":"57562"},{"id":"3311012013","district_id":"331101","name":"Ngreco","postal_code":"57562"}]