[{"id":"3311102001","district_id":"331110","name":"Ngrombo","postal_code":"57556"},{"id":"3311102002","district_id":"331110","name":"Mancasan","postal_code":"57556"},{"id":"3311102003","district_id":"331110","name":"Gedongan","postal_code":"57556"},{"id":"3311102004","district_id":"331110","name":"Jetis","postal_code":"57556"},{"id":"3311102005","district_id":"331110","name":"Bentakan","postal_code":"57556"},{"id":"3311102006","district_id":"331110","name":"Kudu","postal_code":"57556"},{"id":"3311102007","district_id":"331110","name":"Kadilangu","postal_code":"57556"},{"id":"3311102008","district_id":"331110","name":"Bakipandeyan","postal_code":"57556"},{"id":"3311102009","district_id":"331110","name":"Menuran","postal_code":"57556"},{"id":"3311102010","district_id":"331110","name":"Duwet","postal_code":"57556"},{"id":"3311102011","district_id":"331110","name":"Siwal","postal_code":"57556"},{"id":"3311102012","district_id":"331110","name":"Waru","postal_code":"57556"},{"id":"3311102013","district_id":"331110","name":"Gentan","postal_code":"57556"},{"id":"3311102014","district_id":"331110","name":"Purbayan","postal_code":"57556"}]