[{"id":"3312081003","district_id":"331208","name":"Puloharjo","postal_code":"57663"},{"id":"3312081009","district_id":"331208","name":"Ngadirejo","postal_code":"57663"},{"id":"3312082001","district_id":"331208","name":"Basuhan","postal_code":"57663"},{"id":"3312082002","district_id":"331208","name":"Pucung","postal_code":"57663"},{"id":"3312082004","district_id":"331208","name":"Sindukarto ","postal_code":"57663"},{"id":"3312082005","district_id":"331208","name":"Panekan","postal_code":"57663"},{"id":"3312082006","district_id":"331208","name":"Baleharjo","postal_code":"57663"},{"id":"3312082007","district_id":"331208","name":"Sumberharjo","postal_code":"57663"},{"id":"3312082008","district_id":"331208","name":"Minggarharjo","postal_code":"57663"},{"id":"3312082010","district_id":"331208","name":"Tegalharjo","postal_code":"57663"},{"id":"3312082011","district_id":"331208","name":"Eromoko","postal_code":"57663"},{"id":"3312082012","district_id":"331208","name":"Ngunggahan","postal_code":"57663"},{"id":"3312082013","district_id":"331208","name":"Tempurharjo","postal_code":"57663"},{"id":"3312082014","district_id":"331208","name":"Pasekan","postal_code":"57663"},{"id":"3312082015","district_id":"331208","name":"Ngandong","postal_code":"57663"}]