[{"id":"3314131002","district_id":"331413","name":"Ngembatpadas","postal_code":"57274"},{"id":"3314131003","district_id":"331413","name":"Kragilan","postal_code":"57274"},{"id":"3314131009","district_id":"331413","name":"Gemolong","postal_code":"57274"},{"id":"3314131010","district_id":"331413","name":"Kwangen","postal_code":"57274"},{"id":"3314132001","district_id":"331413","name":"Kaloran","postal_code":"57274"},{"id":"3314132004","district_id":"331413","name":"Brangkal","postal_code":"57274"},{"id":"3314132005","district_id":"331413","name":"Jatibatur","postal_code":"57274"},{"id":"3314132006","district_id":"331413","name":"Peleman","postal_code":"57274"},{"id":"3314132007","district_id":"331413","name":"Genengduwur","postal_code":"57274"},{"id":"3314132008","district_id":"331413","name":"Tegaldowo","postal_code":"57274"},{"id":"3314132011","district_id":"331413","name":"Purworejo","postal_code":"57274"},{"id":"3314132012","district_id":"331413","name":"Jenalas","postal_code":"57274"},{"id":"3314132013","district_id":"331413","name":"Kalangan","postal_code":"57274"},{"id":"3314132014","district_id":"331413","name":"Nganti","postal_code":"57274"}]