[{"id":"3314122001","district_id":"331412","name":"Karangasem","postal_code":"57277"},{"id":"3314122002","district_id":"331412","name":"Slogo","postal_code":"57277"},{"id":"3314122003","district_id":"331412","name":"Jono","postal_code":"57277"},{"id":"3314122004","district_id":"331412","name":"Gawan","postal_code":"57277"},{"id":"3314122005","district_id":"331412","name":"Kecik","postal_code":"57277"},{"id":"3314122006","district_id":"331412","name":"Pengkol","postal_code":"57277"},{"id":"3314122007","district_id":"331412","name":"Suwatu","postal_code":"57277"},{"id":"3314122008","district_id":"331412","name":"Ketro","postal_code":"57277"},{"id":"3314122009","district_id":"331412","name":"Padas","postal_code":"57277"},{"id":"3314122010","district_id":"331412","name":"Tanon","postal_code":"57277"},{"id":"3314122011","district_id":"331412","name":"Gabugan","postal_code":"57277"},{"id":"3314122012","district_id":"331412","name":"Sambiduwur","postal_code":"57277"},{"id":"3314122013","district_id":"331412","name":"Karangtalun","postal_code":"57277"},{"id":"3314122014","district_id":"331412","name":"Bonagung","postal_code":"57277"},{"id":"3314122015","district_id":"331412","name":"Kalikobok","postal_code":"57277"},{"id":"3314122016","district_id":"331412","name":"Gading","postal_code":"57277"}]