[{"id":"3314012001","district_id":"331401","name":"Keden","postal_code":"57275"},{"id":"3314012002","district_id":"331401","name":"Trobayan","postal_code":"57275"},{"id":"3314012003","district_id":"331401","name":"Kalimacan","postal_code":"57275"},{"id":"3314012004","district_id":"331401","name":"Jetiskarangpung","postal_code":"57275"},{"id":"3314012005","district_id":"331401","name":"Krikilan","postal_code":"57275"},{"id":"3314012006","district_id":"331401","name":"Bukuran","postal_code":"57275"},{"id":"3314012007","district_id":"331401","name":"Ngebung","postal_code":"57275"},{"id":"3314012008","district_id":"331401","name":"Tegalombo","postal_code":"57275"},{"id":"3314012009","district_id":"331401","name":"Banaran","postal_code":"57275"},{"id":"3314012010","district_id":"331401","name":"Karangjati","postal_code":"57275"},{"id":"3314012011","district_id":"331401","name":"Saren","postal_code":"57275"},{"id":"3314012012","district_id":"331401","name":"Sambirembe","postal_code":"57275"},{"id":"3314012013","district_id":"331401","name":"Donoyudan","postal_code":"57275"},{"id":"3314012014","district_id":"331401","name":"Wonorejo","postal_code":"57275"}]