[{"id":"3314022001","district_id":"331402","name":"Karangwaru","postal_code":"57283"},{"id":"3314022002","district_id":"331402","name":"Ngrombo","postal_code":"57283"},{"id":"3314022003","district_id":"331402","name":"Sambirejo","postal_code":"57283"},{"id":"3314022004","district_id":"331402","name":"Somomorodukuh","postal_code":"57283"},{"id":"3314022005","district_id":"331402","name":"Cangkol","postal_code":"57283"},{"id":"3314022006","district_id":"331402","name":"Manyarejo","postal_code":"57283"},{"id":"3314022007","district_id":"331402","name":"Pungsari","postal_code":"57283"},{"id":"3314022008","district_id":"331402","name":"Jembangan","postal_code":"57283"},{"id":"3314022009","district_id":"331402","name":"Sidokerto","postal_code":"57283"},{"id":"3314022010","district_id":"331402","name":"Jabung","postal_code":"57283"},{"id":"3314022011","district_id":"331402","name":"Gedongan","postal_code":"57283"},{"id":"3314022012","district_id":"331402","name":"Plupuh","postal_code":"57283"},{"id":"3314022013","district_id":"331402","name":"Dari","postal_code":"57283"},{"id":"3314022014","district_id":"331402","name":"Karanganyar","postal_code":"57283"},{"id":"3314022015","district_id":"331402","name":"Karungan","postal_code":"57283"},{"id":"3314022016","district_id":"331402","name":"Gentanbanaran","postal_code":"57283"}]