[{"id":"3315182001","district_id":"331518","name":"Kebonagung","postal_code":"58165"},{"id":"3315182002","district_id":"331518","name":"Tlogorejo","postal_code":"58165"},{"id":"3315182003","district_id":"331518","name":"Medani","postal_code":"58165"},{"id":"3315182004","district_id":"331518","name":"Sukorejo","postal_code":"58165"},{"id":"3315182005","district_id":"331518","name":"Tanggirejo","postal_code":"58165"},{"id":"3315182006","district_id":"331518","name":"Mangunsari","postal_code":"58165"},{"id":"3315182007","district_id":"331518","name":"Gebangan","postal_code":"58165"},{"id":"3315182008","district_id":"331518","name":"Kejawan","postal_code":"58165"},{"id":"3315182009","district_id":"331518","name":"Tegowanuwetan ","postal_code":"58165"},{"id":"3315182010","district_id":"331518","name":"Tegowanukulon ","postal_code":"58165"},{"id":"3315182011","district_id":"331518","name":"Tajemsari","postal_code":"58165"},{"id":"3315182012","district_id":"331518","name":"Karangpasar","postal_code":"58165"},{"id":"3315182013","district_id":"331518","name":"Kedungwungu","postal_code":"58165"},{"id":"3315182014","district_id":"331518","name":"Pepe","postal_code":"58165"},{"id":"3315182015","district_id":"331518","name":"Curug","postal_code":"58165"},{"id":"3315182016","district_id":"331518","name":"Cangkring","postal_code":"58165"},{"id":"3315182017","district_id":"331518","name":"Gaji","postal_code":"58165"},{"id":"3315182018","district_id":"331518","name":"Tunjungharjo","postal_code":"58165"}]