[{"id":"3315092001","district_id":"331509","name":"Sendangrejo","postal_code":"58193"},{"id":"3315092002","district_id":"331509","name":"Sarirejo","postal_code":"58193"},{"id":"3315092003","district_id":"331509","name":"Kalangdosari","postal_code":"58193"},{"id":"3315092004","district_id":"331509","name":"Kalanglundo","postal_code":"58193"},{"id":"3315092005","district_id":"331509","name":"Truwolu","postal_code":"58193"},{"id":"3315092006","district_id":"331509","name":"Pendem","postal_code":"58193"},{"id":"3315092007","district_id":"331509","name":"Bandungsari","postal_code":"58193"},{"id":"3315092008","district_id":"331509","name":"Ngaringan","postal_code":"58193"},{"id":"3315092009","district_id":"331509","name":"Ngarap-arap ","postal_code":"58193"},{"id":"3315092010","district_id":"331509","name":"Belor","postal_code":"58193"},{"id":"3315092011","district_id":"331509","name":"Tanjungharjo","postal_code":"58193"},{"id":"3315092012","district_id":"331509","name":"Sumberagung","postal_code":"58193"}]