[{"id":"3318112001","district_id":"331811","name":"Wuwur","postal_code":"59173"},{"id":"3318112002","district_id":"331811","name":"Karaban","postal_code":"59173"},{"id":"3318112003","district_id":"331811","name":"Tlogoayu","postal_code":"59173"},{"id":"3318112004","district_id":"331811","name":"Bogotanjung","postal_code":"59173"},{"id":"3318112005","district_id":"331811","name":"Kuryokalangan ","postal_code":"59173"},{"id":"3318112006","district_id":"331811","name":"Gabus","postal_code":"59173"},{"id":"3318112007","district_id":"331811","name":"Tanjunganom","postal_code":"59173"},{"id":"3318112008","district_id":"331811","name":"Sunggingwarno","postal_code":"59173"},{"id":"3318112009","district_id":"331811","name":"Penanggungan","postal_code":"59173"},{"id":"3318112010","district_id":"331811","name":"Tambahmulyo","postal_code":"59173"},{"id":"3318112011","district_id":"331811","name":"Sugihrejo","postal_code":"59173"},{"id":"3318112012","district_id":"331811","name":"Mojolawaran","postal_code":"59173"},{"id":"3318112013","district_id":"331811","name":"Sambirejo","postal_code":"59173"},{"id":"3318112014","district_id":"331811","name":"Pantirejo","postal_code":"59173"},{"id":"3318112015","district_id":"331811","name":"Tanjang","postal_code":"59173"},{"id":"3318112016","district_id":"331811","name":"Gebang","postal_code":"59173"},{"id":"3318112017","district_id":"331811","name":"Plumbungan","postal_code":"59173"},{"id":"3318112018","district_id":"331811","name":"Babalan","postal_code":"59173"},{"id":"3318112019","district_id":"331811","name":"Koripandriyo","postal_code":"59173"},{"id":"3318112020","district_id":"331811","name":"Soko","postal_code":"59173"},{"id":"3318112021","district_id":"331811","name":"Gempolsari","postal_code":"59173"},{"id":"3318112022","district_id":"331811","name":"Banjarsari","postal_code":"59173"},{"id":"3318112023","district_id":"331811","name":"Mintobasuki","postal_code":"59173"},{"id":"3318112024","district_id":"331811","name":"Kosekan","postal_code":"59173"}]