[{"id":"3318212001","district_id":"331821","name":"Kajar","postal_code":"59153"},{"id":"3318212002","district_id":"331821","name":"Trangkil","postal_code":"59153"},{"id":"3318212003","district_id":"331821","name":"Pasucen","postal_code":"59153"},{"id":"3318212004","district_id":"331821","name":"Tegalharjo","postal_code":"59153"},{"id":"3318212005","district_id":"331821","name":"Mojoagung","postal_code":"59153"},{"id":"3318212006","district_id":"331821","name":"Ketanen","postal_code":"59153"},{"id":"3318212007","district_id":"331821","name":"Karanglegi","postal_code":"59153"},{"id":"3318212008","district_id":"331821","name":"Karangwage","postal_code":"59153"},{"id":"3318212009","district_id":"331821","name":"Kadilangu","postal_code":"59153"},{"id":"3318212010","district_id":"331821","name":"Tlutup","postal_code":"59153"},{"id":"3318212011","district_id":"331821","name":"Krandan","postal_code":"59153"},{"id":"3318212012","district_id":"331821","name":"Kertomulyo","postal_code":"59153"},{"id":"3318212013","district_id":"331821","name":"Rejoagung","postal_code":"59153"},{"id":"3318212014","district_id":"331821","name":"Guyangan","postal_code":"59153"},{"id":"3318212015","district_id":"331821","name":"Sambilawang","postal_code":"59153"},{"id":"3318212016","district_id":"331821","name":"Asempapan","postal_code":"59153"}]