[{"id":"3318142001","district_id":"331814","name":"Tamansari","postal_code":"59161"},{"id":"3318142002","district_id":"331814","name":"Sambirejo","postal_code":"59161"},{"id":"3318142003","district_id":"331814","name":"Tlogorejo","postal_code":"59161"},{"id":"3318142004","district_id":"331814","name":"Purwosari","postal_code":"59161"},{"id":"3318142005","district_id":"331814","name":"Regaloh","postal_code":"59161"},{"id":"3318142006","district_id":"331814","name":"Wonorejo","postal_code":"59161"},{"id":"3318142007","district_id":"331814","name":"Tlogosari","postal_code":"59161"},{"id":"3318142008","district_id":"331814","name":"Sumbermulyo","postal_code":"59161"},{"id":"3318142009","district_id":"331814","name":"Guwo","postal_code":"59161"},{"id":"3318142010","district_id":"331814","name":"Tanjungsari","postal_code":"59161"},{"id":"3318142011","district_id":"331814","name":"Lahar","postal_code":"59161"},{"id":"3318142012","district_id":"331814","name":"Suwatu","postal_code":"59161"},{"id":"3318142013","district_id":"331814","name":"Cabak","postal_code":"59161"},{"id":"3318142014","district_id":"331814","name":"Klumpit","postal_code":"59161"},{"id":"3318142015","district_id":"331814","name":"Gunungsari","postal_code":"59161"}]