[{"id":"3320022001","district_id":"332002","name":"Kaliombo","postal_code":"59460"},{"id":"3320022002","district_id":"332002","name":"Karangrandu","postal_code":"59460"},{"id":"3320022003","district_id":"332002","name":"Gerdu","postal_code":"59460"},{"id":"3320022004","district_id":"332002","name":"Pecangaan Kulon","postal_code":"59460"},{"id":"3320022005","district_id":"332002","name":"Rengging","postal_code":"59460"},{"id":"3320022006","district_id":"332002","name":"Troso","postal_code":"59460"},{"id":"3320022007","district_id":"332002","name":"Ngeling","postal_code":"59460"},{"id":"3320022008","district_id":"332002","name":"Pulodarat","postal_code":"59460"},{"id":"3320022009","district_id":"332002","name":"Lebuawu","postal_code":"59460"},{"id":"3320022010","district_id":"332002","name":"Gemulung","postal_code":"59460"},{"id":"3320022011","district_id":"332002","name":"Pecangaan Wetan","postal_code":"59460"},{"id":"3320022012","district_id":"332002","name":"Krasak","postal_code":"59460"}]