[{"id":"3321092001","district_id":"332109","name":"Jatirejo","postal_code":"59582"},{"id":"3321092002","district_id":"332109","name":"Ngaluran","postal_code":"59582"},{"id":"3321092003","district_id":"332109","name":"Wonoketingal","postal_code":"59582"},{"id":"3321092004","district_id":"332109","name":"Cangkringrembang","postal_code":"59582"},{"id":"3321092005","district_id":"332109","name":"Cangkring","postal_code":"59582"},{"id":"3321092006","district_id":"332109","name":"Tuwang","postal_code":"59582"},{"id":"3321092007","district_id":"332109","name":"Undaan Kidul","postal_code":"59582"},{"id":"3321092008","district_id":"332109","name":"Undaan Lor","postal_code":"59582"},{"id":"3321092009","district_id":"332109","name":"Ketanjung","postal_code":"59582"},{"id":"3321092010","district_id":"332109","name":"Ngemplikwetan","postal_code":"59582"},{"id":"3321092011","district_id":"332109","name":"Wonorejo","postal_code":"59582"},{"id":"3321092012","district_id":"332109","name":"Karanganyar","postal_code":"59582"},{"id":"3321092013","district_id":"332109","name":"Kedungwaru Kidul","postal_code":"59582"},{"id":"3321092014","district_id":"332109","name":"Kedungwaru Lor","postal_code":"59582"},{"id":"3321092015","district_id":"332109","name":"Bandungrejo","postal_code":"59582"},{"id":"3321092016","district_id":"332109","name":"Tugu Lor","postal_code":"59582"},{"id":"3321092017","district_id":"332109","name":"Kotakan","postal_code":"59582"}]