[{"id":"3323172001","district_id":"332317","name":"Kledung","postal_code":"56264"},{"id":"3323172002","district_id":"332317","name":"Kalirejo","postal_code":"56264"},{"id":"3323172003","district_id":"332317","name":"Paponan","postal_code":"56264"},{"id":"3323172004","district_id":"332317","name":"Jeketro","postal_code":"56264"},{"id":"3323172005","district_id":"332317","name":"Kwadungan Gunung","postal_code":"56264"},{"id":"3323172006","district_id":"332317","name":"Kwadungan Jurang","postal_code":"56264"},{"id":"3323172007","district_id":"332317","name":"Tlahab","postal_code":"56264"},{"id":"3323172008","district_id":"332317","name":"Petarangan","postal_code":"56264"},{"id":"3323172009","district_id":"332317","name":"Canggal","postal_code":"56264"},{"id":"3323172010","district_id":"332317","name":"Jambu","postal_code":"56264"},{"id":"3323172011","district_id":"332317","name":"Kruwisan","postal_code":"56264"},{"id":"3323172012","district_id":"332317","name":"Batursari","postal_code":"56264"},{"id":"3323172013","district_id":"332317","name":"Tuksari","postal_code":"56264"}]