[{"id":"3323131001","district_id":"332313","name":"Kranggan","postal_code":"56271"},{"id":"3323132002","district_id":"332313","name":"Badran","postal_code":"56271"},{"id":"3323132003","district_id":"332313","name":"Bengkal","postal_code":"56271"},{"id":"3323132004","district_id":"332313","name":"Pare","postal_code":"56271"},{"id":"3323132005","district_id":"332313","name":"Nguwet","postal_code":"56271"},{"id":"3323132006","district_id":"332313","name":"Ngropoh","postal_code":"56271"},{"id":"3323132007","district_id":"332313","name":"Pendowo","postal_code":"56271"},{"id":"3323132008","district_id":"332313","name":"Sanggrahan","postal_code":"56271"},{"id":"3323132009","district_id":"332313","name":"Klepu","postal_code":"56271"},{"id":"3323132010","district_id":"332313","name":"Kemloko","postal_code":"56271"},{"id":"3323132011","district_id":"332313","name":"Gentan","postal_code":"56271"},{"id":"3323132012","district_id":"332313","name":"Kramat","postal_code":"56271"},{"id":"3323132013","district_id":"332313","name":"Purwosari","postal_code":"56271"}]