[{"id":"3324192001","district_id":"332419","name":"Dempelrejo","postal_code":"51357"},{"id":"3324192002","district_id":"332419","name":"Putatgede","postal_code":"51357"},{"id":"3324192003","district_id":"332419","name":"Jatirejo","postal_code":"51357"},{"id":"3324192004","district_id":"332419","name":"Winong","postal_code":"51357"},{"id":"3324192005","district_id":"332419","name":"Rejosari","postal_code":"51357"},{"id":"3324192006","district_id":"332419","name":"Sumbersari","postal_code":"51357"},{"id":"3324192007","district_id":"332419","name":"Bojong Gede","postal_code":"51357"},{"id":"3324192008","district_id":"332419","name":"Kebonagung","postal_code":"51357"},{"id":"3324192009","district_id":"332419","name":"Ngampel Kulon","postal_code":"51357"},{"id":"3324192010","district_id":"332419","name":"Ngampel Wetan","postal_code":"51357"},{"id":"3324192011","district_id":"332419","name":"Sudipayung","postal_code":"51357"},{"id":"3324192012","district_id":"332419","name":"Banyuurip","postal_code":"51357"}]