[{"id":"3324012001","district_id":"332401","name":"Blumah","postal_code":"51362"},{"id":"3324012002","district_id":"332401","name":"Kediten","postal_code":"51362"},{"id":"3324012003","district_id":"332401","name":"Tlogopayung","postal_code":"51362"},{"id":"3324012004","district_id":"332401","name":"Wonodadi","postal_code":"51362"},{"id":"3324012005","district_id":"332401","name":"Manggungmangu","postal_code":"51362"},{"id":"3324012006","district_id":"332401","name":"Tirtomulyo","postal_code":"51362"},{"id":"3324012007","district_id":"332401","name":"Karanganyar","postal_code":"51362"},{"id":"3324012008","district_id":"332401","name":"Jurangagung","postal_code":"51362"},{"id":"3324012009","district_id":"332401","name":"Jati","postal_code":"51362"},{"id":"3324012010","district_id":"332401","name":"Wadas","postal_code":"51362"},{"id":"3324012011","district_id":"332401","name":"Bendosari","postal_code":"51362"},{"id":"3324012012","district_id":"332401","name":"Mojoagung","postal_code":"51362"}]