[{"id":"3324102001","district_id":"332410","name":"Margomulyo","postal_code":"51358"},{"id":"3324102002","district_id":"332410","name":"Tegorejo","postal_code":"51358"},{"id":"3324102003","district_id":"332410","name":"Pesawahan","postal_code":"51358"},{"id":"3324102004","district_id":"332410","name":"Pekuncen","postal_code":"51358"},{"id":"3324102005","district_id":"332410","name":"Puguh","postal_code":"51358"},{"id":"3324102006","district_id":"332410","name":"Dawungsari","postal_code":"51358"},{"id":"3324102007","district_id":"332410","name":"Pucangrejo","postal_code":"51358"},{"id":"3324102008","district_id":"332410","name":"Gubugsari","postal_code":"51358"},{"id":"3324102009","district_id":"332410","name":"Pegandon","postal_code":"51358"},{"id":"3324102010","district_id":"332410","name":"Penanggulan","postal_code":"51358"},{"id":"3324102011","district_id":"332410","name":"Wonosari","postal_code":"51358"},{"id":"3324102012","district_id":"332410","name":"Karangmulyo","postal_code":"51358"}]