[{"id":"3324042001","district_id":"332404","name":"Pakisan","postal_code":"51364"},{"id":"3324042002","district_id":"332404","name":"Plososari","postal_code":"51364"},{"id":"3324042003","district_id":"332404","name":"Mlatiharjo","postal_code":"51364"},{"id":"3324042004","district_id":"332404","name":"Wirosari","postal_code":"51364"},{"id":"3324042005","district_id":"332404","name":"Pagersari","postal_code":"51364"},{"id":"3324042006","district_id":"332404","name":"Selo","postal_code":"51364"},{"id":"3324042007","district_id":"332404","name":"Curugsewu","postal_code":"51364"},{"id":"3324042008","district_id":"332404","name":"Gedong","postal_code":"51364"},{"id":"3324042009","district_id":"332404","name":"Sukomangli","postal_code":"51364"},{"id":"3324042010","district_id":"332404","name":"Kalibareng","postal_code":"51364"},{"id":"3324042011","district_id":"332404","name":"Kalilumpang","postal_code":"51364"},{"id":"3324042012","district_id":"332404","name":"Kalices","postal_code":"51364"},{"id":"3324042013","district_id":"332404","name":"Sidokumpul","postal_code":"51364"},{"id":"3324042014","district_id":"332404","name":"Sidodadi","postal_code":"51364"}]