[{"id":"3324092001","district_id":"332409","name":"Tunggulsari","postal_code":"51371"},{"id":"3324092002","district_id":"332409","name":"Sumur","postal_code":"51371"},{"id":"3324092003","district_id":"332409","name":"Blorok","postal_code":"51371"},{"id":"3324092004","district_id":"332409","name":"Penjalin","postal_code":"51371"},{"id":"3324092005","district_id":"332409","name":"Kertomulyo","postal_code":"51371"},{"id":"3324092006","district_id":"332409","name":"Sidorejo","postal_code":"51371"},{"id":"3324092007","district_id":"332409","name":"Tosari","postal_code":"51371"},{"id":"3324092008","district_id":"332409","name":"Rejosari","postal_code":"51371"},{"id":"3324092009","district_id":"332409","name":"Turunrejo","postal_code":"51371"},{"id":"3324092010","district_id":"332409","name":"Purwokerto","postal_code":"51371"},{"id":"3324092011","district_id":"332409","name":"Brangsong","postal_code":"51371"},{"id":"3324092012","district_id":"332409","name":"Kebonadem ","postal_code":"51371"}]