[{"id":"3325082001","district_id":"332508","name":"Ngaliyan","postal_code":"51271"},{"id":"3325082002","district_id":"332508","name":"Sukorejo","postal_code":"51271"},{"id":"3325082003","district_id":"332508","name":"Tembok","postal_code":"51271"},{"id":"3325082004","district_id":"332508","name":"Donorejo","postal_code":"51271"},{"id":"3325082005","district_id":"332508","name":"Sidomulyo","postal_code":"51271"},{"id":"3325082006","district_id":"332508","name":"Kalisalak","postal_code":"51271"},{"id":"3325082007","district_id":"332508","name":"Limpung","postal_code":"51271"},{"id":"3325082008","district_id":"332508","name":"Kepuh","postal_code":"51271"},{"id":"3325082009","district_id":"332508","name":"Sempu","postal_code":"51271"},{"id":"3325082010","district_id":"332508","name":"Babadan","postal_code":"51271"},{"id":"3325082011","district_id":"332508","name":"Plumbon","postal_code":"51271"},{"id":"3325082012","district_id":"332508","name":"Amongrogo","postal_code":"51271"},{"id":"3325082013","district_id":"332508","name":"Dlisen","postal_code":"51271"},{"id":"3325082015","district_id":"332508","name":"Rowosari","postal_code":"51271"},{"id":"3325082016","district_id":"332508","name":"Pungangan","postal_code":"51271"},{"id":"3325082023","district_id":"332508","name":"Lobang","postal_code":"51271"},{"id":"3325082024","district_id":"332508","name":"Wonokerso","postal_code":"51271"}]