[{"id":"3326022001","district_id":"332602","name":"Werdi","postal_code":"51164"},{"id":"3326022002","district_id":"332602","name":"Winduaji","postal_code":"51164"},{"id":"3326022003","district_id":"332602","name":"Krandegan","postal_code":"51164"},{"id":"3326022004","district_id":"332602","name":"Lumeneng","postal_code":"51164"},{"id":"3326022005","district_id":"332602","name":"Tangeran","postal_code":"51164"},{"id":"3326022006","district_id":"332602","name":"Kaliboja","postal_code":"51164"},{"id":"3326022007","district_id":"332602","name":"Kaliombo","postal_code":"51164"},{"id":"3326022008","district_id":"332602","name":"Botosari","postal_code":"51164"},{"id":"3326022009","district_id":"332602","name":"Sawangan","postal_code":"51164"},{"id":"3326022010","district_id":"332602","name":"Paninggaran","postal_code":"51164"},{"id":"3326022011","district_id":"332602","name":"Domiyang","postal_code":"51164"},{"id":"3326022012","district_id":"332602","name":"Notogiwang","postal_code":"51164"},{"id":"3326022013","district_id":"332602","name":"Lambanggelun","postal_code":"51164"},{"id":"3326022014","district_id":"332602","name":"Tenogo","postal_code":"51164"},{"id":"3326022015","district_id":"332602","name":"Bedagung","postal_code":"51164"}]