[{"id":"3326092001","district_id":"332609","name":"Windurojo","postal_code":"51162"},{"id":"3326092002","district_id":"332609","name":"Ujungnegoro","postal_code":"51162"},{"id":"3326092003","district_id":"332609","name":"Brondong","postal_code":"51162"},{"id":"3326092004","district_id":"332609","name":"Podosari","postal_code":"51162"},{"id":"3326092005","district_id":"332609","name":"Langensari","postal_code":"51162"},{"id":"3326092006","district_id":"332609","name":"Jagung","postal_code":"51162"},{"id":"3326092007","district_id":"332609","name":"Kwasen","postal_code":"51162"},{"id":"3326092008","district_id":"332609","name":"Karyomukti","postal_code":"51162"},{"id":"3326092009","district_id":"332609","name":"Kesesi","postal_code":"51162"},{"id":"3326092010","district_id":"332609","name":"Srinahan","postal_code":"51162"},{"id":"3326092011","district_id":"332609","name":"Kaibahan","postal_code":"51162"},{"id":"3326092012","district_id":"332609","name":"Karangrejo","postal_code":"51162"},{"id":"3326092013","district_id":"332609","name":"Watugajah","postal_code":"51162"},{"id":"3326092014","district_id":"332609","name":"Watupayung","postal_code":"51162"},{"id":"3326092015","district_id":"332609","name":"Krandon","postal_code":"51162"},{"id":"3326092016","district_id":"332609","name":"Ponolawen","postal_code":"51162"},{"id":"3326092017","district_id":"332609","name":"Kalimade","postal_code":"51162"},{"id":"3326092018","district_id":"332609","name":"Sidomulyo","postal_code":"51162"},{"id":"3326092019","district_id":"332609","name":"Sidosari","postal_code":"51162"},{"id":"3326092020","district_id":"332609","name":"Mulyorejo","postal_code":"51162"},{"id":"3326092021","district_id":"332609","name":"Pantirejo","postal_code":"51162"},{"id":"3326092022","district_id":"332609","name":"Kwigaran","postal_code":"51162"},{"id":"3326092023","district_id":"332609","name":"Sukorejo","postal_code":"51162"}]