[{"id":"3326101017","district_id":"332610","name":"Sragi","postal_code":"51155"},{"id":"3326102001","district_id":"332610","name":"Ketanonageng ","postal_code":"51155"},{"id":"3326102002","district_id":"332610","name":"Mrican","postal_code":"51155"},{"id":"3326102003","district_id":"332610","name":"Bulaksari","postal_code":"51155"},{"id":"3326102004","district_id":"332610","name":"Sumubkidul ","postal_code":"51155"},{"id":"3326102005","district_id":"332610","name":"Kalijambe","postal_code":"51155"},{"id":"3326102006","district_id":"332610","name":"Sumublor ","postal_code":"51155"},{"id":"3326102007","district_id":"332610","name":"Krsakageng ","postal_code":"51155"},{"id":"3326102008","district_id":"332610","name":"Sijeruk","postal_code":"51155"},{"id":"3326102009","district_id":"332610","name":"Tegalsuruh ","postal_code":"51155"},{"id":"3326102010","district_id":"332610","name":"Bulakpelem ","postal_code":"51155"},{"id":"3326102011","district_id":"332610","name":"Gebangkerep","postal_code":"51155"},{"id":"3326102012","district_id":"332610","name":"Porworejo ","postal_code":"51155"},{"id":"3326102013","district_id":"332610","name":"Kedungjaran","postal_code":"51155"},{"id":"3326102014","district_id":"332610","name":"Klunjukan","postal_code":"51155"},{"id":"3326102015","district_id":"332610","name":"Tegalontar","postal_code":"51155"},{"id":"3326102016","district_id":"332610","name":"Purwodadi","postal_code":"51155"}]