[{"id":"3327062001","district_id":"332706","name":"Sumurkidang","postal_code":"52352"},{"id":"3327062002","district_id":"332706","name":"Wanarata","postal_code":"52352"},{"id":"3327062003","district_id":"332706","name":"Pedagung","postal_code":"52352"},{"id":"3327062004","district_id":"332706","name":"Suru","postal_code":"52352"},{"id":"3327062005","district_id":"332706","name":"Banjarsari","postal_code":"52352"},{"id":"3327062006","district_id":"332706","name":"Pegiringan","postal_code":"52352"},{"id":"3327062007","district_id":"332706","name":"Karanganyar","postal_code":"52352"},{"id":"3327062008","district_id":"332706","name":"Purana","postal_code":"52352"},{"id":"3327062009","district_id":"332706","name":"Pabuaran","postal_code":"52352"},{"id":"3327062010","district_id":"332706","name":"Sarwodadi","postal_code":"52352"},{"id":"3327062011","district_id":"332706","name":"Bantarbolang","postal_code":"52352"},{"id":"3327062012","district_id":"332706","name":"Sambeng","postal_code":"52352"},{"id":"3327062013","district_id":"332706","name":"Glandang","postal_code":"52352"},{"id":"3327062014","district_id":"332706","name":"Kuta","postal_code":"52352"},{"id":"3327062015","district_id":"332706","name":"Kebon Gede","postal_code":"52352"},{"id":"3327062016","district_id":"332706","name":"Paguyangan","postal_code":"52352"},{"id":"3327062017","district_id":"332706","name":"Lenggerong","postal_code":"52352"}]