[{"id":"3328062001","district_id":"332806","name":"Timbangreja","postal_code":"52461"},{"id":"3328062002","district_id":"332806","name":"Lebaksiu Kidul","postal_code":"52461"},{"id":"3328062003","district_id":"332806","name":"Lebaksiu Lor","postal_code":"52461"},{"id":"3328062004","district_id":"332806","name":"Kajen","postal_code":"52461"},{"id":"3328062005","district_id":"332806","name":"Yamansari","postal_code":"52461"},{"id":"3328062006","district_id":"332806","name":"Kesuben","postal_code":"52461"},{"id":"3328062007","district_id":"332806","name":"Balaradin","postal_code":"52461"},{"id":"3328062008","district_id":"332806","name":"Lebakgowah","postal_code":"52461"},{"id":"3328062009","district_id":"332806","name":"Dukuhlo","postal_code":"52461"},{"id":"3328062010","district_id":"332806","name":"Pendawa","postal_code":"52461"},{"id":"3328062011","district_id":"332806","name":"Jatimulya","postal_code":"52461"},{"id":"3328062012","district_id":"332806","name":"Kambangan","postal_code":"52461"},{"id":"3328062013","district_id":"332806","name":"Slarangkidul","postal_code":"52461"},{"id":"3328062014","district_id":"332806","name":"Tegalandong","postal_code":"52461"},{"id":"3328062015","district_id":"332806","name":"Dukuhdamu","postal_code":"52461"}]