[{"id":"3328142001","district_id":"332814","name":"Jatirawa","postal_code":"52184"},{"id":"3328142002","district_id":"332814","name":"Kabukan","postal_code":"52184"},{"id":"3328142003","district_id":"332814","name":"Setu","postal_code":"52184"},{"id":"3328142004","district_id":"332814","name":"Purbasana","postal_code":"52184"},{"id":"3328142005","district_id":"332814","name":"Kemanggungan","postal_code":"52184"},{"id":"3328142006","district_id":"332814","name":"Karangmangu","postal_code":"52184"},{"id":"3328142007","district_id":"332814","name":"Lebeteng","postal_code":"52184"},{"id":"3328142008","district_id":"332814","name":"Brekat","postal_code":"52184"},{"id":"3328142009","district_id":"332814","name":"Karangjati","postal_code":"52184"},{"id":"3328142010","district_id":"332814","name":"Bulakwaru","postal_code":"52184"},{"id":"3328142011","district_id":"332814","name":"Mindaka","postal_code":"52184"},{"id":"3328142012","district_id":"332814","name":"Tarub","postal_code":"52184"},{"id":"3328142013","district_id":"332814","name":"Kedungbungkus ","postal_code":"52184"},{"id":"3328142014","district_id":"332814","name":"Kedokansayang ","postal_code":"52184"},{"id":"3328142015","district_id":"332814","name":"Bumiharja","postal_code":"52184"},{"id":"3328142016","district_id":"332814","name":"Kalijambe","postal_code":"52184"},{"id":"3328142017","district_id":"332814","name":"Margapadang","postal_code":"52184"},{"id":"3328142018","district_id":"332814","name":"Kesamiran","postal_code":"52184"},{"id":"3328142019","district_id":"332814","name":"Kesadikan","postal_code":"52184"},{"id":"3328142020","district_id":"332814","name":"Mangunsaren","postal_code":"52184"}]