[{"id":"3328012001","district_id":"332801","name":"Prupuk Selatan","postal_code":"52463"},{"id":"3328012002","district_id":"332801","name":"Kaligayam","postal_code":"52463"},{"id":"3328012003","district_id":"332801","name":"Dukuh Tengah","postal_code":"52463"},{"id":"3328012004","district_id":"332801","name":"Wanasari","postal_code":"52463"},{"id":"3328012005","district_id":"332801","name":"Danaraja","postal_code":"52463"},{"id":"3328012006","district_id":"332801","name":"Jembayat","postal_code":"52463"},{"id":"3328012007","district_id":"332801","name":"Margasari","postal_code":"52463"},{"id":"3328012008","district_id":"332801","name":"Pakulaut","postal_code":"52463"},{"id":"3328012009","district_id":"332801","name":"Karangdawa","postal_code":"52463"},{"id":"3328012010","district_id":"332801","name":"Kalisalak","postal_code":"52463"},{"id":"3328012011","district_id":"332801","name":"Jatilaba","postal_code":"52463"},{"id":"3328012012","district_id":"332801","name":"Prupuk Utara","postal_code":"52463"},{"id":"3328012013","district_id":"332801","name":"Marga Ayu","postal_code":"52463"}]