[{"id":"3374121001","district_id":"337412","name":"Pakintelan","postal_code":"50227"},{"id":"3374121002","district_id":"337412","name":"Mangunsari","postal_code":"50227"},{"id":"3374121003","district_id":"337412","name":"Plalangan","postal_code":"50225"},{"id":"3374121004","district_id":"337412","name":"Gunungpati ","postal_code":"50229"},{"id":"3374121005","district_id":"337412","name":"Nongkosawit","postal_code":"50224"},{"id":"3374121006","district_id":"337412","name":"Pongangan ","postal_code":"50229"},{"id":"3374121007","district_id":"337412","name":"Ngijo","postal_code":"50228"},{"id":"3374121008","district_id":"337412","name":"Patemon","postal_code":"50228"},{"id":"3374121009","district_id":"337412","name":"Sekaran","postal_code":"50229"},{"id":"3374121010","district_id":"337412","name":"Sukorejo","postal_code":"50221"},{"id":"3374121011","district_id":"337412","name":"Sadeng","postal_code":"50222"},{"id":"3374121012","district_id":"337412","name":"Cepoko","postal_code":"50223"},{"id":"3374121013","district_id":"337412","name":"Jatirejo","postal_code":"50223"},{"id":"3374121014","district_id":"337412","name":"Sumurrejo ","postal_code":"50226"},{"id":"3374121015","district_id":"337412","name":"Kalisegoro","postal_code":"50229"},{"id":"3374121016","district_id":"337412","name":"Kandri","postal_code":"50222"}]