[{"id":"3501032001","district_id":"350103","name":"Bomo","postal_code":"63553"},{"id":"3501032002","district_id":"350103","name":"Sooka","postal_code":"63553"},{"id":"3501032003","district_id":"350103","name":"Punung","postal_code":"63553"},{"id":"3501032004","district_id":"350103","name":"Mendolo Kidul","postal_code":"63553"},{"id":"3501032005","district_id":"350103","name":"Piton","postal_code":"63553"},{"id":"3501032006","district_id":"350103","name":"Kendal","postal_code":"63553"},{"id":"3501032007","district_id":"350103","name":"Wareng","postal_code":"63553"},{"id":"3501032008","district_id":"350103","name":"Mantren","postal_code":"63553"},{"id":"3501032009","district_id":"350103","name":"Mendolo Lor","postal_code":"63553"},{"id":"3501032010","district_id":"350103","name":"Ploso","postal_code":"63553"},{"id":"3501032011","district_id":"350103","name":"Gondosari","postal_code":"63553"},{"id":"3501032012","district_id":"350103","name":"Kebonsari","postal_code":"63553"},{"id":"3501032013","district_id":"350103","name":"Tinatar","postal_code":"63553"}]