[{"id":"3502082001","district_id":"350208","name":"Tugu ","postal_code":"63472"},{"id":"3502082002","district_id":"350208","name":"Candi","postal_code":"63472"},{"id":"3502082003","district_id":"350208","name":"Totokan","postal_code":"63472"},{"id":"3502082004","district_id":"350208","name":"Ngrukem ","postal_code":"63472"},{"id":"3502082005","district_id":"350208","name":"Siwalan","postal_code":"63472"},{"id":"3502082006","district_id":"350208","name":"Joresan","postal_code":"63472"},{"id":"3502082007","district_id":"350208","name":"Nglumpang","postal_code":"63472"},{"id":"3502082008","district_id":"350208","name":"Gontor","postal_code":"63472"},{"id":"3502082009","district_id":"350208","name":"Gandu","postal_code":"63472"},{"id":"3502082010","district_id":"350208","name":"Jabung","postal_code":"63472"},{"id":"3502082011","district_id":"350208","name":"Bajang","postal_code":"63472"},{"id":"3502082012","district_id":"350208","name":"Mlarak","postal_code":"63472"},{"id":"3502082013","district_id":"350208","name":"Serangan","postal_code":"63472"},{"id":"3502082014","district_id":"350208","name":"Suren","postal_code":"63472"},{"id":"3502082015","district_id":"350208","name":"Kaponan","postal_code":"63472"}]