[{"id":"3502181001","district_id":"350218","name":"Setono","postal_code":"63492"},{"id":"3502181002","district_id":"350218","name":"Singosaren","postal_code":"63492"},{"id":"3502182003","district_id":"350218","name":"Mrican","postal_code":"63492"},{"id":"3502182004","district_id":"350218","name":"Plalangan","postal_code":"63492"},{"id":"3502182005","district_id":"350218","name":"Nglayang","postal_code":"63492"},{"id":"3502182006","district_id":"350218","name":"Jenangan","postal_code":"63492"},{"id":"3502182007","district_id":"350218","name":"Jimbe","postal_code":"63492"},{"id":"3502182008","district_id":"350218","name":"Ngrupit","postal_code":"63492"},{"id":"3502182009","district_id":"350218","name":"Pintu","postal_code":"63492"},{"id":"3502182010","district_id":"350218","name":"Sedah","postal_code":"63492"},{"id":"3502182011","district_id":"350218","name":"Panjeng","postal_code":"63492"},{"id":"3502182012","district_id":"350218","name":"Sraten","postal_code":"63492"},{"id":"3502182013","district_id":"350218","name":"Semanding","postal_code":"63492"},{"id":"3502182014","district_id":"350218","name":"Tanjungsari ","postal_code":"63492"},{"id":"3502182015","district_id":"350218","name":"Paringan","postal_code":"63492"},{"id":"3502182016","district_id":"350218","name":"Wates","postal_code":"63492"},{"id":"3502182017","district_id":"350218","name":"Kemiri","postal_code":"63492"}]