[{"id":"3504132001","district_id":"350413","name":"Tenggur","postal_code":"66293"},{"id":"3504132002","district_id":"350413","name":"Panjerejo","postal_code":"66293"},{"id":"3504132003","district_id":"350413","name":"Karangsari","postal_code":"66293"},{"id":"3504132004","district_id":"350413","name":"Tugu","postal_code":"66293"},{"id":"3504132005","district_id":"350413","name":"Sukorejo Wetan","postal_code":"66293"},{"id":"3504132006","district_id":"350413","name":"Jatidowo","postal_code":"66293"},{"id":"3504132007","district_id":"350413","name":"Banjarejo","postal_code":"66293"},{"id":"3504132008","district_id":"350413","name":"Tanen","postal_code":"66293"},{"id":"3504132009","district_id":"350413","name":"Sumberagung","postal_code":"66293"},{"id":"3504132010","district_id":"350413","name":"Blimbing","postal_code":"66293"},{"id":"3504132011","district_id":"350413","name":"Rejotangan","postal_code":"66293"},{"id":"3504132012","district_id":"350413","name":"Pakisrejo","postal_code":"66293"},{"id":"3504132013","district_id":"350413","name":"Tegalrejo","postal_code":"66293"},{"id":"3504132014","district_id":"350413","name":"Ariyojeding","postal_code":"66293"},{"id":"3504132015","district_id":"350413","name":"Tenggong","postal_code":"66293"},{"id":"3504132016","district_id":"350413","name":"Buntaran","postal_code":"66293"}]