[{"id":"3504172001","district_id":"350417","name":"Nglampir","postal_code":"66274"},{"id":"3504172002","district_id":"350417","name":"Talun Kulon","postal_code":"66274"},{"id":"3504172003","district_id":"350417","name":"Bantengan","postal_code":"66274"},{"id":"3504172004","district_id":"350417","name":"Kedungwilut","postal_code":"66274"},{"id":"3504172005","district_id":"350417","name":"Suwaru","postal_code":"66274"},{"id":"3504172006","district_id":"350417","name":"Ngunggahan","postal_code":"66274"},{"id":"3504172007","district_id":"350417","name":"Suruhan Kidul","postal_code":"66274"},{"id":"3504172008","district_id":"350417","name":"Bandung","postal_code":"66274"},{"id":"3504172009","district_id":"350417","name":"Mergayu","postal_code":"66274"},{"id":"3504172010","district_id":"350417","name":"Sebalor","postal_code":"66274"},{"id":"3504172011","district_id":"350417","name":"Sukoharjo","postal_code":"66274"},{"id":"3504172012","district_id":"350417","name":"Soko","postal_code":"66274"},{"id":"3504172013","district_id":"350417","name":"Singgit","postal_code":"66274"},{"id":"3504172014","district_id":"350417","name":"Ngepeh","postal_code":"66274"},{"id":"3504172015","district_id":"350417","name":"Suruhan Lor","postal_code":"66274"},{"id":"3504172016","district_id":"350417","name":"Bulus","postal_code":"66274"},{"id":"3504172017","district_id":"350417","name":"Kesambi","postal_code":"66274"},{"id":"3504172018","district_id":"350417","name":"Gandong","postal_code":"66274"}]