[{"id":"3504082001","district_id":"350408","name":"Bungur","postal_code":"66253"},{"id":"3504082002","district_id":"350408","name":"Babadan","postal_code":"66253"},{"id":"3504082003","district_id":"350408","name":"Sukowiyono","postal_code":"66253"},{"id":"3504082004","district_id":"350408","name":"Sembon","postal_code":"66253"},{"id":"3504082005","district_id":"350408","name":"Sukowidodo","postal_code":"66253"},{"id":"3504082006","district_id":"350408","name":"Tanjungsari","postal_code":"66253"},{"id":"3504082007","district_id":"350408","name":"Gedangan","postal_code":"66253"},{"id":"3504082008","district_id":"350408","name":"Sukodono","postal_code":"66253"},{"id":"3504082009","district_id":"350408","name":"Karangrejo","postal_code":"66253"},{"id":"3504082010","district_id":"350408","name":"Sukorejo","postal_code":"66253"},{"id":"3504082011","district_id":"350408","name":"Punjul","postal_code":"66253"},{"id":"3504082012","district_id":"350408","name":"Jeli","postal_code":"66253"},{"id":"3504082013","district_id":"350408","name":"Tulungrejo","postal_code":"66253"}]