[{"id":"3507162001","district_id":"350716","name":"Ngingit","postal_code":"65156"},{"id":"3507162002","district_id":"350716","name":"Kidal","postal_code":"65156"},{"id":"3507162003","district_id":"350716","name":"Kambingan","postal_code":"65156"},{"id":"3507162004","district_id":"350716","name":"Pandanajeng","postal_code":"65156"},{"id":"3507162005","district_id":"350716","name":"Pulungdowo","postal_code":"65156"},{"id":"3507162006","district_id":"350716","name":"Bokor","postal_code":"65156"},{"id":"3507162007","district_id":"350716","name":"Slamet","postal_code":"65156"},{"id":"3507162008","district_id":"350716","name":"Wringinsongo","postal_code":"65156"},{"id":"3507162009","district_id":"350716","name":"Jeru","postal_code":"65156"},{"id":"3507162010","district_id":"350716","name":"Malangsuko","postal_code":"65156"},{"id":"3507162011","district_id":"350716","name":"Tumpang","postal_code":"65156"},{"id":"3507162012","district_id":"350716","name":"Tulusbesar","postal_code":"65156"},{"id":"3507162013","district_id":"350716","name":"Duwet","postal_code":"65156"},{"id":"3507162014","district_id":"350716","name":"Benjor","postal_code":"65156"},{"id":"3507162015","district_id":"350716","name":"Duwet Kerajan","postal_code":"65156"}]