[{"id":"3507192001","district_id":"350719","name":"Permanu","postal_code":"65162"},{"id":"3507192002","district_id":"350719","name":"Karangpandan","postal_code":"65162"},{"id":"3507192003","district_id":"350719","name":"Gelanggang ","postal_code":"65162"},{"id":"3507192004","district_id":"350719","name":"Wonokerso","postal_code":"65162"},{"id":"3507192005","district_id":"350719","name":"Karangduren","postal_code":"65162"},{"id":"3507192006","district_id":"350719","name":"Sutojayan","postal_code":"65162"},{"id":"3507192007","district_id":"350719","name":"Pakisaji","postal_code":"65162"},{"id":"3507192008","district_id":"350719","name":"Jatisari","postal_code":"65162"},{"id":"3507192009","district_id":"350719","name":"Wadung","postal_code":"65162"},{"id":"3507192010","district_id":"350719","name":"Genengan","postal_code":"65162"},{"id":"3507192011","district_id":"350719","name":"Kendalpayak","postal_code":"65162"},{"id":"3507192012","district_id":"350719","name":"Kebonagung","postal_code":"65162"}]