[{"id":"3511012001","district_id":"351101","name":"Sucolor","postal_code":"68262"},{"id":"3511012002","district_id":"351101","name":"Pujer Baru","postal_code":"68262"},{"id":"3511012003","district_id":"351101","name":"Tanahwulan","postal_code":"68262"},{"id":"3511012004","district_id":"351101","name":"Maesan","postal_code":"68262"},{"id":"3511012005","district_id":"351101","name":"Gambangan","postal_code":"68262"},{"id":"3511012006","district_id":"351101","name":"Suger Lor","postal_code":"68262"},{"id":"3511012007","district_id":"351101","name":"Sumber Pakem","postal_code":"68262"},{"id":"3511012008","district_id":"351101","name":"Sumbersari","postal_code":"68262"},{"id":"3511012009","district_id":"351101","name":"Sumber Anyar","postal_code":"68262"},{"id":"3511012010","district_id":"351101","name":"Penanggungan","postal_code":"68262"},{"id":"3511012011","district_id":"351101","name":"Pakuniran","postal_code":"68262"},{"id":"3511012012","district_id":"351101","name":"Gunungsari","postal_code":"68262"}]