[{"id":"3511092001","district_id":"351109","name":"Lombok Kulon","postal_code":"68282"},{"id":"3511092002","district_id":"351109","name":"Lombok Wetan","postal_code":"68282"},{"id":"3511092003","district_id":"351109","name":"Tumpeng","postal_code":"68282"},{"id":"3511092004","district_id":"351109","name":"Jumpong","postal_code":"68282"},{"id":"3511092005","district_id":"351109","name":"Tangsil Wetan","postal_code":"68282"},{"id":"3511092006","district_id":"351109","name":"Pasarejo","postal_code":"68282"},{"id":"3511092007","district_id":"351109","name":"Bendoarum","postal_code":"68282"},{"id":"3511092008","district_id":"351109","name":"Kapuran","postal_code":"68282"},{"id":"3511092009","district_id":"351109","name":"Sumberkalong","postal_code":"68282"},{"id":"3511092010","district_id":"351109","name":"Traktakan","postal_code":"68282"},{"id":"3511092011","district_id":"351109","name":"Wonosari","postal_code":"68282"},{"id":"3511092012","district_id":"351109","name":"Pelalangan","postal_code":"68282"}]