[{"id":"3511071009","district_id":"351107","name":"Curahdami","postal_code":"68250"},{"id":"3511072001","district_id":"351107","name":"Jetis","postal_code":"68250"},{"id":"3511072002","district_id":"351107","name":"Pakuwesi","postal_code":"68250"},{"id":"3511072003","district_id":"351107","name":"Kupang","postal_code":"68250"},{"id":"3511072004","district_id":"351107","name":"Petung","postal_code":"68250"},{"id":"3511072005","district_id":"351107","name":"Panambangan","postal_code":"68250"},{"id":"3511072006","district_id":"351107","name":"Curahpoh","postal_code":"68250"},{"id":"3511072007","district_id":"351107","name":"Poncogati","postal_code":"68250"},{"id":"3511072008","district_id":"351107","name":"Sumber Suko","postal_code":"68250"},{"id":"3511072010","district_id":"351107","name":"Selolembu","postal_code":"68250"},{"id":"3511072011","district_id":"351107","name":"Locare","postal_code":"68250"},{"id":"3511072012","district_id":"351107","name":"Sumber Salak","postal_code":"68250"}]