[{"id":"3513132001","district_id":"351313","name":"Bago","postal_code":"67283"},{"id":"3513132002","district_id":"351313","name":"Kecik","postal_code":"67283"},{"id":"3513132003","district_id":"351313","name":"Alasnyiur","postal_code":"67283"},{"id":"3513132004","district_id":"351313","name":"Sindetlami","postal_code":"67283"},{"id":"3513132005","district_id":"351313","name":"Jambangan","postal_code":"67283"},{"id":"3513132006","district_id":"351313","name":"Klampokan","postal_code":"67283"},{"id":"3513132007","district_id":"351313","name":"Matekan","postal_code":"67283"},{"id":"3513132008","district_id":"351313","name":"Krampilan","postal_code":"67283"},{"id":"3513132009","district_id":"351313","name":"Besukagung","postal_code":"67283"},{"id":"3513132010","district_id":"351313","name":"Besukkidul","postal_code":"67283"},{"id":"3513132011","district_id":"351313","name":"Sumurdalam","postal_code":"67283"},{"id":"3513132012","district_id":"351313","name":"Sindetanyar","postal_code":"67283"},{"id":"3513132013","district_id":"351313","name":"Randujalak","postal_code":"67283"},{"id":"3513132014","district_id":"351313","name":"Alastengah","postal_code":"67283"},{"id":"3513132015","district_id":"351313","name":"Alaskandang","postal_code":"67283"},{"id":"3513132016","district_id":"351313","name":"Alassumurlor","postal_code":"67283"},{"id":"3513132017","district_id":"351313","name":"Sumberan","postal_code":"67283"}]