[{"id":"3513152001","district_id":"351315","name":"Temenggungan","postal_code":"67284"},{"id":"3513152002","district_id":"351315","name":"Patemon","postal_code":"67284"},{"id":"3513152003","district_id":"351315","name":"Jatiurip","postal_code":"67284"},{"id":"3513152004","district_id":"351315","name":"Opo Opo","postal_code":"67284"},{"id":"3513152005","district_id":"351315","name":"Kamalkuning","postal_code":"67284"},{"id":"3513152006","district_id":"351315","name":"Tanjungsari","postal_code":"67284"},{"id":"3513152007","district_id":"351315","name":"Krejengan","postal_code":"67284"},{"id":"3513152008","district_id":"351315","name":"Sentong","postal_code":"67284"},{"id":"3513152009","district_id":"351315","name":"Sumberkatimoho","postal_code":"67284"},{"id":"3513152010","district_id":"351315","name":"Karangren","postal_code":"67284"},{"id":"3513152011","district_id":"351315","name":"Rawan","postal_code":"67284"},{"id":"3513152012","district_id":"351315","name":"Seboro","postal_code":"67284"},{"id":"3513152013","district_id":"351315","name":"Kedungcaluk","postal_code":"67284"},{"id":"3513152014","district_id":"351315","name":"Widoro","postal_code":"67284"},{"id":"3513152015","district_id":"351315","name":"Gebangan","postal_code":"67284"},{"id":"3513152016","district_id":"351315","name":"Duwuhan ","postal_code":"67284"},{"id":"3513152017","district_id":"351315","name":"Sokaan","postal_code":"67284"}]