[{"id":"3513082001","district_id":"351308","name":"Sumberduren ","postal_code":"67288"},{"id":"3513082002","district_id":"351308","name":"Roto","postal_code":"67288"},{"id":"3513082003","district_id":"351308","name":"Kertosuko","postal_code":"67288"},{"id":"3513082004","district_id":"351308","name":"Tambelang","postal_code":"67288"},{"id":"3513082005","district_id":"351308","name":"Betek","postal_code":"67288"},{"id":"3513082006","district_id":"351308","name":"Krucil","postal_code":"67288"},{"id":"3513082007","district_id":"351308","name":"Guyangan","postal_code":"67288"},{"id":"3513082008","district_id":"351308","name":"Watupanjang","postal_code":"67288"},{"id":"3513082009","district_id":"351308","name":"Bermi ","postal_code":"67288"},{"id":"3513082010","district_id":"351308","name":"Kalianan","postal_code":"67288"},{"id":"3513082011","district_id":"351308","name":"Plaosan","postal_code":"67288"},{"id":"3513082012","district_id":"351308","name":"Pandanaras ","postal_code":"67288"},{"id":"3513082013","district_id":"351308","name":"Seneng","postal_code":"67288"},{"id":"3513082014","district_id":"351308","name":"Krobongan ","postal_code":"67288"}]