[{"id":"3513212001","district_id":"351321","name":"Sumberbendo","postal_code":"67251"},{"id":"3513212002","district_id":"351321","name":"Jangur","postal_code":"67251"},{"id":"3513212003","district_id":"351321","name":"Muneng","postal_code":"67251"},{"id":"3513212004","district_id":"351321","name":"Munengkidul ","postal_code":"67251"},{"id":"3513212005","district_id":"351321","name":"Pohsangitleres ","postal_code":"67251"},{"id":"3513212006","district_id":"351321","name":"Laweyan","postal_code":"67251"},{"id":"3513212007","district_id":"351321","name":"Sumurmati","postal_code":"67251"},{"id":"3513212008","district_id":"351321","name":"Mentor","postal_code":"67251"},{"id":"3513212009","district_id":"351321","name":"Ambulu","postal_code":"67251"},{"id":"3513212010","district_id":"351321","name":"Banjarsari","postal_code":"67251"},{"id":"3513212011","district_id":"351321","name":"Lemahkembar","postal_code":"67251"},{"id":"3513212012","district_id":"351321","name":"Pesisir","postal_code":"67251"},{"id":"3513212013","district_id":"351321","name":"Giliketapang ","postal_code":"67251"}]