[{"id":"3513092001","district_id":"351309","name":"Batur","postal_code":"67292"},{"id":"3513092002","district_id":"351309","name":"Betek Taman ","postal_code":"67292"},{"id":"3513092003","district_id":"351309","name":"Sentul","postal_code":"67292"},{"id":"3513092004","district_id":"351309","name":"Dandang","postal_code":"67292"},{"id":"3513092005","district_id":"351309","name":"Kertosono","postal_code":"67292"},{"id":"3513092006","district_id":"351309","name":"Prasi","postal_code":"67292"},{"id":"3513092007","district_id":"351309","name":"Duren","postal_code":"67292"},{"id":"3513092008","district_id":"351309","name":"Renteng","postal_code":"67292"},{"id":"3513092009","district_id":"351309","name":"Bulupadak ","postal_code":"67292"},{"id":"3513092010","district_id":"351309","name":"Keben","postal_code":"67292"},{"id":"3513092011","district_id":"351309","name":"Gadingwetan ","postal_code":"67292"},{"id":"3513092012","district_id":"351309","name":"Wangkal","postal_code":"67292"},{"id":"3513092013","district_id":"351309","name":"Nogosaren","postal_code":"67292"},{"id":"3513092014","district_id":"351309","name":"Mojolegi","postal_code":"67292"},{"id":"3513092015","district_id":"351309","name":"Sumbersecang","postal_code":"67292"},{"id":"3513092016","district_id":"351309","name":"Condong","postal_code":"67292"},{"id":"3513092017","district_id":"351309","name":"Jurangjero","postal_code":"67292"},{"id":"3513092018","district_id":"351309","name":"Kaliancar ","postal_code":"67292"},{"id":"3513092019","district_id":"351309","name":"Ranuwurung","postal_code":"67292"}]