[{"id":"3514092001","district_id":"351409","name":"Gunting","postal_code":"67161"},{"id":"3514092002","district_id":"351409","name":"Pakukerto","postal_code":"67161"},{"id":"3514092003","district_id":"351409","name":"Glagahsari","postal_code":"67161"},{"id":"3514092004","district_id":"351409","name":"Sukorejo","postal_code":"67161"},{"id":"3514092005","district_id":"351409","name":"Karangsono","postal_code":"67161"},{"id":"3514092006","district_id":"351409","name":"Sebandung","postal_code":"67161"},{"id":"3514092007","district_id":"351409","name":"Dukuhsari","postal_code":"67161"},{"id":"3514092008","district_id":"351409","name":"Lecari","postal_code":"67161"},{"id":"3514092009","district_id":"351409","name":"Lemahbang","postal_code":"67161"},{"id":"3514092010","district_id":"351409","name":"Ngadimulyo","postal_code":"67161"},{"id":"3514092011","district_id":"351409","name":"Tanjungarum","postal_code":"67161"},{"id":"3514092012","district_id":"351409","name":"Suwayuwo","postal_code":"67161"},{"id":"3514092013","district_id":"351409","name":"Mojotengah","postal_code":"67161"},{"id":"3514092014","district_id":"351409","name":"Kalirejo","postal_code":"67161"},{"id":"3514092015","district_id":"351409","name":"Candibinangun","postal_code":"67161"},{"id":"3514092016","district_id":"351409","name":"Kenduruan","postal_code":"67161"},{"id":"3514092017","district_id":"351409","name":"Sukorame","postal_code":"67161"},{"id":"3514092018","district_id":"351409","name":"Curahrejo","postal_code":"67161"},{"id":"3514092019","district_id":"351409","name":"Wonokerto","postal_code":"67161"}]