[{"id":"3514131013","district_id":"351413","name":"Glanggang","postal_code":"67154"},{"id":"3514131014","district_id":"351413","name":"Pagak","postal_code":"67154"},{"id":"3514132001","district_id":"351413","name":"Baujeng","postal_code":"67154"},{"id":"3514132002","district_id":"351413","name":"Ngembe","postal_code":"67154"},{"id":"3514132003","district_id":"351413","name":"Kenep","postal_code":"67154"},{"id":"3514132004","district_id":"351413","name":"Sidowayah","postal_code":"67154"},{"id":"3514132005","district_id":"351413","name":"Gajahrejo ","postal_code":"67154"},{"id":"3514132006","district_id":"351413","name":"Gunung Gangsir","postal_code":"67154"},{"id":"3514132007","district_id":"351413","name":"Wonokoyo","postal_code":"67154"},{"id":"3514132008","district_id":"351413","name":"Gunungsari ","postal_code":"67154"},{"id":"3514132009","district_id":"351413","name":"Cangkringmalang ","postal_code":"67154"},{"id":"3514132010","district_id":"351413","name":"Kedungringin ","postal_code":"67154"},{"id":"3514132011","district_id":"351413","name":"Kedungboto ","postal_code":"67154"},{"id":"3514132012","district_id":"351413","name":"Beji","postal_code":"67154"}]