[{"id":"3514232001","district_id":"351423","name":"Sadengrejo","postal_code":"67181"},{"id":"3514232002","district_id":"351423","name":"Pandanrejo","postal_code":"67181"},{"id":"3514232003","district_id":"351423","name":"Ketegan","postal_code":"67181"},{"id":"3514232004","district_id":"351423","name":"Toyaning","postal_code":"67181"},{"id":"3514232005","district_id":"351423","name":"Arjosari","postal_code":"67181"},{"id":"3514232006","district_id":"351423","name":"Kawisrejo","postal_code":"67181"},{"id":"3514232007","district_id":"351423","name":"Rejoso Kidul","postal_code":"67181"},{"id":"3514232008","district_id":"351423","name":"Manikrejo","postal_code":"67181"},{"id":"3514232009","district_id":"351423","name":"Karangpandan","postal_code":"67181"},{"id":"3514232010","district_id":"351423","name":"Sambirejo","postal_code":"67181"},{"id":"3514232011","district_id":"351423","name":"Kedungbako","postal_code":"67181"},{"id":"3514232012","district_id":"351423","name":"Rejoso Lor","postal_code":"67181"},{"id":"3514232013","district_id":"351423","name":"Patuguhan","postal_code":"67181"},{"id":"3514232014","district_id":"351423","name":"Kemantren Rejo","postal_code":"67181"},{"id":"3514232015","district_id":"351423","name":"Segoropuro","postal_code":"67181"},{"id":"3514232016","district_id":"351423","name":"Jarangan","postal_code":"67181"}]