[{"id":"3514072001","district_id":"351407","name":"Karangmenggah ","postal_code":"67173"},{"id":"3514072002","district_id":"351407","name":"Karangjatianyar ","postal_code":"67173"},{"id":"3514072003","district_id":"351407","name":"Pakijangan","postal_code":"67173"},{"id":"3514072004","district_id":"351407","name":"Cobanblimbing ","postal_code":"67173"},{"id":"3514072005","district_id":"351407","name":"Wonorejo","postal_code":"67173"},{"id":"3514072006","district_id":"351407","name":"Wonosari","postal_code":"67173"},{"id":"3514072007","district_id":"351407","name":"Tamansari","postal_code":"67173"},{"id":"3514072008","district_id":"351407","name":"Jati Gunting","postal_code":"67173"},{"id":"3514072009","district_id":"351407","name":"Rebono","postal_code":"67173"},{"id":"3514072010","district_id":"351407","name":"Karangsono","postal_code":"67173"},{"id":"3514072011","district_id":"351407","name":"Kendangdukuh ","postal_code":"67173"},{"id":"3514072012","district_id":"351407","name":"Karangasem ","postal_code":"67173"},{"id":"3514072013","district_id":"351407","name":"Kluwut","postal_code":"67173"},{"id":"3514072014","district_id":"351407","name":"Sambisirah","postal_code":"67173"},{"id":"3514072015","district_id":"351407","name":"Lebak Sari ","postal_code":"67173"}]