[{"id":"3514212001","district_id":"351421","name":"Sanganom ","postal_code":"67185"},{"id":"3514212002","district_id":"351421","name":"Sebalong","postal_code":"67185"},{"id":"3514212003","district_id":"351421","name":"Wotgalih ","postal_code":"67185"},{"id":"3514212004","district_id":"351421","name":"Watestani ","postal_code":"67185"},{"id":"3514212005","district_id":"351421","name":"Nguling","postal_code":"67185"},{"id":"3514212006","district_id":"351421","name":"Sedarum","postal_code":"67185"},{"id":"3514212007","district_id":"351421","name":"Dandanggendis ","postal_code":"67185"},{"id":"3514212008","district_id":"351421","name":"Sumberanyar ","postal_code":"67185"},{"id":"3514212009","district_id":"351421","name":"Sudimulyo","postal_code":"67185"},{"id":"3514212010","district_id":"351421","name":"Penunggul","postal_code":"67185"},{"id":"3514212011","district_id":"351421","name":"Mlaten","postal_code":"67185"},{"id":"3514212012","district_id":"351421","name":"Kedawang","postal_code":"67185"},{"id":"3514212013","district_id":"351421","name":"Randuati","postal_code":"67185"},{"id":"3514212014","district_id":"351421","name":"Kapasan","postal_code":"67185"},{"id":"3514212015","district_id":"351421","name":"Watuprapat","postal_code":"67185"}]