[{"id":"3514111006","district_id":"351411","name":"Kutorejo","postal_code":"67156"},{"id":"3514111007","district_id":"351411","name":"Jogosari","postal_code":"67156"},{"id":"3514111008","district_id":"351411","name":"Petungasri","postal_code":"67156"},{"id":"3514111011","district_id":"351411","name":"Pandaan","postal_code":"67156"},{"id":"3514112001","district_id":"351411","name":"Plintahan","postal_code":"67156"},{"id":"3514112002","district_id":"351411","name":"Durensewu","postal_code":"67156"},{"id":"3514112003","district_id":"351411","name":"Karangjati ","postal_code":"67156"},{"id":"3514112004","district_id":"351411","name":"Wedoro","postal_code":"67156"},{"id":"3514112005","district_id":"351411","name":"Tunggulwulung ","postal_code":"67156"},{"id":"3514112009","district_id":"351411","name":"Sumbergedang ","postal_code":"67156"},{"id":"3514112010","district_id":"351411","name":"Tawangrejo ","postal_code":"67156"},{"id":"3514112012","district_id":"351411","name":"Nogosari","postal_code":"67156"},{"id":"3514112013","district_id":"351411","name":"Kebonwaris ","postal_code":"67156"},{"id":"3514112014","district_id":"351411","name":"Sebani","postal_code":"67156"},{"id":"3514112015","district_id":"351411","name":"Banjarsari","postal_code":"67156"},{"id":"3514112016","district_id":"351411","name":"Banjarkejen ","postal_code":"67156"},{"id":"3514112017","district_id":"351411","name":"Kemirisewu ","postal_code":"67156"},{"id":"3514112018","district_id":"351411","name":"Sumberrejo ","postal_code":"67156"}]