[{"id":"3514201005","district_id":"351420","name":"Gratitunon","postal_code":"67184"},{"id":"3514202001","district_id":"351420","name":"Kebonrejo","postal_code":"67184"},{"id":"3514202002","district_id":"351420","name":"Karanglo","postal_code":"67184"},{"id":"3514202003","district_id":"351420","name":"Rebalas","postal_code":"67184"},{"id":"3514202004","district_id":"351420","name":"Plososari","postal_code":"67184"},{"id":"3514202006","district_id":"351420","name":"Kalipang","postal_code":"67184"},{"id":"3514202007","district_id":"351420","name":"Trewung","postal_code":"67184"},{"id":"3514202008","district_id":"351420","name":"Kambinganrejo","postal_code":"67184"},{"id":"3514202009","district_id":"351420","name":"Karangkliwon","postal_code":"67184"},{"id":"3514202010","district_id":"351420","name":"Kedawungkulon","postal_code":"67184"},{"id":"3514202011","district_id":"351420","name":"Kedawungwetan","postal_code":"67184"},{"id":"3514202012","district_id":"351420","name":"Sumberagung","postal_code":"67184"},{"id":"3514202013","district_id":"351420","name":"Ranuklindungan","postal_code":"67184"},{"id":"3514202014","district_id":"351420","name":"Sumberdawesari","postal_code":"67184"},{"id":"3514202015","district_id":"351420","name":"Cukurgondang","postal_code":"67184"}]