[{"id":"3514101007","district_id":"351410","name":"Ledug","postal_code":"67157"},{"id":"3514101008","district_id":"351410","name":"Pecalukan","postal_code":"67157"},{"id":"3514101009","district_id":"351410","name":"Prigen","postal_code":"67157"},{"id":"3514102001","district_id":"351410","name":"Jatirejo ","postal_code":"67157"},{"id":"3514102002","district_id":"351410","name":"Watuagung","postal_code":"67157"},{"id":"3514102003","district_id":"351410","name":"Dayurejo","postal_code":"67157"},{"id":"3514102004","district_id":"351410","name":"Bulukandang","postal_code":"67157"},{"id":"3514102005","district_id":"351410","name":"Ketanireng","postal_code":"67157"},{"id":"3514102006","district_id":"351410","name":"Sukolelo","postal_code":"67157"},{"id":"3514102010","district_id":"351410","name":"Lumbangrejo ","postal_code":"67157"},{"id":"3514102011","district_id":"351410","name":"Sukoreno","postal_code":"67157"},{"id":"3514102012","district_id":"351410","name":"Sekarjoho","postal_code":"67157"},{"id":"3514102013","district_id":"351410","name":"Gambiran","postal_code":"67157"},{"id":"3514102014","district_id":"351410","name":"Candiwates ","postal_code":"67157"}]