[{"id":"3514162001","district_id":"351416","name":"Pukul","postal_code":"67151"},{"id":"3514162002","district_id":"351416","name":"Gambirkuning ","postal_code":"67151"},{"id":"3514162003","district_id":"351416","name":"Mulyorejo ","postal_code":"67151"},{"id":"3514162004","district_id":"351416","name":"Kebotohan","postal_code":"67151"},{"id":"3514162005","district_id":"351416","name":"Ngabar","postal_code":"67151"},{"id":"3514162006","district_id":"351416","name":"Slambrit","postal_code":"67151"},{"id":"3514162007","district_id":"351416","name":"Jeruk","postal_code":"67151"},{"id":"3514162008","district_id":"351416","name":"Klampisrejo ","postal_code":"67151"},{"id":"3514162009","district_id":"351416","name":"Plinggisan","postal_code":"67151"},{"id":"3514162010","district_id":"351416","name":"Tambaksari","postal_code":"67151"},{"id":"3514162011","district_id":"351416","name":"Dhompo","postal_code":"67151"},{"id":"3514162012","district_id":"351416","name":"Ngempit","postal_code":"67151"},{"id":"3514162013","district_id":"351416","name":"Sidogiri","postal_code":"67151"},{"id":"3514162014","district_id":"351416","name":"Karanganyar ","postal_code":"67151"},{"id":"3514162015","district_id":"351416","name":"Selotambak","postal_code":"67151"},{"id":"3514162016","district_id":"351416","name":"Curahdukuh","postal_code":"67151"},{"id":"3514162017","district_id":"351416","name":"Rejosari","postal_code":"67151"},{"id":"3514162018","district_id":"351416","name":"Asem Kandang ","postal_code":"67151"},{"id":"3514162019","district_id":"351416","name":"Tambak Rejo ","postal_code":"67151"},{"id":"3514162020","district_id":"351416","name":"Kalirejo","postal_code":"67151"},{"id":"3514162021","district_id":"351416","name":"Semare","postal_code":"67151"},{"id":"3514162022","district_id":"351416","name":"Kraton","postal_code":"67151"},{"id":"3514162023","district_id":"351416","name":"Pulokerto","postal_code":"67151"},{"id":"3514162024","district_id":"351416","name":"Bendungan","postal_code":"67151"},{"id":"3514162025","district_id":"351416","name":"Gerongan","postal_code":"67151"}]