[{"id":"3514181016","district_id":"351418","name":"Gondang Wetan","postal_code":"67174"},{"id":"3514182001","district_id":"351418","name":"Tebas","postal_code":"67174"},{"id":"3514182002","district_id":"351418","name":"Brambang","postal_code":"67174"},{"id":"3514182003","district_id":"351418","name":"Bayeman","postal_code":"67174"},{"id":"3514182004","district_id":"351418","name":"Kebon Candi","postal_code":"67174"},{"id":"3514182005","district_id":"351418","name":"Tenggilis Rejo","postal_code":"67174"},{"id":"3514182006","district_id":"351418","name":"Wonojati","postal_code":"67174"},{"id":"3514182007","district_id":"351418","name":"Wonosari","postal_code":"67174"},{"id":"3514182008","district_id":"351418","name":"Kersikan","postal_code":"67174"},{"id":"3514182009","district_id":"351418","name":"Karangsentul","postal_code":"67174"},{"id":"3514182010","district_id":"351418","name":"Gayam","postal_code":"67174"},{"id":"3514182011","district_id":"351418","name":"Lajuk","postal_code":"67174"},{"id":"3514182012","district_id":"351418","name":"Kalirejo","postal_code":"67174"},{"id":"3514182013","district_id":"351418","name":"Pateguhan","postal_code":"67174"},{"id":"3514182014","district_id":"351418","name":"Grogol","postal_code":"67174"},{"id":"3514182015","district_id":"351418","name":"Pekangkungan","postal_code":"67174"},{"id":"3514182017","district_id":"351418","name":"Ranggeh","postal_code":"67174"},{"id":"3514182018","district_id":"351418","name":"Sekar Putih","postal_code":"67174"},{"id":"3514182019","district_id":"351418","name":"Bajangan","postal_code":"67174"},{"id":"3514182020","district_id":"351418","name":"Gondangrejo","postal_code":"67174"}]