[{"id":"3514081006","district_id":"351408","name":"Purwosari","postal_code":"67162"},{"id":"3514082001","district_id":"351408","name":"Sumberrejo","postal_code":"67162"},{"id":"3514082002","district_id":"351408","name":"Sekarmojo","postal_code":"67162"},{"id":"3514082003","district_id":"351408","name":"Tejowangi","postal_code":"67162"},{"id":"3514082004","district_id":"351408","name":"Kertosari","postal_code":"67162"},{"id":"3514082005","district_id":"351408","name":"Martopuro","postal_code":"67162"},{"id":"3514082007","district_id":"351408","name":"Sengonagung","postal_code":"67162"},{"id":"3514082008","district_id":"351408","name":"Pager","postal_code":"67162"},{"id":"3514082009","district_id":"351408","name":"Cendono","postal_code":"67162"},{"id":"3514082010","district_id":"351408","name":"Karangrejo","postal_code":"67162"},{"id":"3514082011","district_id":"351408","name":"Sumbersuko","postal_code":"67162"},{"id":"3514082012","district_id":"351408","name":"Pucang Sari","postal_code":"67162"},{"id":"3514082013","district_id":"351408","name":"Kayoman","postal_code":"67162"},{"id":"3514082014","district_id":"351408","name":"Sukodermo","postal_code":"67162"},{"id":"3514082015","district_id":"351408","name":"Bakalan","postal_code":"67162"}]