[{"id":"3515032001","district_id":"351503","name":"Tambakrejo","postal_code":"61275"},{"id":"3515032002","district_id":"351503","name":"Keper","postal_code":"61275"},{"id":"3515032003","district_id":"351503","name":"Kedungsumur","postal_code":"61275"},{"id":"3515032004","district_id":"351503","name":"Kedungrawan","postal_code":"61275"},{"id":"3515032005","district_id":"351503","name":"Tanjekwagir ","postal_code":"61275"},{"id":"3515032006","district_id":"351503","name":"Mojoruntut","postal_code":"61275"},{"id":"3515032007","district_id":"351503","name":"Gading","postal_code":"61275"},{"id":"3515032008","district_id":"351503","name":"Wangkal","postal_code":"61275"},{"id":"3515032009","district_id":"351503","name":"Jenggot","postal_code":"61275"},{"id":"3515032010","district_id":"351503","name":"Waung","postal_code":"61275"},{"id":"3515032011","district_id":"351503","name":"Ploso","postal_code":"61275"},{"id":"3515032012","district_id":"351503","name":"Rejeni","postal_code":"61275"},{"id":"3515032013","district_id":"351503","name":"Kandangan","postal_code":"61275"},{"id":"3515032014","district_id":"351503","name":"Krembung","postal_code":"61275"},{"id":"3515032015","district_id":"351503","name":"Lemujut","postal_code":"61275"},{"id":"3515032016","district_id":"351503","name":"Cangkring","postal_code":"61275"},{"id":"3515032017","district_id":"351503","name":"Keret","postal_code":"61275"},{"id":"3515032018","district_id":"351503","name":"Wonomlati","postal_code":"61275"},{"id":"3515032019","district_id":"351503","name":"Balonggarut ","postal_code":"61275"}]