[{"id":"3515012001","district_id":"351501","name":"Miriprowo ","postal_code":"61265"},{"id":"3515012002","district_id":"351501","name":"Kedungbocok","postal_code":"61265"},{"id":"3515012003","district_id":"351501","name":"Singogalih","postal_code":"61265"},{"id":"3515012004","district_id":"351501","name":"Tarik","postal_code":"61265"},{"id":"3515012005","district_id":"351501","name":"Mergobener","postal_code":"61265"},{"id":"3515012006","district_id":"351501","name":"Mergosari","postal_code":"61265"},{"id":"3515012007","district_id":"351501","name":"Kendalsewu","postal_code":"61265"},{"id":"3515012008","district_id":"351501","name":"Klantingsari","postal_code":"61265"},{"id":"3515012009","district_id":"351501","name":"Kalimati","postal_code":"61265"},{"id":"3515012010","district_id":"351501","name":"Gempolklutuk","postal_code":"61265"},{"id":"3515012011","district_id":"351501","name":"Banjarwungu","postal_code":"61265"},{"id":"3515012012","district_id":"351501","name":"Balongmacekan","postal_code":"61265"},{"id":"3515012013","district_id":"351501","name":"Gampingrowo","postal_code":"61265"},{"id":"3515012014","district_id":"351501","name":"Sebani","postal_code":"61265"},{"id":"3515012015","district_id":"351501","name":"Kramattemanggung ","postal_code":"61265"},{"id":"3515012016","district_id":"351501","name":"Mindugading","postal_code":"61265"},{"id":"3515012017","district_id":"351501","name":"Kemuning","postal_code":"61265"},{"id":"3515012018","district_id":"351501","name":"Janti","postal_code":"61265"},{"id":"3515012019","district_id":"351501","name":"Segodobancang","postal_code":"61265"},{"id":"3515012020","district_id":"351501","name":"Kedinding","postal_code":"61265"}]