[{"id":"3516182001","district_id":"351618","name":"Sadartengah","postal_code":"61364"},{"id":"3516182002","district_id":"351618","name":"Lengkong","postal_code":"61364"},{"id":"3516182003","district_id":"351618","name":"Kepuhanyar","postal_code":"61364"},{"id":"3516182004","district_id":"351618","name":"Sumberjati","postal_code":"61364"},{"id":"3516182005","district_id":"351618","name":"Gebangmalang","postal_code":"61364"},{"id":"3516182006","district_id":"351618","name":"Jabon","postal_code":"61364"},{"id":"3516182008","district_id":"351618","name":"Ngarjo","postal_code":"61364"},{"id":"3516182009","district_id":"351618","name":"Wunut","postal_code":"61364"},{"id":"3516182010","district_id":"351618","name":"Kwedenkembar","postal_code":"61364"},{"id":"3516182011","district_id":"351618","name":"Jumeneng","postal_code":"61364"},{"id":"3516182012","district_id":"351618","name":"Kwatu","postal_code":"61364"},{"id":"3516182013","district_id":"351618","name":"Gayaman","postal_code":"61364"}]