[{"id":"3516052001","district_id":"351605","name":"Srigading","postal_code":"61385"},{"id":"3516052002","district_id":"351605","name":"Kesemen","postal_code":"61385"},{"id":"3516052003","district_id":"351605","name":"Kutogirang","postal_code":"61385"},{"id":"3516052004","district_id":"351605","name":"Lolawang","postal_code":"61385"},{"id":"3516052005","district_id":"351605","name":"Wotanmasjedong","postal_code":"61385"},{"id":"3516052006","district_id":"351605","name":"Tanjangrono","postal_code":"61385"},{"id":"3516052007","district_id":"351605","name":"Kunjorowesi","postal_code":"61385"},{"id":"3516052008","district_id":"351605","name":"Manduro Manggunggajah","postal_code":"61385"},{"id":"3516052009","district_id":"351605","name":"Wonosari","postal_code":"61385"},{"id":"3516052010","district_id":"351605","name":"Ngoro","postal_code":"61385"},{"id":"3516052011","district_id":"351605","name":"Sedati","postal_code":"61385"},{"id":"3516052012","district_id":"351605","name":"Purwojati","postal_code":"61385"},{"id":"3516052013","district_id":"351605","name":"Jasem","postal_code":"61385"},{"id":"3516052014","district_id":"351605","name":"Sukoanyar","postal_code":"61385"},{"id":"3516052015","district_id":"351605","name":"Bandarasri","postal_code":"61385"},{"id":"3516052016","district_id":"351605","name":"Kembangsri","postal_code":"61385"},{"id":"3516052017","district_id":"351605","name":"Candiharjo","postal_code":"61385"},{"id":"3516052018","district_id":"351605","name":"Watesnegoro","postal_code":"61385"},{"id":"3516052019","district_id":"351605","name":"Tambakrejo","postal_code":"61385"}]