[{"id":"3516042001","district_id":"351604","name":"Ketapanrame","postal_code":"61375"},{"id":"3516042002","district_id":"351604","name":"Trawas","postal_code":"61375"},{"id":"3516042003","district_id":"351604","name":"Selotapak","postal_code":"61375"},{"id":"3516042004","district_id":"351604","name":"Tamiajeng","postal_code":"61375"},{"id":"3516042005","district_id":"351604","name":"Kesiman","postal_code":"61375"},{"id":"3516042006","district_id":"351604","name":"Belik","postal_code":"61375"},{"id":"3516042007","district_id":"351604","name":"Duyung","postal_code":"61375"},{"id":"3516042008","district_id":"351604","name":"Penanggungan","postal_code":"61375"},{"id":"3516042009","district_id":"351604","name":"Kedungudi","postal_code":"61375"},{"id":"3516042010","district_id":"351604","name":"Sukosari","postal_code":"61375"},{"id":"3516042011","district_id":"351604","name":"Jatijejer","postal_code":"61375"},{"id":"3516042012","district_id":"351604","name":"Sugeng","postal_code":"61375"},{"id":"3516042013","district_id":"351604","name":"Seloliman","postal_code":"61375"}]