[{"id":"3517082001","district_id":"351708","name":"Kayangan","postal_code":"61471"},{"id":"3517082002","district_id":"351708","name":"Puton","postal_code":"61471"},{"id":"3517082003","district_id":"351708","name":"Bendet","postal_code":"61471"},{"id":"3517082004","district_id":"351708","name":"Bulurejo","postal_code":"61471"},{"id":"3517082005","district_id":"351708","name":"Grogol","postal_code":"61471"},{"id":"3517082006","district_id":"351708","name":"Jatirejo","postal_code":"61471"},{"id":"3517082007","district_id":"351708","name":"Cukir","postal_code":"61471"},{"id":"3517082008","district_id":"351708","name":"Kwaron","postal_code":"61471"},{"id":"3517082009","district_id":"351708","name":"Watugaluh","postal_code":"61471"},{"id":"3517082010","district_id":"351708","name":"Pundong","postal_code":"61471"},{"id":"3517082011","district_id":"351708","name":"Diwek","postal_code":"61471"},{"id":"3517082012","district_id":"351708","name":"Bandung","postal_code":"61471"},{"id":"3517082013","district_id":"351708","name":"Kedawong","postal_code":"61471"},{"id":"3517082014","district_id":"351708","name":"Ngudirejo","postal_code":"61471"},{"id":"3517082015","district_id":"351708","name":"Ceweng","postal_code":"61471"},{"id":"3517082016","district_id":"351708","name":"Balongbesuk ","postal_code":"61471"},{"id":"3517082017","district_id":"351708","name":"Pandanwangi","postal_code":"61471"},{"id":"3517082018","district_id":"351708","name":"Brambang","postal_code":"61471"},{"id":"3517082019","district_id":"351708","name":"Jatipelem","postal_code":"61471"},{"id":"3517082020","district_id":"351708","name":"Keras","postal_code":"61471"}]