[{"id":"3518072001","district_id":"351807","name":"Cengkok","postal_code":"64395"},{"id":"3518072002","district_id":"351807","name":"Tanjungkalang","postal_code":"64395"},{"id":"3518072003","district_id":"351807","name":"Juwet","postal_code":"64395"},{"id":"3518072004","district_id":"351807","name":"Kelutan","postal_code":"64395"},{"id":"3518072005","district_id":"351807","name":"Ngronggot","postal_code":"64395"},{"id":"3518072006","district_id":"351807","name":"Mojokendil","postal_code":"64395"},{"id":"3518072007","district_id":"351807","name":"Betet","postal_code":"64395"},{"id":"3518072008","district_id":"351807","name":"Kaloran","postal_code":"64395"},{"id":"3518072009","district_id":"351807","name":"Banjarsari","postal_code":"64395"},{"id":"3518072010","district_id":"351807","name":"Dadapan","postal_code":"64395"},{"id":"3518072011","district_id":"351807","name":"Trayang","postal_code":"64395"},{"id":"3518072012","district_id":"351807","name":"Kalianyar","postal_code":"64395"},{"id":"3518072013","district_id":"351807","name":"Klurahan","postal_code":"64395"}]