[{"id":"3518052001","district_id":"351805","name":"Jampes","postal_code":"64472"},{"id":"3518052002","district_id":"351805","name":"Mlandangan","postal_code":"64472"},{"id":"3518052003","district_id":"351805","name":"Gondang","postal_code":"64451"},{"id":"3518052004","district_id":"351805","name":"Jatigreges","postal_code":"64472"},{"id":"3518052005","district_id":"351805","name":"Joho","postal_code":"64472"},{"id":"3518052006","district_id":"351805","name":"Sanan","postal_code":"64472"},{"id":"3518052007","district_id":"351805","name":"Pacekulon","postal_code":"64472"},{"id":"3518052008","district_id":"351805","name":"Cerme","postal_code":"64472"},{"id":"3518052009","district_id":"351805","name":"Babadan","postal_code":"64472"},{"id":"3518052010","district_id":"351805","name":"Batembat","postal_code":"64472"},{"id":"3518052011","district_id":"351805","name":"Banaran","postal_code":"64472"},{"id":"3518052012","district_id":"351805","name":"Bodor","postal_code":"64472"},{"id":"3518052013","district_id":"351805","name":"Pacewetan","postal_code":"64472"},{"id":"3518052014","district_id":"351805","name":"Jetis","postal_code":"64472"},{"id":"3518052015","district_id":"351805","name":"Gemenggeng","postal_code":"64472"},{"id":"3518052016","district_id":"351805","name":"Kecubung","postal_code":"64472"},{"id":"3518052017","district_id":"351805","name":"Plosoharjo","postal_code":"64472"},{"id":"3518052018","district_id":"351805","name":"Kepanjen","postal_code":"64472"}]