[{"id":"3518192001","district_id":"351819","name":"Banjardowo","postal_code":"64393"},{"id":"3518192002","district_id":"351819","name":"Lengkong","postal_code":"64393"},{"id":"3518192003","district_id":"351819","name":"Jegreg","postal_code":"64393"},{"id":"3518192004","district_id":"351819","name":"Kedungmlaten","postal_code":"64393"},{"id":"3518192005","district_id":"351819","name":"Prayungan","postal_code":"64393"},{"id":"3518192006","district_id":"351819","name":"Sumbersono","postal_code":"64393"},{"id":"3518192007","district_id":"351819","name":"Balongasem","postal_code":"64393"},{"id":"3518192008","district_id":"351819","name":"Sawahan","postal_code":"64393"},{"id":"3518192009","district_id":"351819","name":"Ngringin","postal_code":"64393"},{"id":"3518192010","district_id":"351819","name":"Jatipunggur","postal_code":"64393"},{"id":"3518192011","district_id":"351819","name":"Ketandan","postal_code":"64393"},{"id":"3518192012","district_id":"351819","name":"Sumberkepuh","postal_code":"64393"},{"id":"3518192013","district_id":"351819","name":"Ngepung","postal_code":"64393"},{"id":"3518192014","district_id":"351819","name":"Pinggir","postal_code":"64393"},{"id":"3518192015","district_id":"351819","name":"Bangle","postal_code":"64393"},{"id":"3518192016","district_id":"351819","name":"Sumbermiri","postal_code":"64393"}]