[{"id":"3519102001","district_id":"351910","name":"Garon","postal_code":"63152"},{"id":"3519102002","district_id":"351910","name":"Balerejo","postal_code":"63152"},{"id":"3519102003","district_id":"351910","name":"Kebonagung","postal_code":"63152"},{"id":"3519102004","district_id":"351910","name":"Gading","postal_code":"63152"},{"id":"3519102005","district_id":"351910","name":"Sumberbening","postal_code":"63152"},{"id":"3519102006","district_id":"351910","name":"Bulakrejo","postal_code":"63152"},{"id":"3519102007","district_id":"351910","name":"Tapelan","postal_code":"63152"},{"id":"3519102008","district_id":"351910","name":"Babadan Lor","postal_code":"63152"},{"id":"3519102009","district_id":"351910","name":"Warurejo","postal_code":"63152"},{"id":"3519102010","district_id":"351910","name":"Jerukgulung","postal_code":"63152"},{"id":"3519102011","district_id":"351910","name":"Kedungjati","postal_code":"63152"},{"id":"3519102012","district_id":"351910","name":"Glonggong","postal_code":"63152"},{"id":"3519102013","district_id":"351910","name":"Sogo","postal_code":"63152"},{"id":"3519102014","district_id":"351910","name":"Banaran","postal_code":"63152"},{"id":"3519102015","district_id":"351910","name":"Pacinan","postal_code":"63152"},{"id":"3519102016","district_id":"351910","name":"Kedungrejo","postal_code":"63152"},{"id":"3519102017","district_id":"351910","name":"Kuwu","postal_code":"63152"},{"id":"3519102018","district_id":"351910","name":"Simo","postal_code":"63152"}]