[{"id":"3519111012","district_id":"351911","name":"Bangunsari","postal_code":"63153"},{"id":"3519111013","district_id":"351911","name":"Krajan","postal_code":"63153"},{"id":"3519111014","district_id":"351911","name":"Pandean ","postal_code":"63153"},{"id":"3519112001","district_id":"351911","name":"Kaliabu","postal_code":"63153"},{"id":"3519112002","district_id":"351911","name":"Klecorejo","postal_code":"63153"},{"id":"3519112003","district_id":"351911","name":"Blabakan","postal_code":"63153"},{"id":"3519112004","district_id":"351911","name":"Wonorejo","postal_code":"63153"},{"id":"3519112005","district_id":"351911","name":"Kebonagung","postal_code":"63153"},{"id":"3519112006","district_id":"351911","name":"Darmorejo","postal_code":"63153"},{"id":"3519112007","district_id":"351911","name":"Kaligunting","postal_code":"63153"},{"id":"3519112008","district_id":"351911","name":"Sidodadi","postal_code":"63112"},{"id":"3519112009","district_id":"351911","name":"Kuncen","postal_code":"63153"},{"id":"3519112010","district_id":"351911","name":"Mejayan","postal_code":"63153"},{"id":"3519112011","district_id":"351911","name":"Ngampel","postal_code":"63153"}]