[{"id":"3520111005","district_id":"352011","name":"Maospati","postal_code":"63392"},{"id":"3520111013","district_id":"352011","name":"Kraton","postal_code":"63392"},{"id":"3520111014","district_id":"352011","name":"Mranggen","postal_code":"63392"},{"id":"3520112001","district_id":"352011","name":"Sugihwaras","postal_code":"63392"},{"id":"3520112002","district_id":"352011","name":"Tanjungsepreh","postal_code":"63392"},{"id":"3520112003","district_id":"352011","name":"Gulun","postal_code":"63392"},{"id":"3520112004","district_id":"352011","name":"Malang","postal_code":"63392"},{"id":"3520112006","district_id":"352011","name":"Klagen Gambiran","postal_code":"63392"},{"id":"3520112007","district_id":"352011","name":"Pandeyan","postal_code":"63392"},{"id":"3520112008","district_id":"352011","name":"Suratmajan","postal_code":"63392"},{"id":"3520112009","district_id":"352011","name":"Ronowijayan","postal_code":"63392"},{"id":"3520112010","district_id":"352011","name":"Ngujung","postal_code":"63392"},{"id":"3520112011","district_id":"352011","name":"Sumberejo","postal_code":"63392"},{"id":"3520112012","district_id":"352011","name":"Pesu","postal_code":"63392"},{"id":"3520112015","district_id":"352011","name":"Sempol","postal_code":"63392"}]