[{"id":"3521012001","district_id":"352101","name":"Wonosari","postal_code":"63264"},{"id":"3521012002","district_id":"352101","name":"Pandansari","postal_code":"63264"},{"id":"3521012003","district_id":"352101","name":"Girikerto","postal_code":"63264"},{"id":"3521012004","district_id":"352101","name":"Ngrendeng","postal_code":"63264"},{"id":"3521012005","district_id":"352101","name":"Hargosari","postal_code":"63264"},{"id":"3521012006","district_id":"352101","name":"Pocol","postal_code":"63264"},{"id":"3521012007","district_id":"352101","name":"Gendol","postal_code":"63264"},{"id":"3521012008","district_id":"352101","name":"Sine","postal_code":"63264"},{"id":"3521012009","district_id":"352101","name":"Sumberejo","postal_code":"63264"},{"id":"3521012010","district_id":"352101","name":"Sumbersari","postal_code":"63264"},{"id":"3521012011","district_id":"352101","name":"Kuniran","postal_code":"63264"},{"id":"3521012012","district_id":"352101","name":"Tulakan","postal_code":"63264"},{"id":"3521012013","district_id":"352101","name":"Ketanggung","postal_code":"63264"},{"id":"3521012014","district_id":"352101","name":"Jagir","postal_code":"63264"},{"id":"3521012015","district_id":"352101","name":"Kauman","postal_code":"63264"}]