[{"id":"3521102001","district_id":"352110","name":"Gentong","postal_code":"63253"},{"id":"3521102002","district_id":"352110","name":"Babadan","postal_code":"63253"},{"id":"3521102003","district_id":"352110","name":"Semen","postal_code":"63253"},{"id":"3521102004","district_id":"352110","name":"Kedungputri ","postal_code":"63253"},{"id":"3521102005","district_id":"352110","name":"Tempuran","postal_code":"63253"},{"id":"3521102006","district_id":"352110","name":"Dawu","postal_code":"63253"},{"id":"3521102007","district_id":"352110","name":"Paron","postal_code":"63253"},{"id":"3521102008","district_id":"352110","name":"Jambangan","postal_code":"63253"},{"id":"3521102009","district_id":"352110","name":"Teguhan","postal_code":"63253"},{"id":"3521102010","district_id":"352110","name":"Sirigan","postal_code":"63253"},{"id":"3521102011","district_id":"352110","name":"Jeblogan","postal_code":"63253"},{"id":"3521102012","district_id":"352110","name":"Ngale","postal_code":"63253"},{"id":"3521102013","district_id":"352110","name":"Gelung","postal_code":"63253"},{"id":"3521102014","district_id":"352110","name":"Kebon","postal_code":"63253"}]