[{"id":"3521091013","district_id":"352109","name":"Margomulyo","postal_code":"63217"},{"id":"3521091014","district_id":"352109","name":"Karangtengah","postal_code":"63218"},{"id":"3521091015","district_id":"352109","name":"Ketanggi","postal_code":"63211"},{"id":"3521091016","district_id":"352109","name":"Pelem","postal_code":"63212"},{"id":"3521092001","district_id":"352109","name":"Mangunharjo","postal_code":"63218"},{"id":"3521092002","district_id":"352109","name":"Kandangan","postal_code":"63218"},{"id":"3521092003","district_id":"352109","name":"Kartoharjo","postal_code":"63218"},{"id":"3521092004","district_id":"352109","name":"Karangasri","postal_code":"63218"},{"id":"3521092005","district_id":"352109","name":"Banyuurip","postal_code":"63218"},{"id":"3521092006","district_id":"352109","name":"Beran","postal_code":"63216"},{"id":"3521092007","district_id":"352109","name":"Jururejo","postal_code":"63215"},{"id":"3521092008","district_id":"352109","name":"Grudo","postal_code":"63214"},{"id":"3521092009","district_id":"352109","name":"Watualang","postal_code":"63218"},{"id":"3521092010","district_id":"352109","name":"Ngawi","postal_code":"63218"},{"id":"3521092011","district_id":"352109","name":"Karangtengah Prandon","postal_code":"63218"},{"id":"3521092012","district_id":"352109","name":"Kerek","postal_code":"63218"}]