[{"id":"3522062001","district_id":"352206","name":"Ngunut","postal_code":"62171"},{"id":"3522062002","district_id":"352206","name":"Dander","postal_code":"62171"},{"id":"3522062003","district_id":"352206","name":"Growok","postal_code":"62171"},{"id":"3522062004","district_id":"352206","name":"Sumberarum ","postal_code":"62171"},{"id":"3522062005","district_id":"352206","name":"Kunci","postal_code":"62171"},{"id":"3522062006","district_id":"352206","name":"Jatiblimbing","postal_code":"62171"},{"id":"3522062007","district_id":"352206","name":"Ngraseh","postal_code":"62171"},{"id":"3522062008","district_id":"352206","name":"Mojoranu","postal_code":"62171"},{"id":"3522062009","district_id":"352206","name":"Sendangrejo","postal_code":"62171"},{"id":"3522062010","district_id":"352206","name":"Karangsono","postal_code":"62171"},{"id":"3522062011","district_id":"352206","name":"Sumberagung ","postal_code":"62171"},{"id":"3522062012","district_id":"352206","name":"Somodikaran ","postal_code":"62171"},{"id":"3522062013","district_id":"352206","name":"Ngumpakdalem ","postal_code":"62171"},{"id":"3522062014","district_id":"352206","name":"Sumbertlaseh ","postal_code":"62171"},{"id":"3522062015","district_id":"352206","name":"Ngulanan","postal_code":"62171"},{"id":"3522062016","district_id":"352206","name":"Ngablak","postal_code":"62171"}]