[{"id":"3522092001","district_id":"352209","name":"Pejok","postal_code":"62194"},{"id":"3522092002","district_id":"352209","name":"Cengkir","postal_code":"62194"},{"id":"3522092003","district_id":"352209","name":"Kepoh","postal_code":"62194"},{"id":"3522092004","district_id":"352209","name":"Sidomukti","postal_code":"62194"},{"id":"3522092005","district_id":"352209","name":"Simorejo","postal_code":"62194"},{"id":"3522092006","district_id":"352209","name":"Krangkong","postal_code":"62194"},{"id":"3522092007","district_id":"352209","name":"Nglumber","postal_code":"62194"},{"id":"3522092008","district_id":"352209","name":"Brangkal","postal_code":"62194"},{"id":"3522092009","district_id":"352209","name":"Mojosari","postal_code":"62194"},{"id":"3522092010","district_id":"352209","name":"Balongdowo","postal_code":"62194"},{"id":"3522092011","district_id":"352209","name":"Suberoto ","postal_code":"62194"},{"id":"3522092012","district_id":"352209","name":"Pohwates","postal_code":"62194"},{"id":"3522092013","district_id":"352209","name":"Turigede","postal_code":"62194"},{"id":"3522092014","district_id":"352209","name":"Bayemgede","postal_code":"62194"},{"id":"3522092015","district_id":"352209","name":"Tlogorejo","postal_code":"62194"},{"id":"3522092016","district_id":"352209","name":"Sumberagung","postal_code":"62194"},{"id":"3522092017","district_id":"352209","name":"Woro","postal_code":"62194"},{"id":"3522092018","district_id":"352209","name":"Bumirejo","postal_code":"62194"},{"id":"3522092019","district_id":"352209","name":"Betet","postal_code":"62194"},{"id":"3522092020","district_id":"352209","name":"Jipo","postal_code":"62194"},{"id":"3522092021","district_id":"352209","name":"Ngranggonanyar ","postal_code":"62194"},{"id":"3522092022","district_id":"352209","name":"Mudung","postal_code":"62194"},{"id":"3522092023","district_id":"352209","name":"Karangan","postal_code":"62194"},{"id":"3522092024","district_id":"352209","name":"Sugihwaras","postal_code":"62194"},{"id":"3522092025","district_id":"352209","name":"Sumbergede","postal_code":"62194"}]