[{"id":"3522142001","district_id":"352214","name":"Kumpulrejo ","postal_code":"62181"},{"id":"3522142002","district_id":"352214","name":"Bendo","postal_code":"62181"},{"id":"3522142003","district_id":"352214","name":"Padangmentoyo ","postal_code":"62181"},{"id":"3522142004","district_id":"352214","name":"Tapelan","postal_code":"62181"},{"id":"3522142005","district_id":"352214","name":"Bangilan","postal_code":"62181"},{"id":"3522142006","district_id":"352214","name":"Sembung","postal_code":"62181"},{"id":"3522142007","district_id":"352214","name":"Tanjungharjo ","postal_code":"62181"},{"id":"3522142008","district_id":"352214","name":"Wedi","postal_code":"62181"},{"id":"3522142009","district_id":"352214","name":"Plesungan","postal_code":"62181"},{"id":"3522142010","district_id":"352214","name":"Kedaton","postal_code":"62181"},{"id":"3522142011","district_id":"352214","name":"Kapas","postal_code":"62181"},{"id":"3522142012","district_id":"352214","name":"Semenpinggir ","postal_code":"62181"},{"id":"3522142013","district_id":"352214","name":"Bogo","postal_code":"62181"},{"id":"3522142014","district_id":"352214","name":"Bakalan","postal_code":"62181"},{"id":"3522142015","district_id":"352214","name":"Mojodeso","postal_code":"62181"},{"id":"3522142016","district_id":"352214","name":"Sukowati","postal_code":"62181"},{"id":"3522142017","district_id":"352214","name":"Kalianyar","postal_code":"62181"},{"id":"3522142018","district_id":"352214","name":"Tikusan","postal_code":"62181"},{"id":"3522142019","district_id":"352214","name":"Ngampel","postal_code":"62181"},{"id":"3522142020","district_id":"352214","name":"Sambiroto","postal_code":"62181"},{"id":"3522142021","district_id":"352214","name":"Klampok","postal_code":"62181"}]