[{"id":"3522132001","district_id":"352213","name":"Sidobandung","postal_code":"62182"},{"id":"3522132002","district_id":"352213","name":"Mayangkawis","postal_code":"62182"},{"id":"3522132003","district_id":"352213","name":"Kenep","postal_code":"62182"},{"id":"3522132004","district_id":"352213","name":"Pohbogo ","postal_code":"62182"},{"id":"3522132005","district_id":"352213","name":"Penganten","postal_code":"62182"},{"id":"3522132006","district_id":"352213","name":"Bulaklo","postal_code":"62182"},{"id":"3522132007","district_id":"352213","name":"Bulu","postal_code":"62182"},{"id":"3522132008","district_id":"352213","name":"Kemamang","postal_code":"62182"},{"id":"3522132009","district_id":"352213","name":"Ngadiluhur","postal_code":"62182"},{"id":"3522132010","district_id":"352213","name":"Kabunan","postal_code":"62182"},{"id":"3522132011","district_id":"352213","name":"Sobontoro","postal_code":"62182"},{"id":"3522132012","district_id":"352213","name":"Suwaloh","postal_code":"62182"},{"id":"3522132013","district_id":"352213","name":"Balenrejo","postal_code":"62182"},{"id":"3522132014","district_id":"352213","name":"Margomulyo","postal_code":"62168"},{"id":"3522132015","district_id":"352213","name":"Lengkong","postal_code":"62182"},{"id":"3522132016","district_id":"352213","name":"Mulyoagung","postal_code":"62182"},{"id":"3522132017","district_id":"352213","name":"Sekaran","postal_code":"62182"},{"id":"3522132018","district_id":"352213","name":"Prambatan","postal_code":"62182"},{"id":"3522132019","district_id":"352213","name":"Kedungdowo","postal_code":"62182"},{"id":"3522132020","district_id":"352213","name":"Kedungbendo ","postal_code":"62182"},{"id":"3522132021","district_id":"352213","name":"Pilanggede ","postal_code":"62182"},{"id":"3522132022","district_id":"352213","name":"Sarirejo","postal_code":"62182"},{"id":"3522132023","district_id":"352213","name":"Mulyorejo","postal_code":"62182"}]