[{"id":"3523142004","district_id":"352314","name":"Kebonagung","postal_code":"62370"},{"id":"3523142005","district_id":"352314","name":"Pekuwon","postal_code":"62370"},{"id":"3523142007","district_id":"352314","name":"Rengel","postal_code":"62370"},{"id":"3523142008","district_id":"352314","name":"Maibit","postal_code":"62370"},{"id":"3523142009","district_id":"352314","name":"Bulurejo","postal_code":"62370"},{"id":"3523142010","district_id":"352314","name":"Karangtinoto","postal_code":"62370"},{"id":"3523142011","district_id":"352314","name":"Sawahan","postal_code":"62370"},{"id":"3523142013","district_id":"352314","name":"Kanorejo","postal_code":"62370"},{"id":"3523142014","district_id":"352314","name":"Tambakrejo","postal_code":"62370"},{"id":"3523142016","district_id":"352314","name":"Ngadirejo","postal_code":"62370"},{"id":"3523142017","district_id":"352314","name":"Sumberejo","postal_code":"62370"},{"id":"3523142018","district_id":"352314","name":"Punggulrejo","postal_code":"62370"},{"id":"3523142019","district_id":"352314","name":"Campurejo","postal_code":"62370"},{"id":"3523142020","district_id":"352314","name":"Banjaragung","postal_code":"62370"},{"id":"3523142021","district_id":"352314","name":"Banjararum","postal_code":"62370"},{"id":"3523142022","district_id":"352314","name":"Prambonwetan ","postal_code":"62370"}]