[{"id":"3524092001","district_id":"352409","name":"Besur","postal_code":"62260"},{"id":"3524092002","district_id":"352409","name":"Titik","postal_code":"62260"},{"id":"3524092003","district_id":"352409","name":"Kendal","postal_code":"62260"},{"id":"3524092004","district_id":"352409","name":"Keting","postal_code":"62260"},{"id":"3524092005","district_id":"352409","name":"Ngarum","postal_code":"62260"},{"id":"3524092006","district_id":"352409","name":"Kebalankulon","postal_code":"62260"},{"id":"3524092007","district_id":"352409","name":"Kudikan","postal_code":"62260"},{"id":"3524092008","district_id":"352409","name":"Jugo","postal_code":"62260"},{"id":"3524092009","district_id":"352409","name":"Manyar","postal_code":"62260"},{"id":"3524092010","district_id":"352409","name":"Trosono","postal_code":"62260"},{"id":"3524092011","district_id":"352409","name":"Latek","postal_code":"62260"},{"id":"3524092012","district_id":"352409","name":"Miru","postal_code":"62260"},{"id":"3524092013","district_id":"352409","name":"Sekaran","postal_code":"62260"},{"id":"3524092014","district_id":"352409","name":"Moro","postal_code":"62260"},{"id":"3524092015","district_id":"352409","name":"Karang","postal_code":"62260"},{"id":"3524092016","district_id":"352409","name":"Kembangan","postal_code":"62260"},{"id":"3524092017","district_id":"352409","name":"Siman","postal_code":"62260"},{"id":"3524092018","district_id":"352409","name":"Bulutengger","postal_code":"62260"},{"id":"3524092019","district_id":"352409","name":"Porodeso","postal_code":"62260"},{"id":"3524092020","district_id":"352409","name":"Bugel","postal_code":"62260"},{"id":"3524092021","district_id":"352409","name":"Sungegeneng","postal_code":"62260"}]