[{"id":"3524242001","district_id":"352424","name":"Waruk","postal_code":"62293"},{"id":"3524242002","district_id":"352424","name":"Sukorejo","postal_code":"62293"},{"id":"3524242003","district_id":"352424","name":"Karanganom","postal_code":"62293"},{"id":"3524242004","district_id":"352424","name":"Somowinangun","postal_code":"62293"},{"id":"3524242005","district_id":"352424","name":"Ketapangtelu","postal_code":"62293"},{"id":"3524242006","district_id":"352424","name":"Mayong","postal_code":"62293"},{"id":"3524242007","district_id":"352424","name":"Palangan","postal_code":"62293"},{"id":"3524242008","district_id":"352424","name":"Blawi","postal_code":"62293"},{"id":"3524242009","district_id":"352424","name":"Banjarejo","postal_code":"62293"},{"id":"3524242010","district_id":"352424","name":"Putatbangah","postal_code":"62293"},{"id":"3524242011","district_id":"352424","name":"Banyuurip","postal_code":"62293"},{"id":"3524242012","district_id":"352424","name":"Pendowolimo","postal_code":"62293"},{"id":"3524242013","district_id":"352424","name":"Baranggayam","postal_code":"62293"},{"id":"3524242014","district_id":"352424","name":"Watangpanjang","postal_code":"62293"},{"id":"3524242015","district_id":"352424","name":"Sambopinggir","postal_code":"62293"},{"id":"3524242016","district_id":"352424","name":"Priyoso","postal_code":"62293"},{"id":"3524242017","district_id":"352424","name":"Windu","postal_code":"62293"},{"id":"3524242018","district_id":"352424","name":"Bogobabadan","postal_code":"62293"},{"id":"3524242019","district_id":"352424","name":"Gawerejo","postal_code":"62293"},{"id":"3524242020","district_id":"352424","name":"Kuro","postal_code":"62293"},{"id":"3524242021","district_id":"352424","name":"Karangbinangun","postal_code":"62293"}]