[{"id":"3524051001","district_id":"352405","name":"Banaran","postal_code":"62271"},{"id":"3524051003","district_id":"352405","name":"Babat","postal_code":"62271"},{"id":"3524052002","district_id":"352405","name":"Karangkembang","postal_code":"62271"},{"id":"3524052004","district_id":"352405","name":"Pucakwangi","postal_code":"62271"},{"id":"3524052005","district_id":"352405","name":"Sogo","postal_code":"62271"},{"id":"3524052006","district_id":"352405","name":"Bedahan","postal_code":"62271"},{"id":"3524052007","district_id":"352405","name":"Truni","postal_code":"62271"},{"id":"3524052008","district_id":"352405","name":"Gendongkulon ","postal_code":"62271"},{"id":"3524052009","district_id":"352405","name":"Plaosan","postal_code":"62271"},{"id":"3524052010","district_id":"352405","name":"Trepan","postal_code":"62271"},{"id":"3524052011","district_id":"352405","name":"Kuripan","postal_code":"62271"},{"id":"3524052012","district_id":"352405","name":"Kebalanpelang","postal_code":"62271"},{"id":"3524052013","district_id":"352405","name":"Sumurgenuk ","postal_code":"62271"},{"id":"3524052014","district_id":"352405","name":"Gembong","postal_code":"62271"},{"id":"3524052015","district_id":"352405","name":"Bulumargi","postal_code":"62271"},{"id":"3524052016","district_id":"352405","name":"Datinawong","postal_code":"62271"},{"id":"3524052017","district_id":"352405","name":"Kebalandono","postal_code":"62271"},{"id":"3524052018","district_id":"352405","name":"Patihan","postal_code":"62271"},{"id":"3524052019","district_id":"352405","name":"Moropelang","postal_code":"62271"},{"id":"3524052020","district_id":"352405","name":"Keyongan","postal_code":"62271"},{"id":"3524052021","district_id":"352405","name":"Sambangan","postal_code":"62271"},{"id":"3524052022","district_id":"352405","name":"Tritunggal","postal_code":"62271"},{"id":"3524052023","district_id":"352405","name":"Kebonagung","postal_code":"62271"}]