[{"id":"3524082001","district_id":"352408","name":"Dateng","postal_code":"62262"},{"id":"3524082002","district_id":"352408","name":"Jabung","postal_code":"62262"},{"id":"3524082003","district_id":"352408","name":"Keduyung","postal_code":"62262"},{"id":"3524082004","district_id":"352408","name":"Centini","postal_code":"62262"},{"id":"3524082005","district_id":"352408","name":"Durikulon","postal_code":"62262"},{"id":"3524082006","district_id":"352408","name":"Pesanggrahan","postal_code":"62262"},{"id":"3524082007","district_id":"352408","name":"Gelap","postal_code":"62262"},{"id":"3524082008","district_id":"352408","name":"Mojoasem","postal_code":"62262"},{"id":"3524082009","district_id":"352408","name":"Siser","postal_code":"62262"},{"id":"3524082010","district_id":"352408","name":"Bulutigo","postal_code":"62262"},{"id":"3524082011","district_id":"352408","name":"Pelangwot","postal_code":"62262"},{"id":"3524082012","district_id":"352408","name":"Laren","postal_code":"62262"},{"id":"3524082013","district_id":"352408","name":"Gampangsejati","postal_code":"62262"},{"id":"3524082014","district_id":"352408","name":"Tamanprijeg","postal_code":"62262"},{"id":"3524082015","district_id":"352408","name":"Karangtawar","postal_code":"62262"},{"id":"3524082016","district_id":"352408","name":"Tejoasri","postal_code":"62262"},{"id":"3524082017","district_id":"352408","name":"Godog","postal_code":"62262"},{"id":"3524082018","district_id":"352408","name":"Bulubrangsi","postal_code":"62262"},{"id":"3524082019","district_id":"352408","name":"Karangwungulor","postal_code":"62262"},{"id":"3524082020","district_id":"352408","name":"Brangsi","postal_code":"62262"}]