[{"id":"3524132001","district_id":"352413","name":"Pucuk","postal_code":"62257"},{"id":"3524132002","district_id":"352413","name":"Gempolpading","postal_code":"62257"},{"id":"3524132003","district_id":"352413","name":"Kesambi","postal_code":"62257"},{"id":"3524132004","district_id":"352413","name":"Plososetro","postal_code":"62257"},{"id":"3524132005","district_id":"352413","name":"Wanar","postal_code":"62257"},{"id":"3524132006","district_id":"352413","name":"Karangtinggil","postal_code":"62257"},{"id":"3524132007","district_id":"352413","name":"Warukulon","postal_code":"62257"},{"id":"3524132008","district_id":"352413","name":"Waruwetan","postal_code":"62257"},{"id":"3524132009","district_id":"352413","name":"Kedali","postal_code":"62257"},{"id":"3524132010","district_id":"352413","name":"Paji","postal_code":"62257"},{"id":"3524132011","district_id":"352413","name":"Sumberjo","postal_code":"62257"},{"id":"3524132012","district_id":"352413","name":"Cungkup","postal_code":"62257"},{"id":"3524132013","district_id":"352413","name":"Bugoharjo","postal_code":"62257"},{"id":"3524132014","district_id":"352413","name":"Ngambeg","postal_code":"62257"},{"id":"3524132015","district_id":"352413","name":"Babatkumpul","postal_code":"62257"},{"id":"3524132016","district_id":"352413","name":"Tanggungan","postal_code":"62257"},{"id":"3524132017","district_id":"352413","name":"Padenganploso","postal_code":"62257"}]