[{"id":"3525132001","district_id":"352513","name":"Beton","postal_code":"61174"},{"id":"3525132002","district_id":"352513","name":"Pranti","postal_code":"61174"},{"id":"3525132003","district_id":"352513","name":"Gadingwatu","postal_code":"61174"},{"id":"3525132004","district_id":"352513","name":"Bringkang","postal_code":"61174"},{"id":"3525132005","district_id":"352513","name":"Boteng","postal_code":"61174"},{"id":"3525132006","district_id":"352513","name":"Putatlor","postal_code":"61174"},{"id":"3525132007","district_id":"352513","name":"Domas","postal_code":"61174"},{"id":"3525132008","district_id":"352513","name":"Mojotengah","postal_code":"61174"},{"id":"3525132009","district_id":"352513","name":"Boboh","postal_code":"61174"},{"id":"3525132010","district_id":"352513","name":"Sidojangkung","postal_code":"61174"},{"id":"3525132011","district_id":"352513","name":"Hendrosari","postal_code":"61174"},{"id":"3525132012","district_id":"352513","name":"Pelemwatu","postal_code":"61174"},{"id":"3525132013","district_id":"352513","name":"Menganti","postal_code":"61174"},{"id":"3525132014","district_id":"352513","name":"Hulaan","postal_code":"61174"},{"id":"3525132015","district_id":"352513","name":"Kepatihan","postal_code":"61174"},{"id":"3525132016","district_id":"352513","name":"Gempolkurung","postal_code":"61174"},{"id":"3525132017","district_id":"352513","name":"Drancang","postal_code":"61174"},{"id":"3525132018","district_id":"352513","name":"Sidowungu","postal_code":"61174"},{"id":"3525132019","district_id":"352513","name":"Randupadangan","postal_code":"61174"},{"id":"3525132020","district_id":"352513","name":"Setro","postal_code":"61174"},{"id":"3525132021","district_id":"352513","name":"Pengalangan","postal_code":"61174"},{"id":"3525132022","district_id":"352513","name":"Laban","postal_code":"61174"}]