[{"id":"3525092001","district_id":"352509","name":"Sukorejo","postal_code":"61153"},{"id":"3525092002","district_id":"352509","name":"Gedangan","postal_code":"61153"},{"id":"3525092003","district_id":"352509","name":"Wadeng","postal_code":"61153"},{"id":"3525092004","district_id":"352509","name":"Lasem","postal_code":"61153"},{"id":"3525092005","district_id":"352509","name":"Kertosono","postal_code":"61153"},{"id":"3525092006","district_id":"352509","name":"Sambipondok","postal_code":"61153"},{"id":"3525092007","district_id":"352509","name":"Raci Kulon ","postal_code":"61153"},{"id":"3525092008","district_id":"352509","name":"Golokan","postal_code":"61153"},{"id":"3525092009","district_id":"352509","name":"Raci Tengah ","postal_code":"61153"},{"id":"3525092010","district_id":"352509","name":"Purwodadi","postal_code":"61153"},{"id":"3525092011","district_id":"352509","name":"Sidomulyo","postal_code":"61153"},{"id":"3525092012","district_id":"352509","name":"Srowo","postal_code":"61153"},{"id":"3525092013","district_id":"352509","name":"Kauman","postal_code":"61153"},{"id":"3525092014","district_id":"352509","name":"Bunderan","postal_code":"61153"},{"id":"3525092015","district_id":"352509","name":"Asempapak","postal_code":"61153"},{"id":"3525092016","district_id":"352509","name":"Mriyunan","postal_code":"61153"},{"id":"3525092017","district_id":"352509","name":"Mojoasem","postal_code":"61153"},{"id":"3525092018","district_id":"352509","name":"Sedagaran","postal_code":"61153"},{"id":"3525092019","district_id":"352509","name":"Ngawen","postal_code":"61153"},{"id":"3525092020","district_id":"352509","name":"Pengulu","postal_code":"61153"},{"id":"3525092021","district_id":"352509","name":"Randuboto","postal_code":"61153"}]