[{"id":"3526011001","district_id":"352601","name":"Mlajah","postal_code":"69116"},{"id":"3526011002","district_id":"352601","name":"Kemayoran","postal_code":"69116"},{"id":"3526011003","district_id":"352601","name":"Pangeranan","postal_code":"69115"},{"id":"3526011004","district_id":"352601","name":"Demangan","postal_code":"69115"},{"id":"3526011005","district_id":"352601","name":"Kraton","postal_code":"69119"},{"id":"3526011006","district_id":"352601","name":"Pejagan","postal_code":"69112"},{"id":"3526011007","district_id":"352601","name":"Bancaran","postal_code":"69112"},{"id":"3526012008","district_id":"352601","name":"Sembilangan","postal_code":"69118"},{"id":"3526012009","district_id":"352601","name":"Ujung Piring","postal_code":"69118"},{"id":"3526012010","district_id":"352601","name":"Kramat","postal_code":"69119"},{"id":"3526012011","district_id":"352601","name":"Martajasah","postal_code":"69119"},{"id":"3526012012","district_id":"352601","name":"Sabiyan","postal_code":"69113"},{"id":"3526012013","district_id":"352601","name":"Gebang","postal_code":"69114"}]