[{"id":"3526072001","district_id":"352607","name":"Klampis Barat","postal_code":"69153"},{"id":"3526072002","district_id":"352607","name":"Bulukagung","postal_code":"69153"},{"id":"3526072003","district_id":"352607","name":"Mrandung","postal_code":"69153"},{"id":"3526072004","district_id":"352607","name":"Tobaddung","postal_code":"69153"},{"id":"3526072005","district_id":"352607","name":"Tolbuk","postal_code":"69153"},{"id":"3526072006","district_id":"352607","name":"Moarah","postal_code":"69153"},{"id":"3526072007","district_id":"352607","name":"Ra'as","postal_code":"69153"},{"id":"3526072008","district_id":"352607","name":"Polongan","postal_code":"69153"},{"id":"3526072009","district_id":"352607","name":"Karang Asem","postal_code":"69153"},{"id":"3526072010","district_id":"352607","name":"Trogan","postal_code":"69153"},{"id":"3526072011","district_id":"352607","name":"Bulung","postal_code":"69153"},{"id":"3526072012","district_id":"352607","name":"Banteyan","postal_code":"69153"},{"id":"3526072013","district_id":"352607","name":"Bragang","postal_code":"69153"},{"id":"3526072014","district_id":"352607","name":"Lergunong","postal_code":"69153"},{"id":"3526072015","district_id":"352607","name":"Panyaksagan","postal_code":"69153"},{"id":"3526072016","district_id":"352607","name":"Manonggal","postal_code":"69153"},{"id":"3526072017","district_id":"352607","name":"Bator","postal_code":"69153"},{"id":"3526072018","district_id":"352607","name":"Klampis Timur","postal_code":"69153"},{"id":"3526072019","district_id":"352607","name":"Tenggun Dajah","postal_code":"69153"},{"id":"3526072020","district_id":"352607","name":"Larangan Sorjan","postal_code":"69153"},{"id":"3526072021","district_id":"352607","name":"Larangan Glintong","postal_code":"69153"},{"id":"3526072022","district_id":"352607","name":"Ko'ol","postal_code":"69153"}]