[{"id":"3526052001","district_id":"352605","name":"Arosbaya","postal_code":"69151"},{"id":"3526052002","district_id":"352605","name":"Tengket","postal_code":"69151"},{"id":"3526052003","district_id":"352605","name":"Lajing","postal_code":"69151"},{"id":"3526052004","district_id":"352605","name":"Balung","postal_code":"69151"},{"id":"3526052005","district_id":"352605","name":"Glagga","postal_code":"69151"},{"id":"3526052006","district_id":"352605","name":"Pandan Lanjang","postal_code":"69151"},{"id":"3526052007","district_id":"352605","name":"Batonaong","postal_code":"69151"},{"id":"3526052008","district_id":"352605","name":"Ombul","postal_code":"69151"},{"id":"3526052009","district_id":"352605","name":"Karang Duwak","postal_code":"69151"},{"id":"3526052010","district_id":"352605","name":"Berbeluk","postal_code":"69151"},{"id":"3526052011","district_id":"352605","name":"Buduran","postal_code":"69151"},{"id":"3526052012","district_id":"352605","name":"Tambegan","postal_code":"69151"},{"id":"3526052013","district_id":"352605","name":"Cendagah","postal_code":"69151"},{"id":"3526052014","district_id":"352605","name":"Mangkon","postal_code":"69151"},{"id":"3526052015","district_id":"352605","name":"Karang Pao","postal_code":"69151"},{"id":"3526052016","district_id":"352605","name":"Makam Agung","postal_code":"69151"},{"id":"3526052017","district_id":"352605","name":"Dlemer","postal_code":"69151"},{"id":"3526052018","district_id":"352605","name":"Plakaran","postal_code":"69151"}]