[{"id":"3526122001","district_id":"352612","name":"Kesek","postal_code":"69164"},{"id":"3526122002","district_id":"352612","name":"Labang","postal_code":"69164"},{"id":"3526122003","district_id":"352612","name":"Jukong","postal_code":"69164"},{"id":"3526122004","district_id":"352612","name":"Pangpong","postal_code":"69164"},{"id":"3526122005","district_id":"352612","name":"Sukolilo Timur","postal_code":"69164"},{"id":"3526122006","district_id":"352612","name":"Sukolilo Barat","postal_code":"69164"},{"id":"3526122007","district_id":"352612","name":"Bringin ","postal_code":"69164"},{"id":"3526122008","district_id":"352612","name":"Baengas ","postal_code":"69164"},{"id":"3526122009","district_id":"352612","name":"Bunajih","postal_code":"69164"},{"id":"3526122010","district_id":"352612","name":"Sendang Laok","postal_code":"69164"},{"id":"3526122011","district_id":"352612","name":"Sendang Daya\/Dajah","postal_code":"69164"},{"id":"3526122012","district_id":"352612","name":"Petapan","postal_code":"69164"},{"id":"3526122013","district_id":"352612","name":"Morkepek","postal_code":"69164"}]