[{"id":"3526152001","district_id":"352615","name":"Blega","postal_code":"69174"},{"id":"3526152002","district_id":"352615","name":"Rosep","postal_code":"69174"},{"id":"3526152003","district_id":"352615","name":"Nyor Manes","postal_code":"69174"},{"id":"3526152004","district_id":"352615","name":"Alas Rajah","postal_code":"69174"},{"id":"3526152005","district_id":"352615","name":"Blega Oloh","postal_code":"69174"},{"id":"3526152006","district_id":"352615","name":"Karang Nangkah","postal_code":"69174"},{"id":"3526152007","district_id":"352615","name":"Karang Panasan","postal_code":"69174"},{"id":"3526152008","district_id":"352615","name":"Karang Gayam","postal_code":"69174"},{"id":"3526152009","district_id":"352615","name":"Lomaer","postal_code":"69174"},{"id":"3526152010","district_id":"352615","name":"Bates","postal_code":"69174"},{"id":"3526152011","district_id":"352615","name":"Lombang Laok","postal_code":"69174"},{"id":"3526152012","district_id":"352615","name":"Lombang Dajah","postal_code":"69174"},{"id":"3526152013","district_id":"352615","name":"Karpote","postal_code":"69174"},{"id":"3526152014","district_id":"352615","name":"Kajjan","postal_code":"69174"},{"id":"3526152015","district_id":"352615","name":"Panjalinan","postal_code":"69174"},{"id":"3526152016","district_id":"352615","name":"Pangeran Gadungan","postal_code":"69174"},{"id":"3526152017","district_id":"352615","name":"Kampao","postal_code":"69174"},{"id":"3526152018","district_id":"352615","name":"Ko'olan","postal_code":"69174"},{"id":"3526152019","district_id":"352615","name":"Gigir","postal_code":"69174"}]