[{"id":"3528021018","district_id":"352802","name":"Barurambat Timur","postal_code":"69321"},{"id":"3528021019","district_id":"352802","name":"Lawangan Daya","postal_code":"69323"},{"id":"3528022001","district_id":"352802","name":"Tanjung","postal_code":"69323"},{"id":"3528022002","district_id":"352802","name":"Padelegan ","postal_code":"69323"},{"id":"3528022003","district_id":"352802","name":"Majungan","postal_code":"69323"},{"id":"3528022004","district_id":"352802","name":"Pagagan","postal_code":"69323"},{"id":"3528022005","district_id":"352802","name":"Jarin","postal_code":"69323"},{"id":"3528022006","district_id":"352802","name":"Baddurih","postal_code":"69323"},{"id":"3528022007","district_id":"352802","name":"Buddih","postal_code":"69323"},{"id":"3528022008","district_id":"352802","name":"Sopa'ah","postal_code":"69323"},{"id":"3528022009","district_id":"352802","name":"Prekbun","postal_code":"69323"},{"id":"3528022010","district_id":"352802","name":"Durbuk","postal_code":"69323"},{"id":"3528022011","district_id":"352802","name":"Pademawu Barat","postal_code":"69323"},{"id":"3528022012","district_id":"352802","name":"Pademawu Timur","postal_code":"69323"},{"id":"3528022013","district_id":"352802","name":"Bunder","postal_code":"69323"},{"id":"3528022014","district_id":"352802","name":"Dasok","postal_code":"69323"},{"id":"3528022015","district_id":"352802","name":"Murtajih","postal_code":"69323"},{"id":"3528022016","district_id":"352802","name":"Sumedangan","postal_code":"69323"},{"id":"3528022017","district_id":"352802","name":"Lemper","postal_code":"69323"},{"id":"3528022020","district_id":"352802","name":"Sentol","postal_code":"69323"},{"id":"3528022021","district_id":"352802","name":"Tambung","postal_code":"69323"},{"id":"3528022022","district_id":"352802","name":"Budagan ","postal_code":"69323"}]