[{"id":"3529122001","district_id":"352912","name":"Ambunten Barat","postal_code":"69455"},{"id":"3529122002","district_id":"352912","name":"Ambunten Tengah","postal_code":"69455"},{"id":"3529122003","district_id":"352912","name":"Ambunten Timur","postal_code":"69455"},{"id":"3529122004","district_id":"352912","name":"Tambaagung Barat","postal_code":"69455"},{"id":"3529122005","district_id":"352912","name":"Tambaagung Tengah","postal_code":"69455"},{"id":"3529122006","district_id":"352912","name":"Tambaagung Ares","postal_code":"69455"},{"id":"3529122007","district_id":"352912","name":"Sogian","postal_code":"69455"},{"id":"3529122008","district_id":"352912","name":"Tambaagung Timur","postal_code":"69455"},{"id":"3529122009","district_id":"352912","name":"Bukabu","postal_code":"69455"},{"id":"3529122010","district_id":"352912","name":"Campor Barat","postal_code":"69455"},{"id":"3529122011","district_id":"352912","name":"Keles","postal_code":"69455"},{"id":"3529122012","district_id":"352912","name":"Campor Timur","postal_code":"69455"},{"id":"3529122013","district_id":"352912","name":"Belluk Ares","postal_code":"69455"},{"id":"3529122014","district_id":"352912","name":"Belluk Kenek","postal_code":"69455"},{"id":"3529122015","district_id":"352912","name":"Belluk Raja","postal_code":"69455"}]