[{"id":"3529242001","district_id":"352924","name":"Pajanangger ","postal_code":"69491"},{"id":"3529242008","district_id":"352924","name":"Sawah Sumur ","postal_code":"69491"},{"id":"3529242009","district_id":"352924","name":"Paseraman","postal_code":"69491"},{"id":"3529242010","district_id":"352924","name":"Gelaman","postal_code":"69491"},{"id":"3529242011","district_id":"352924","name":"Buddi","postal_code":"69491"},{"id":"3529242012","district_id":"352924","name":"Kolo Kolo","postal_code":"69491"},{"id":"3529242013","district_id":"352924","name":"Angkatan","postal_code":"69491"},{"id":"3529242014","district_id":"352924","name":"Kalisangka","postal_code":"69491"},{"id":"3529242015","district_id":"352924","name":"Bilis Bilis","postal_code":"69491"},{"id":"3529242016","district_id":"352924","name":"Laok Jangjang","postal_code":"69491"},{"id":"3529242017","district_id":"352924","name":"Sumbernangka","postal_code":"69491"},{"id":"3529242018","district_id":"352924","name":"Duko","postal_code":"69491"},{"id":"3529242019","district_id":"352924","name":"Kalikatak","postal_code":"69491"},{"id":"3529242020","district_id":"352924","name":"Arjasa","postal_code":"69491"},{"id":"3529242021","district_id":"352924","name":"Kalinganyar ","postal_code":"69491"},{"id":"3529242022","district_id":"352924","name":"Angon Angon","postal_code":"69491"},{"id":"3529242023","district_id":"352924","name":"Sambakati","postal_code":"69491"},{"id":"3529242024","district_id":"352924","name":"Pandeman","postal_code":"69491"},{"id":"3529242025","district_id":"352924","name":"Pabean ","postal_code":"69491"}]