[{"id":"3571011001","district_id":"357101","name":"Bandar Lor","postal_code":"64114"},{"id":"3571011002","district_id":"357101","name":"Bandar Kidul","postal_code":"64118"},{"id":"3571011003","district_id":"357101","name":"Banjarmlati","postal_code":"64119"},{"id":"3571011004","district_id":"357101","name":"Pojok","postal_code":"64115"},{"id":"3571011005","district_id":"357101","name":"Sukorame","postal_code":"64114"},{"id":"3571011006","district_id":"357101","name":"Bujel","postal_code":"64119"},{"id":"3571011007","district_id":"357101","name":"Gayam","postal_code":"64113"},{"id":"3571011008","district_id":"357101","name":"Mrican","postal_code":"64111"},{"id":"3571011009","district_id":"357101","name":"Dermo","postal_code":"64111"},{"id":"3571011010","district_id":"357101","name":"Ngampel","postal_code":"64112"},{"id":"3571011011","district_id":"357101","name":"Mojoroto","postal_code":"64112"},{"id":"3571011012","district_id":"357101","name":"Campurejo","postal_code":"64116"},{"id":"3571011013","district_id":"357101","name":"Lirboyo","postal_code":"64117"},{"id":"3571011014","district_id":"357101","name":"Tamanan","postal_code":"64116"}]