[{"id":"3601022001","district_id":"360102","name":"Rancapinang","postal_code":"42284"},{"id":"3601022002","district_id":"360102","name":"Cibadak","postal_code":"42284"},{"id":"3601022003","district_id":"360102","name":"Tugu","postal_code":"42284"},{"id":"3601022004","district_id":"360102","name":"Batuhideung","postal_code":"42284"},{"id":"3601022005","district_id":"360102","name":"Padasuka","postal_code":"42284"},{"id":"3601022006","district_id":"360102","name":"Ciburial","postal_code":"42284"},{"id":"3601022007","district_id":"360102","name":"Cijaralang","postal_code":"42284"},{"id":"3601022008","district_id":"360102","name":"Cimanggu","postal_code":"42284"},{"id":"3601022009","district_id":"360102","name":"Mangkualam","postal_code":"42284"},{"id":"3601022010","district_id":"360102","name":"Tangkil Sari","postal_code":"42284"},{"id":"3601022011","district_id":"360102","name":"Waringin Kurung","postal_code":"42284"},{"id":"3601022012","district_id":"360102","name":"Kramatjaya","postal_code":"42284"}]