[{"id":"3602141002","district_id":"360214","name":"Rangkasbitung Barat","postal_code":"42312"},{"id":"3602141006","district_id":"360214","name":"Cijoro Lebak","postal_code":"42317"},{"id":"3602141007","district_id":"360214","name":"Muara Ciujung Barat","postal_code":"42311"},{"id":"3602141008","district_id":"360214","name":"Cijoro Pasir","postal_code":"42316"},{"id":"3602141012","district_id":"360214","name":"Muara Ciujung Timur","postal_code":"42314"},{"id":"3602142001","district_id":"360214","name":"Pasirtanjung","postal_code":"42312"},{"id":"3602142009","district_id":"360214","name":"Citeras","postal_code":"42312"},{"id":"3602142010","district_id":"360214","name":"Nameng","postal_code":"42312"},{"id":"3602142011","district_id":"360214","name":"Kolelet Wetan","postal_code":"42312"},{"id":"3602142013","district_id":"360214","name":"Jatimulya","postal_code":"42315"},{"id":"3602142014","district_id":"360214","name":"Mekarsari","postal_code":"42312"},{"id":"3602142016","district_id":"360214","name":"Pabuaran","postal_code":"42312"},{"id":"3602142017","district_id":"360214","name":"Rangkasbitung Timur","postal_code":"42313"},{"id":"3602142019","district_id":"360214","name":"Sukamanah","postal_code":"42312"},{"id":"3602142021","district_id":"360214","name":"Cimangeunteung","postal_code":"42312"},{"id":"3602142023","district_id":"360214","name":"Narimbang Mulia","postal_code":"42319"}]