[{"id":"3602152001","district_id":"360215","name":"Sukarendah","postal_code":"42352"},{"id":"3602152002","district_id":"360215","name":"Warunggunung","postal_code":"42352"},{"id":"3602152003","district_id":"360215","name":"Cibuah","postal_code":"42352"},{"id":"3602152004","district_id":"360215","name":"Pasir Tangkil ","postal_code":"42352"},{"id":"3602152005","district_id":"360215","name":"Baros","postal_code":"42352"},{"id":"3602152006","district_id":"360215","name":"Banjarsari","postal_code":"42352"},{"id":"3602152007","district_id":"360215","name":"Padasuka","postal_code":"42352"},{"id":"3602152008","district_id":"360215","name":"Sukaraja","postal_code":"42352"},{"id":"3602152009","district_id":"360215","name":"Jagabaya","postal_code":"42352"},{"id":"3602152010","district_id":"360215","name":"Selaraja","postal_code":"42352"},{"id":"3602152011","district_id":"360215","name":"Cempaka","postal_code":"42352"},{"id":"3602152012","district_id":"360215","name":"Sindangsari","postal_code":"42352"}]