[{"id":"3602082001","district_id":"360208","name":"Gunungkencana ","postal_code":"42354"},{"id":"3602082002","district_id":"360208","name":"Cimanyangray","postal_code":"42354"},{"id":"3602082003","district_id":"360208","name":"Gunungkendeng","postal_code":"42354"},{"id":"3602082004","district_id":"360208","name":"Cisampang","postal_code":"42354"},{"id":"3602082005","district_id":"360208","name":"Ciginggang","postal_code":"42354"},{"id":"3602082006","district_id":"360208","name":"Ciakar","postal_code":"42354"},{"id":"3602082007","district_id":"360208","name":"Cicaringin","postal_code":"42354"},{"id":"3602082008","district_id":"360208","name":"Bulakan","postal_code":"42354"},{"id":"3602082009","district_id":"360208","name":"Sukanegara","postal_code":"42354"},{"id":"3602082010","district_id":"360208","name":"Bojongkoneng","postal_code":"42354"},{"id":"3602082011","district_id":"360208","name":"Keramatjaya\/Kramatjaya","postal_code":"42354"},{"id":"3602082012","district_id":"360208","name":"Tanjungsari Indah","postal_code":"42354"}]