[{"id":"3602052003","district_id":"360205","name":"Pasireurih","postal_code":"42364"},{"id":"3602052004","district_id":"360205","name":"Ciminyak","postal_code":"42364"},{"id":"3602052005","district_id":"360205","name":"Muncang","postal_code":"42364"},{"id":"3602052006","district_id":"360205","name":"Leuwicoo","postal_code":"42364"},{"id":"3602052007","district_id":"360205","name":"Sindangwangi","postal_code":"42364"},{"id":"3602052008","district_id":"360205","name":"Cikarang","postal_code":"42364"},{"id":"3602052012","district_id":"360205","name":"Sukanagara","postal_code":"42364"},{"id":"3602052013","district_id":"360205","name":"Pasirnangka","postal_code":"42364"},{"id":"3602052018","district_id":"360205","name":"Jagaraksa","postal_code":"42364"},{"id":"3602052019","district_id":"360205","name":"Tanjungwangi","postal_code":"42364"},{"id":"3602052020","district_id":"360205","name":"Mekarwangi","postal_code":"42364"},{"id":"3602052021","district_id":"360205","name":"Girijagabaya","postal_code":"42364"}]