[{"id":"3603132001","district_id":"360313","name":"Teluknaga ","postal_code":"15510"},{"id":"3603132002","district_id":"360313","name":"Bojong Renged","postal_code":"15510"},{"id":"3603132003","district_id":"360313","name":"Babakan Asem","postal_code":"15510"},{"id":"3603132004","district_id":"360313","name":"Keboncau ","postal_code":"15510"},{"id":"3603132005","district_id":"360313","name":"Pangkalan","postal_code":"15510"},{"id":"3603132006","district_id":"360313","name":"Kampung Melayu Timur","postal_code":"15510"},{"id":"3603132007","district_id":"360313","name":"Kampung Melayu Barat","postal_code":"15510"},{"id":"3603132008","district_id":"360313","name":"Muara","postal_code":"15510"},{"id":"3603132009","district_id":"360313","name":"Lemo","postal_code":"15510"},{"id":"3603132010","district_id":"360313","name":"Tanjung Pasir","postal_code":"15510"},{"id":"3603132011","district_id":"360313","name":"Tegal Angus","postal_code":"15510"},{"id":"3603132012","district_id":"360313","name":"Tanjung Burung","postal_code":"15510"},{"id":"3603132013","district_id":"360313","name":"Kampung Besar","postal_code":"15510"}]