[{"id":"3604292001","district_id":"360429","name":"Padarincang","postal_code":"42168"},{"id":"3604292002","district_id":"360429","name":"Bugel","postal_code":"42168"},{"id":"3604292003","district_id":"360429","name":"Cibojong","postal_code":"42168"},{"id":"3604292004","district_id":"360429","name":"Citasuk","postal_code":"42168"},{"id":"3604292005","district_id":"360429","name":"Cisaat","postal_code":"42168"},{"id":"3604292006","district_id":"360429","name":"Ciomas","postal_code":"42168"},{"id":"3604292007","district_id":"360429","name":"Barugbug","postal_code":"42168"},{"id":"3604292008","district_id":"360429","name":"Batu Kuwung","postal_code":"42168"},{"id":"3604292009","district_id":"360429","name":"Kramatlaban","postal_code":"42168"},{"id":"3604292010","district_id":"360429","name":"Kalumpang","postal_code":"42168"},{"id":"3604292011","district_id":"360429","name":"Kadubeureum","postal_code":"42168"},{"id":"3604292012","district_id":"360429","name":"Cipayung","postal_code":"42168"},{"id":"3604292013","district_id":"360429","name":"Curug Goong","postal_code":"42168"},{"id":"3604292014","district_id":"360429","name":"Kadu Kempong","postal_code":"42168"}]