[{"id":"3604302001","district_id":"360430","name":"Anyar","postal_code":"42166"},{"id":"3604302002","district_id":"360430","name":"Sindang Mandi","postal_code":"42166"},{"id":"3604302003","district_id":"360430","name":"Cikoneng","postal_code":"42166"},{"id":"3604302004","district_id":"360430","name":"Tanjung Manis","postal_code":"42166"},{"id":"3604302005","district_id":"360430","name":"Bandulu","postal_code":"42166"},{"id":"3604302006","district_id":"360430","name":"Bunihara","postal_code":"42166"},{"id":"3604302007","district_id":"360430","name":"Kosambironyok","postal_code":"42166"},{"id":"3604302008","district_id":"360430","name":"Banjarsari","postal_code":"42166"},{"id":"3604302009","district_id":"360430","name":"Mekarsari","postal_code":"42166"},{"id":"3604302010","district_id":"360430","name":"Sindangkarya","postal_code":"42166"},{"id":"3604302011","district_id":"360430","name":"Tambang Ayam","postal_code":"42166"},{"id":"3604302012","district_id":"360430","name":"Grogol Indah","postal_code":"42166"}]