[{"id":"5201092001","district_id":"520109","name":"Gunungsari ","postal_code":"83351"},{"id":"5201092002","district_id":"520109","name":"Midang","postal_code":"83351"},{"id":"5201092003","district_id":"520109","name":"Sesele ","postal_code":"83351"},{"id":"5201092004","district_id":"520109","name":"Kekait","postal_code":"83351"},{"id":"5201092005","district_id":"520109","name":"Kekeri","postal_code":"83351"},{"id":"5201092006","district_id":"520109","name":"Nambalan ","postal_code":"83351"},{"id":"5201092007","district_id":"520109","name":"Dopang","postal_code":"83351"},{"id":"5201092008","district_id":"520109","name":"Penimbung","postal_code":"83351"},{"id":"5201092009","district_id":"520109","name":"Taman Sari","postal_code":"83351"},{"id":"5201092010","district_id":"520109","name":"Jatisela","postal_code":"83351"},{"id":"5201092011","district_id":"520109","name":"Guntur Macan","postal_code":"83351"},{"id":"5201092012","district_id":"520109","name":"Mekar Sari ","postal_code":"83351"},{"id":"5201092013","district_id":"520109","name":"Ranjok","postal_code":"83351"},{"id":"5201092014","district_id":"520109","name":"Gelangsar","postal_code":"83351"},{"id":"5201092015","district_id":"520109","name":"Jeringo ","postal_code":"83351"},{"id":"5201092016","district_id":"520109","name":"Bukittinggi","postal_code":"83351"}]