[{"id":"5202022001","district_id":"520202","name":"Barejulat","postal_code":"83561"},{"id":"5202022002","district_id":"520202","name":"Ubung","postal_code":"83561"},{"id":"5202022003","district_id":"520202","name":"Jelantik","postal_code":"83561"},{"id":"5202022004","district_id":"520202","name":"Labulia","postal_code":"83561"},{"id":"5202022005","district_id":"520202","name":"Batu Tulis","postal_code":"83561"},{"id":"5202022006","district_id":"520202","name":"Perina","postal_code":"83561"},{"id":"5202022007","district_id":"520202","name":"Pengenjek","postal_code":"83561"},{"id":"5202022008","district_id":"520202","name":"Puyung","postal_code":"83561"},{"id":"5202022009","district_id":"520202","name":"Nyerot","postal_code":"83561"},{"id":"5202022010","district_id":"520202","name":"Sukarara","postal_code":"83561"},{"id":"5202022011","district_id":"520202","name":"Gemel","postal_code":"83561"},{"id":"5202022012","district_id":"520202","name":"Bonjeruk","postal_code":"83561"},{"id":"5202022013","district_id":"520202","name":"Bunkate","postal_code":"83561"}]