[{"id":"5202072001","district_id":"520207","name":"Lekor","postal_code":"83554"},{"id":"5202072002","district_id":"520207","name":"Langko","postal_code":"83554"},{"id":"5202072003","district_id":"520207","name":"Janapria","postal_code":"83554"},{"id":"5202072004","district_id":"520207","name":"Loang Maka","postal_code":"83554"},{"id":"5202072005","district_id":"520207","name":"Saba","postal_code":"83554"},{"id":"5202072006","district_id":"520207","name":"Bakan","postal_code":"83554"},{"id":"5202072007","district_id":"520207","name":"Durian","postal_code":"83554"},{"id":"5202072008","district_id":"520207","name":"Pendem","postal_code":"83554"},{"id":"5202072009","district_id":"520207","name":"Selebung Rembiga","postal_code":"83554"},{"id":"5202072010","district_id":"520207","name":"Kerembong","postal_code":"83554"},{"id":"5202072011","district_id":"520207","name":"Jango","postal_code":"83554"},{"id":"5202072012","district_id":"520207","name":"Setuta","postal_code":"83554"},{"id":"5202072013","district_id":"520207","name":"Prako","postal_code":"83554"},{"id":"5202072014","district_id":"520207","name":"Tibu Sisok","postal_code":"83554"},{"id":"5202072015","district_id":"520207","name":"Janggawana","postal_code":"83554"},{"id":"5202072016","district_id":"520207","name":"Lingkok Berenge","postal_code":"83554"}]