[{"id":"5202092001","district_id":"520209","name":"Lendang Are","postal_code":"83553"},{"id":"5202092002","district_id":"520209","name":"Monggas","postal_code":"83553"},{"id":"5202092003","district_id":"520209","name":"Muncan","postal_code":"83553"},{"id":"5202092004","district_id":"520209","name":"Bebuak","postal_code":"83553"},{"id":"5202092005","district_id":"520209","name":"Kopang Rembiga","postal_code":"83553"},{"id":"5202092006","district_id":"520209","name":"Dasan Baru","postal_code":"83553"},{"id":"5202092007","district_id":"520209","name":"Montong Gamang","postal_code":"83553"},{"id":"5202092008","district_id":"520209","name":"Darmaji","postal_code":"83553"},{"id":"5202092009","district_id":"520209","name":"Wajageseng","postal_code":"83553"},{"id":"5202092010","district_id":"520209","name":"Aik Bual","postal_code":"83553"},{"id":"5202092011","district_id":"520209","name":"Semparu","postal_code":"83553"},{"id":"5202092012","district_id":"520209","name":"Berinding","postal_code":"83553"},{"id":"5202092013","district_id":"520209","name":"Pajangan","postal_code":"83553"}]