[{"id":"5203071001","district_id":"520307","name":"Pancor","postal_code":"83611"},{"id":"5203071002","district_id":"520307","name":"Selong","postal_code":"83619"},{"id":"5203071003","district_id":"520307","name":"Kelayu Selatan","postal_code":"83613"},{"id":"5203071004","district_id":"520307","name":"Denggen","postal_code":"83618"},{"id":"5203071005","district_id":"520307","name":"Sekarteja","postal_code":"83611"},{"id":"5203071006","district_id":"520307","name":"Majidi","postal_code":"83619"},{"id":"5203071007","district_id":"520307","name":"Rakam","postal_code":"83619"},{"id":"5203071008","district_id":"520307","name":"Sandu Baya","postal_code":"83612"},{"id":"5203071009","district_id":"520307","name":"Kembang Sari","postal_code":"83618"},{"id":"5203071010","district_id":"520307","name":"Kelayu Utara","postal_code":"83619"},{"id":"5203071011","district_id":"520307","name":"Kelaju Jorong","postal_code":"83617"},{"id":"5203072012","district_id":"520307","name":"Danggen Timur","postal_code":"83618"}]