[{"id":"5206022001","district_id":"520602","name":"Tambe","postal_code":"84161"},{"id":"5206022002","district_id":"520602","name":"Rasabau","postal_code":"84161"},{"id":"5206022003","district_id":"520602","name":"Rato","postal_code":"84161"},{"id":"5206022004","district_id":"520602","name":"Kananga","postal_code":"84161"},{"id":"5206022005","district_id":"520602","name":"Leu","postal_code":"84161"},{"id":"5206022006","district_id":"520602","name":"Timu","postal_code":"84161"},{"id":"5206022007","district_id":"520602","name":"Bontokape","postal_code":"84161"},{"id":"5206022008","district_id":"520602","name":"Sondosia","postal_code":"84161"},{"id":"5206022009","district_id":"520602","name":"Nggembe","postal_code":"84161"},{"id":"5206022010","district_id":"520602","name":"Sanolo","postal_code":"84161"},{"id":"5206022011","district_id":"520602","name":"Tumpu","postal_code":"84161"},{"id":"5206022012","district_id":"520602","name":"Rada","postal_code":"84161"},{"id":"5206022013","district_id":"520602","name":"Kara","postal_code":"84161"},{"id":"5206022014","district_id":"520602","name":"Darussalam","postal_code":"84161"}]