[{"id":"5302032001","district_id":"530203","name":"O'besi","postal_code":"85552"},{"id":"5302032002","district_id":"530203","name":"Eonbesi","postal_code":"85552"},{"id":"5302032003","district_id":"530203","name":"Bosen","postal_code":"85552"},{"id":"5302032004","district_id":"530203","name":"Sebot","postal_code":"85552"},{"id":"5302032007","district_id":"530203","name":"Ajaobaki","postal_code":"85552"},{"id":"5302032008","district_id":"530203","name":"Netpala","postal_code":"85552"},{"id":"5302032009","district_id":"530203","name":"Tunua","postal_code":"85552"},{"id":"5302032010","district_id":"530203","name":"Bijaepunu","postal_code":"85552"},{"id":"5302032011","district_id":"530203","name":"Nefokoko","postal_code":"85552"},{"id":"5302032012","district_id":"530203","name":"Leloboko","postal_code":"85552"},{"id":"5302032013","district_id":"530203","name":"Lelobatan","postal_code":"85552"},{"id":"5302032014","district_id":"530203","name":"Halmei","postal_code":"85552"},{"id":"5302032015","district_id":"530203","name":"Fatukoto","postal_code":"85552"},{"id":"5302032016","district_id":"530203","name":"Kokfe'u","postal_code":"85552"},{"id":"5302032017","district_id":"530203","name":"To'fen","postal_code":"85552"},{"id":"5302032018","district_id":"530203","name":"Taiftob","postal_code":"85552"},{"id":"5302032019","district_id":"530203","name":"Iusmolo","postal_code":"85552"},{"id":"5302032020","district_id":"530203","name":"To'manat","postal_code":"85552"}]