[{"id":"5303021026","district_id":"530302","name":"Eban","postal_code":"85661"},{"id":"5303021027","district_id":"530302","name":"Sallu","postal_code":"85661"},{"id":"5303022001","district_id":"530302","name":"Noepesu","postal_code":"85661"},{"id":"5303022002","district_id":"530302","name":"Fatuneno","postal_code":"85661"},{"id":"5303022003","district_id":"530302","name":"Suanae","postal_code":"85661"},{"id":"5303022004","district_id":"530302","name":"Lemon","postal_code":"85661"},{"id":"5303022005","district_id":"530302","name":"Fatunisuan","postal_code":"85661"},{"id":"5303022006","district_id":"530302","name":"Haulasi","postal_code":"85661"},{"id":"5303022018","district_id":"530302","name":"Neotoko","postal_code":"85661"},{"id":"5303022019","district_id":"530302","name":"Fatutasu","postal_code":"85661"},{"id":"5303022020","district_id":"530302","name":"Manusasi","postal_code":"85661"},{"id":"5303022025","district_id":"530302","name":"Saenam","postal_code":"85661"},{"id":"5303022028","district_id":"530302","name":"Sa'tab","postal_code":"85661"}]