[{"id":"5305031001","district_id":"530503","name":"Moru","postal_code":"85861"},{"id":"5305032002","district_id":"530503","name":"Probur","postal_code":"85861"},{"id":"5305032007","district_id":"530503","name":"Morba","postal_code":"85861"},{"id":"5305032008","district_id":"530503","name":"Pintumas","postal_code":"85861"},{"id":"5305032009","district_id":"530503","name":"Wolwal","postal_code":"85861"},{"id":"5305032010","district_id":"530503","name":"Halerman","postal_code":"85861"},{"id":"5305032013","district_id":"530503","name":"Kafelulang","postal_code":"85861"},{"id":"5305032014","district_id":"530503","name":"Moramam","postal_code":"85861"},{"id":"5305032015","district_id":"530503","name":"Pailelang","postal_code":"85861"},{"id":"5305032016","district_id":"530503","name":"Wolwal Barat","postal_code":"85861"},{"id":"5305032017","district_id":"530503","name":"Wolwal Tengah","postal_code":"85861"},{"id":"5305032018","district_id":"530503","name":"Wolwal Selatan","postal_code":"85861"},{"id":"5305032019","district_id":"530503","name":"Probur Utara","postal_code":"85861"}]