[{"id":"5306132001","district_id":"530613","name":"Bedalewun","postal_code":"86253"},{"id":"5306132002","district_id":"530613","name":"Nihaone","postal_code":"86253"},{"id":"5306132003","district_id":"530613","name":"Lewobelolong","postal_code":"86253"},{"id":"5306132004","district_id":"530613","name":"Bungalawan","postal_code":"86253"},{"id":"5306132005","district_id":"530613","name":"Lamawolo","postal_code":"86253"},{"id":"5306132006","district_id":"530613","name":"Helanlangowuyo","postal_code":"86253"},{"id":"5306132007","district_id":"530613","name":"Lewopao","postal_code":"86253"},{"id":"5306132008","district_id":"530613","name":"Gayak","postal_code":"86253"},{"id":"5306132009","district_id":"530613","name":"Boleng","postal_code":"86253"},{"id":"5306132010","district_id":"530613","name":"Neleblolong","postal_code":"86253"},{"id":"5306132011","district_id":"530613","name":"Duablolong","postal_code":"86253"},{"id":"5306132012","district_id":"530613","name":"Lewokeleng","postal_code":"86253"},{"id":"5306132013","district_id":"530613","name":"Nelelamawangi","postal_code":"86253"},{"id":"5306132014","district_id":"530613","name":"Harubala","postal_code":"86253"},{"id":"5306132015","district_id":"530613","name":"Nelelamadike","postal_code":"86253"},{"id":"5306132016","district_id":"530613","name":"Lamabayung","postal_code":"86253"},{"id":"5306132017","district_id":"530613","name":"Lewat","postal_code":"86253"},{"id":"5306132018","district_id":"530613","name":"Dokeng","postal_code":"86253"},{"id":"5306132019","district_id":"530613","name":"Bayuntaa","postal_code":"86253"},{"id":"5306132020","district_id":"530613","name":"Nobo","postal_code":"86253"},{"id":"5306132021","district_id":"530613","name":"Nelelamawangi Dua","postal_code":"86253"}]