[{"id":"5306052006","district_id":"530605","name":"Lewobunga","postal_code":"86251"},{"id":"5306052007","district_id":"530605","name":"Sinamalaka","postal_code":"86251"},{"id":"5306052008","district_id":"530605","name":"Ratulodong ","postal_code":"86251"},{"id":"5306052009","district_id":"530605","name":"Sinarhadigala ","postal_code":"86251"},{"id":"5306052010","district_id":"530605","name":"Bahinga","postal_code":"86251"},{"id":"5306052011","district_id":"530605","name":"Waibao","postal_code":"86251"},{"id":"5306052012","district_id":"530605","name":"Lamatutu","postal_code":"86251"},{"id":"5306052013","district_id":"530605","name":"Latonliwo ","postal_code":"86251"},{"id":"5306052015","district_id":"530605","name":"Kolaka","postal_code":"86251"},{"id":"5306052016","district_id":"530605","name":"Bandona","postal_code":"86251"},{"id":"5306052017","district_id":"530605","name":"Nusa Nipa ","postal_code":"86251"},{"id":"5306052018","district_id":"530605","name":"Patisira Walang ","postal_code":"86251"},{"id":"5306052020","district_id":"530605","name":"Gekengderan","postal_code":"86251"},{"id":"5306052021","district_id":"530605","name":"Aransina","postal_code":"86251"},{"id":"5306052022","district_id":"530605","name":"Latonliwo Dua","postal_code":"86251"},{"id":"5306052023","district_id":"530605","name":"Lamanabi","postal_code":"86251"}]