[{"id":"5308212001","district_id":"530821","name":"Nggumbelaka","postal_code":"86376"},{"id":"5308212002","district_id":"530821","name":"Mukureku","postal_code":"86376"},{"id":"5308212003","district_id":"530821","name":"Wologai Timur","postal_code":"86376"},{"id":"5308212004","district_id":"530821","name":"Kuru","postal_code":"86375"},{"id":"5308212005","district_id":"530821","name":"Ndenggarongge ","postal_code":"86375"},{"id":"5308212006","district_id":"530821","name":"Ndikosapu","postal_code":"86378"},{"id":"5308212007","district_id":"530821","name":"Taniwoda","postal_code":"86374"},{"id":"5308212008","district_id":"530821","name":"Tanalangi","postal_code":"86374"},{"id":"5308212009","district_id":"530821","name":"Detuara","postal_code":"86374"},{"id":"5308212010","district_id":"530821","name":"Tiwusora","postal_code":"86374"},{"id":"5308212011","district_id":"530821","name":"Lisekuru ","postal_code":"86379"},{"id":"5308212012","district_id":"530821","name":"Rutujeja ","postal_code":"86377"},{"id":"5308212013","district_id":"530821","name":"Mukureku Sa'ate ","postal_code":"86376"},{"id":"5308212014","district_id":"530821","name":"Kurusare ","postal_code":"86375"}]