[{"id":"5309091010","district_id":"530909","name":"Benteng Tengah","postal_code":"86419"},{"id":"5309091011","district_id":"530909","name":"Nangamese","postal_code":"86419"},{"id":"5309092005","district_id":"530909","name":"Taenterong ","postal_code":"86419"},{"id":"5309092006","district_id":"530909","name":"Wangka","postal_code":"86419"},{"id":"5309092008","district_id":"530909","name":"Lengkosambi","postal_code":"86419"},{"id":"5309092009","district_id":"530909","name":"Tadho","postal_code":"86419"},{"id":"5309092012","district_id":"530909","name":"Sambinasi","postal_code":"86419"},{"id":"5309092013","district_id":"530909","name":"Latung","postal_code":"86419"},{"id":"5309092014","district_id":"530909","name":"Rawangkalo","postal_code":"86419"},{"id":"5309092016","district_id":"530909","name":"Wangka Selatan","postal_code":"86419"},{"id":"5309092017","district_id":"530909","name":"Lengkosambi Timur","postal_code":"86419"},{"id":"5309092018","district_id":"530909","name":"Lengkosambi Barat","postal_code":"86419"},{"id":"5309092019","district_id":"530909","name":"Sambinasi Barat","postal_code":"86419"},{"id":"5309092020","district_id":"530909","name":"Lengkosambi Utara","postal_code":"86419"},{"id":"5309092021","district_id":"530909","name":"Taen Terong Satu","postal_code":"86419"},{"id":"5309092022","district_id":"530909","name":"Taen Terong Dua","postal_code":"86419"},{"id":"5309092023","district_id":"530909","name":"Kota Raja","postal_code":"86419"},{"id":"5309092024","district_id":"530909","name":"Ite Jaya","postal_code":"86419"},{"id":"5309092025","district_id":"530909","name":"Wangka Barat","postal_code":"86419"},{"id":"5309092026","district_id":"530909","name":"Lengkosambi Tengah","postal_code":"86419"},{"id":"5309092027","district_id":"530909","name":"Tadho Timur","postal_code":"86419"},{"id":"5309092028","district_id":"530909","name":"Tadho Barat","postal_code":"86419"},{"id":"5309092029","district_id":"530909","name":"Tadho Tengah","postal_code":"86419"},{"id":"5309092030","district_id":"530909","name":"Sambinasi Tengah","postal_code":"86419"},{"id":"5309092031","district_id":"530909","name":"Latung Barat","postal_code":"86419"},{"id":"5309092032","district_id":"530909","name":"Rawangkalo I","postal_code":"86419"},{"id":"5309092033","district_id":"530909","name":"Rawangkalo II","postal_code":"86419"},{"id":"5309092034","district_id":"530909","name":"Wakamanga","postal_code":"86419"},{"id":"5309092035","district_id":"530909","name":"Lengkosambi Barat Daya","postal_code":"86419"}]