[{"id":"5315012001","district_id":"531501","name":"Bari","postal_code":"86756"},{"id":"5315012002","district_id":"531501","name":"Rokap","postal_code":"86756"},{"id":"5315012003","district_id":"531501","name":"Mbakung","postal_code":"86756"},{"id":"5315012004","district_id":"531501","name":"Nggilat","postal_code":"86756"},{"id":"5315012005","district_id":"531501","name":"Rego","postal_code":"86756"},{"id":"5315012006","district_id":"531501","name":"Wontong","postal_code":"86756"},{"id":"5315012007","district_id":"531501","name":"Raba","postal_code":"86756"},{"id":"5315012008","district_id":"531501","name":"Nanga Kantor","postal_code":"86756"},{"id":"5315012014","district_id":"531501","name":"Watubaru","postal_code":"86756"},{"id":"5315012015","district_id":"531501","name":"Lewat","postal_code":"86756"},{"id":"5315012016","district_id":"531501","name":"Watu Manggar","postal_code":"86756"},{"id":"5315012025","district_id":"531501","name":"Sarae Naru","postal_code":"86756"},{"id":"5315012026","district_id":"531501","name":"Nanga Kantor Barat","postal_code":"86756"}]