[{"id":"5315031032","district_id":"531503","name":"Tangge","postal_code":"86753"},{"id":"5315032003","district_id":"531503","name":"Wae Wako","postal_code":"86753"},{"id":"5315032010","district_id":"531503","name":"Wae Kanta","postal_code":"86753"},{"id":"5315032011","district_id":"531503","name":"Ponto Ara","postal_code":"86753"},{"id":"5315032012","district_id":"531503","name":"Wae Bangka","postal_code":"86753"},{"id":"5315032013","district_id":"531503","name":"Pong Majok","postal_code":"86753"},{"id":"5315032014","district_id":"531503","name":"Daleng","postal_code":"86753"},{"id":"5315032021","district_id":"531503","name":"Siru","postal_code":"86753"},{"id":"5315032022","district_id":"531503","name":"Pondo","postal_code":"86753"},{"id":"5315032023","district_id":"531503","name":"Poco Rutang","postal_code":"86753"},{"id":"5315032025","district_id":"531503","name":"Ngancar","postal_code":"86753"},{"id":"5315032033","district_id":"531503","name":"LIang Sola","postal_code":"86753"},{"id":"5315032034","district_id":"531503","name":"Wae Mowol","postal_code":"86753"},{"id":"5315032035","district_id":"531503","name":"Golo Ndeweng","postal_code":"86753"},{"id":"5315032036","district_id":"531503","name":"Poco Dedeng","postal_code":"86753"}]