[{"id":"5316062001","district_id":"531606","name":"Witurombaua","postal_code":"86464"},{"id":"5316062002","district_id":"531606","name":"Lewangera","postal_code":"86464"},{"id":"5316062003","district_id":"531606","name":"Wajo","postal_code":"86464"},{"id":"5316062004","district_id":"531606","name":"Kotowuji Timur ","postal_code":"86464"},{"id":"5316062005","district_id":"531606","name":"Kotowuji Barat ","postal_code":"86464"},{"id":"5316062006","district_id":"531606","name":"Mbaenuamuri","postal_code":"86464"},{"id":"5316062007","district_id":"531606","name":"Udiworowatu","postal_code":"86464"},{"id":"5316062008","district_id":"531606","name":"Kotodirumali ","postal_code":"86464"},{"id":"5316062009","district_id":"531606","name":"Pautola","postal_code":"86464"},{"id":"5316062010","district_id":"531606","name":"Ladolima","postal_code":"86464"},{"id":"5316062011","district_id":"531606","name":"Keli","postal_code":"86464"},{"id":"5316062012","district_id":"531606","name":"Ngera","postal_code":"86464"},{"id":"5316062013","district_id":"531606","name":"Ladolima Timur","postal_code":"86464"},{"id":"5316062014","district_id":"531606","name":"Ladolima Utara ","postal_code":"86464"},{"id":"5316062015","district_id":"531606","name":"Wajo Timur","postal_code":"86464"},{"id":"5316062016","district_id":"531606","name":"Paumali","postal_code":"86464"}]