[{"id":"5318062001","district_id":"531806","name":"Dinjo","postal_code":"87264"},{"id":"5318062002","district_id":"531806","name":"Lete Loko","postal_code":"87264"},{"id":"5318062003","district_id":"531806","name":"Walla Ndimu","postal_code":"87264"},{"id":"5318062006","district_id":"531806","name":"Waikadada","postal_code":"87264"},{"id":"5318062010","district_id":"531806","name":"Rada Loko","postal_code":"87264"},{"id":"5318062011","district_id":"531806","name":"Mata Kapore","postal_code":"87264"},{"id":"5318062012","district_id":"531806","name":"Umbu Ngedo","postal_code":"87264"},{"id":"5318062014","district_id":"531806","name":"Waimakaha","postal_code":"87264"},{"id":"5318062015","district_id":"531806","name":"Waimaringi","postal_code":"87264"},{"id":"5318062016","district_id":"531806","name":"Tana Mete","postal_code":"87264"},{"id":"5318062017","district_id":"531806","name":"Waipaddi","postal_code":"87264"},{"id":"5318062018","district_id":"531806","name":"Manu Toghi","postal_code":"87264"},{"id":"5318062019","district_id":"531806","name":"Karang Indah","postal_code":"87264"},{"id":"5318062020","district_id":"531806","name":"Rada Malando","postal_code":"87264"},{"id":"5318062021","district_id":"531806","name":"Waikaninyo","postal_code":"87264"},{"id":"5318062022","district_id":"531806","name":"Ana Goka","postal_code":"87264"},{"id":"5318062023","district_id":"531806","name":"Delu Depa","postal_code":"87264"},{"id":"5318062024","district_id":"531806","name":"Mere Kehe","postal_code":"87264"},{"id":"5318062025","district_id":"531806","name":"Bondo Balla","postal_code":"87264"},{"id":"5318062026","district_id":"531806","name":"Maliti Bondo Ate","postal_code":"87264"},{"id":"5318062027","district_id":"531806","name":"Ana Lewe","postal_code":"87264"}]