[{"id":"5319032001","district_id":"531903","name":"Tengku Leda","postal_code":"86582"},{"id":"5319032002","district_id":"531903","name":"Tengku Lawar","postal_code":"86582"},{"id":"5319032003","district_id":"531903","name":"Goreng Meni","postal_code":"86582"},{"id":"5319032004","district_id":"531903","name":"Golo Munga","postal_code":"86582"},{"id":"5319032009","district_id":"531903","name":"Golo Rentung","postal_code":"86582"},{"id":"5319032010","district_id":"531903","name":"Golo Lembur","postal_code":"86582"},{"id":"5319032011","district_id":"531903","name":"Compang Necak","postal_code":"86582"},{"id":"5319032013","district_id":"531903","name":"Compang Mekar","postal_code":"86582"},{"id":"5319032014","district_id":"531903","name":"Compang Deru","postal_code":"86582"},{"id":"5319032016","district_id":"531903","name":"Golo Nimbung","postal_code":"86582"},{"id":"5319032017","district_id":"531903","name":"Lamba Keli","postal_code":"86582"},{"id":"5319032021","district_id":"531903","name":"Goreng Meni Utara","postal_code":"86582"},{"id":"5319032023","district_id":"531903","name":"Golo Paleng","postal_code":"86582"}]