[{"id":"5319082001","district_id":"531908","name":"Watu Arus","postal_code":"86585"},{"id":"5319082002","district_id":"531908","name":"Arus","postal_code":"86585"},{"id":"5319082003","district_id":"531908","name":"Golo Lero","postal_code":"86585"},{"id":"5319082004","district_id":"531908","name":"Rengkam","postal_code":"86585"},{"id":"5319082005","district_id":"531908","name":"Compang Wunis","postal_code":"86585"},{"id":"5319082006","district_id":"531908","name":"Benteng Rampas","postal_code":"86585"},{"id":"5319082007","district_id":"531908","name":"Ngkiong Dora","postal_code":"86585"},{"id":"5319082008","district_id":"531908","name":"Ulu Wae","postal_code":"86585"},{"id":"5319082009","district_id":"531908","name":"Rende Nao","postal_code":"86585"},{"id":"5319082010","district_id":"531908","name":"Wangkar Weli","postal_code":"86585"},{"id":"5319082011","district_id":"531908","name":"Tango Molas","postal_code":"86585"},{"id":"5319082012","district_id":"531908","name":"Urung Dora","postal_code":"86585"},{"id":"5319082013","district_id":"531908","name":"Compang Raci","postal_code":"86585"},{"id":"5319082014","district_id":"531908","name":"Wejang Mawe","postal_code":"86585"},{"id":"5319082015","district_id":"531908","name":"Bangka Arus","postal_code":"86585"},{"id":"5319082016","district_id":"531908","name":"Colol","postal_code":"86585"},{"id":"5319082017","district_id":"531908","name":"Benteng Wunis","postal_code":"86585"},{"id":"5319082018","district_id":"531908","name":"Wejang Mali","postal_code":"86585"}]