[{"id":"6101102001","district_id":"610110","name":"Balai Gemuruh","postal_code":"79417"},{"id":"6101102002","district_id":"610110","name":"Sungai Sapa'","postal_code":"79417"},{"id":"6101102003","district_id":"610110","name":"Madak","postal_code":"79417"},{"id":"6101102004","district_id":"610110","name":"Sabung","postal_code":"79417"},{"id":"6101102005","district_id":"610110","name":"Tebuah Elok","postal_code":"79417"},{"id":"6101102006","district_id":"610110","name":"Sungai Deden","postal_code":"79417"},{"id":"6101102007","district_id":"610110","name":"Bukit Mulya","postal_code":"79417"},{"id":"6101102008","district_id":"610110","name":"Mukti Raharja","postal_code":"79417"},{"id":"6101102009","district_id":"610110","name":"Sempurna","postal_code":"79417"},{"id":"6101102010","district_id":"610110","name":"Mensade","postal_code":"79417"},{"id":"6101102011","district_id":"610110","name":"Karaban Jaya","postal_code":"79417"},{"id":"6101102012","district_id":"610110","name":"Arga Pura","postal_code":"79417"},{"id":"6101102013","district_id":"610110","name":"Sapak Hulu Trans","postal_code":"79417"}]