[{"id":"6101062001","district_id":"610106","name":"Sulung","postal_code":"79463"},{"id":"6101062002","district_id":"610106","name":"Penakalan","postal_code":"79463"},{"id":"6101062003","district_id":"610106","name":"Sekuduk","postal_code":"79463"},{"id":"6101062004","district_id":"610106","name":"Setalik","postal_code":"79463"},{"id":"6101062005","district_id":"610106","name":"Parit Raja","postal_code":"79463"},{"id":"6101062006","district_id":"610106","name":"Piantus","postal_code":"79463"},{"id":"6101062007","district_id":"610106","name":"Perigi Landu","postal_code":"79463"},{"id":"6101062008","district_id":"610106","name":"Sendoyan","postal_code":"79463"},{"id":"6101062009","district_id":"610106","name":"Senujuh","postal_code":"79463"},{"id":"6101062010","district_id":"610106","name":"Perigi Limus","postal_code":"79463"},{"id":"6101062011","district_id":"610106","name":"Semangga ","postal_code":"79463"},{"id":"6101062012","district_id":"610106","name":"Sepantai","postal_code":"79463"}]