[{"id":"6103122001","district_id":"610312","name":"Hilir","postal_code":"78563"},{"id":"6103122002","district_id":"610312","name":"Padi Kaye","postal_code":"78563"},{"id":"6103122003","district_id":"610312","name":"Temiang Mali","postal_code":"78563"},{"id":"6103122004","district_id":"610312","name":"Cowet ","postal_code":"78563"},{"id":"6103122005","district_id":"610312","name":"Kebadu","postal_code":"78563"},{"id":"6103122006","district_id":"610312","name":"Kawing ","postal_code":"78563"},{"id":"6103122007","district_id":"610312","name":"Tae","postal_code":"78563"},{"id":"6103122008","district_id":"610312","name":"Semoncol","postal_code":"78563"},{"id":"6103122009","district_id":"610312","name":"Empirang Ujung","postal_code":"78563"},{"id":"6103122010","district_id":"610312","name":"Bulu Bala","postal_code":"78563"},{"id":"6103122011","district_id":"610312","name":"Temiang Taba","postal_code":"78563"},{"id":"6103122012","district_id":"610312","name":"Senyabang","postal_code":"78563"}]