[{"id":"6103092001","district_id":"610309","name":"Pusat Damai","postal_code":"78561"},{"id":"6103092002","district_id":"610309","name":"Maju Karya","postal_code":"78561"},{"id":"6103092003","district_id":"610309","name":"Sebara","postal_code":"78561"},{"id":"6103092004","district_id":"610309","name":"Pandu Raya","postal_code":"78561"},{"id":"6103092005","district_id":"610309","name":"Embala","postal_code":"78561"},{"id":"6103092006","district_id":"610309","name":"Hibun","postal_code":"78561"},{"id":"6103092007","district_id":"610309","name":"Maringin Jaya ","postal_code":"78561"},{"id":"6103092008","district_id":"610309","name":"Suka Mulya","postal_code":"78561"},{"id":"6103092009","district_id":"610309","name":"Palem Jaya","postal_code":"78561"},{"id":"6103092010","district_id":"610309","name":"Rahayu","postal_code":"78561"},{"id":"6103092011","district_id":"610309","name":"Dosan","postal_code":"78561"},{"id":"6103092012","district_id":"610309","name":"Suka Gerundi ","postal_code":"78561"},{"id":"6103092013","district_id":"610309","name":"Gunam","postal_code":"78561"},{"id":"6103092014","district_id":"610309","name":"Marita","postal_code":"78561"}]