[{"id":"6104032001","district_id":"610403","name":"Manis Mata","postal_code":"78864"},{"id":"6104032002","district_id":"610403","name":"Air Dekakah","postal_code":"78864"},{"id":"6104032003","district_id":"610403","name":"Suka Ramai","postal_code":"78864"},{"id":"6104032004","district_id":"610403","name":"Suak Burung","postal_code":"78864"},{"id":"6104032005","district_id":"610403","name":"Silat","postal_code":"78864"},{"id":"6104032006","district_id":"610403","name":"Terusan","postal_code":"78864"},{"id":"6104032007","district_id":"610403","name":"Kemuning","postal_code":"78864"},{"id":"6104032008","district_id":"610403","name":"Kelampai","postal_code":"78864"},{"id":"6104032009","district_id":"610403","name":"Bukit Gajah","postal_code":"78864"},{"id":"6104032010","district_id":"610403","name":"Lembah Mukti","postal_code":"78864"},{"id":"6104032011","district_id":"610403","name":"Asam Besar","postal_code":"78864"},{"id":"6104032012","district_id":"610403","name":"Batu Sedau","postal_code":"78864"},{"id":"6104032013","district_id":"610403","name":"Jambi","postal_code":"78864"},{"id":"6104032014","district_id":"610403","name":"Seguling","postal_code":"78864"},{"id":"6104032015","district_id":"610403","name":"Kelimantan","postal_code":"78864"},{"id":"6104032016","district_id":"610403","name":"Pelempangan","postal_code":"78864"},{"id":"6104032017","district_id":"610403","name":"Sengkuang Merabong ","postal_code":"78864"},{"id":"6104032018","district_id":"610403","name":"Pakit Selaba","postal_code":"78864"},{"id":"6104032019","district_id":"610403","name":"Sungai Buluh","postal_code":"78864"},{"id":"6104032020","district_id":"610403","name":"Ratu Elok","postal_code":"78864"},{"id":"6104032021","district_id":"610403","name":"Mekar Jaya","postal_code":"78864"},{"id":"6104032022","district_id":"610403","name":"Tribun Jaya","postal_code":"78864"}]