[{"id":"6106192001","district_id":"610619","name":"Nanga Danau","postal_code":"78758"},{"id":"6106192002","district_id":"610619","name":"Boyan Tanjung","postal_code":"78758"},{"id":"6106192003","district_id":"610619","name":"Riam Mengelai","postal_code":"78758"},{"id":"6106192004","district_id":"610619","name":"Nanga Sangan","postal_code":"78758"},{"id":"6106192005","district_id":"610619","name":"Sri Wangi","postal_code":"78758"},{"id":"6106192006","district_id":"610619","name":"Nanga Boyan","postal_code":"78758"},{"id":"6106192007","district_id":"610619","name":"Nanga Betung","postal_code":"78758"},{"id":"6106192008","district_id":"610619","name":"Mujan","postal_code":"78758"},{"id":"6106192009","district_id":"610619","name":"Nanga Jemah","postal_code":"78758"},{"id":"6106192010","district_id":"610619","name":"Tubang Jaya","postal_code":"78758"},{"id":"6106192011","district_id":"610619","name":"Karya Maju","postal_code":"78758"},{"id":"6106192012","district_id":"610619","name":"Landau Mentail","postal_code":"78758"},{"id":"6106192013","district_id":"610619","name":"Delintas Karya","postal_code":"78758"},{"id":"6106192014","district_id":"610619","name":"Teluk Geruguk","postal_code":"78758"},{"id":"6106192015","district_id":"610619","name":"Nanga Ret","postal_code":"78758"},{"id":"6106192016","district_id":"610619","name":"Pemawan","postal_code":"78758"}]