[{"id":"6106092001","district_id":"610609","name":"Gudang Hulu","postal_code":"78765"},{"id":"6106092002","district_id":"610609","name":"Gudang Hilir","postal_code":"78765"},{"id":"6106092003","district_id":"610609","name":"Dalam","postal_code":"78765"},{"id":"6106092004","district_id":"610609","name":"Nibung","postal_code":"78765"},{"id":"6106092005","district_id":"610609","name":"Piasak Hilir","postal_code":"78765"},{"id":"6106092006","district_id":"610609","name":"Engkerengas","postal_code":"78765"},{"id":"6106092007","district_id":"610609","name":"Gerayau","postal_code":"78765"},{"id":"6106092008","district_id":"610609","name":"Benuis","postal_code":"78765"},{"id":"6106092012","district_id":"610609","name":"Titian Kuala","postal_code":"78765"},{"id":"6106092013","district_id":"610609","name":"Sekubah","postal_code":"78765"},{"id":"6106092014","district_id":"610609","name":"Piasak Hulu","postal_code":"78765"},{"id":"6106092015","district_id":"610609","name":"Sekulat","postal_code":"78765"},{"id":"6106092016","district_id":"610609","name":"Nanga Leboyan","postal_code":"78765"},{"id":"6106092017","district_id":"610609","name":"Vega","postal_code":"78765"},{"id":"6106092018","district_id":"610609","name":"Mawan","postal_code":"78765"},{"id":"6106092019","district_id":"610609","name":"Semalah","postal_code":"78765"},{"id":"6106092020","district_id":"610609","name":"Tempurau","postal_code":"78765"}]