[{"id":"6109062001","district_id":"610906","name":"Sebetung","postal_code":"79587"},{"id":"6109062002","district_id":"610906","name":"Seburuk Satu","postal_code":"79587"},{"id":"6109062003","district_id":"610906","name":"Sungai Tapah","postal_code":"79587"},{"id":"6109062004","district_id":"610906","name":"Ijuk","postal_code":"79587"},{"id":"6109062005","district_id":"610906","name":"Mengaret","postal_code":"79587"},{"id":"6109062006","district_id":"610906","name":"Kumpang Ilong","postal_code":"79587"},{"id":"6109062007","district_id":"610906","name":"Sungai Antu Hulu","postal_code":"79587"},{"id":"6109062008","district_id":"610906","name":"Terduk Dampak","postal_code":"79587"},{"id":"6109062009","district_id":"610906","name":"Pakit Mulau","postal_code":"79587"},{"id":"6109062010","district_id":"610906","name":"Tabuk Hulu","postal_code":"79587"},{"id":"6109062011","district_id":"610906","name":"Batuk Mulau","postal_code":"79587"},{"id":"6109062012","district_id":"610906","name":"Balai Sepuak","postal_code":"79587"},{"id":"6109062013","district_id":"610906","name":"Bukit Rambat","postal_code":"79587"}]