[{"id":"6110032001","district_id":"611003","name":"Nanga Ella Hilir","postal_code":"79681"},{"id":"6110032002","district_id":"611003","name":"Lengkong Nyadom","postal_code":"79681"},{"id":"6110032003","district_id":"611003","name":"Nanga Nuak","postal_code":"79681"},{"id":"6110032004","district_id":"611003","name":"Nanga Kalan","postal_code":"79681"},{"id":"6110032005","district_id":"611003","name":"Nanga Nyuruh","postal_code":"79681"},{"id":"6110032006","district_id":"611003","name":"Nanga Kempangai","postal_code":"79681"},{"id":"6110032007","district_id":"611003","name":"Kerangan Kora","postal_code":"79681"},{"id":"6110032008","district_id":"611003","name":"Penyuguk","postal_code":"79681"},{"id":"6110032009","district_id":"611003","name":"Popai","postal_code":"79681"},{"id":"6110032010","district_id":"611003","name":"Kahiya","postal_code":"79681"},{"id":"6110032011","district_id":"611003","name":"Bemban Permai","postal_code":"79681"},{"id":"6110032012","district_id":"611003","name":"Perembang Nyuruh","postal_code":"79681"},{"id":"6110032013","district_id":"611003","name":"Sungai Labuk","postal_code":"79681"},{"id":"6110032014","district_id":"611003","name":"Sungai Mentoba","postal_code":"79681"},{"id":"6110032015","district_id":"611003","name":"Natai Compa","postal_code":"79681"},{"id":"6110032016","district_id":"611003","name":"Pelempai Jaya","postal_code":"79681"},{"id":"6110032017","district_id":"611003","name":"Domet Permai","postal_code":"79681"},{"id":"6110032018","district_id":"611003","name":"Nyangau","postal_code":"79681"},{"id":"6110032019","district_id":"611003","name":"Jabai","postal_code":"79681"}]