[{"id":"6110072001","district_id":"611007","name":"Nanga Sokan","postal_code":"79675"},{"id":"6110072002","district_id":"611007","name":"Tanjung Sokan","postal_code":"79675"},{"id":"6110072003","district_id":"611007","name":"Sijau","postal_code":"79675"},{"id":"6110072004","district_id":"611007","name":"Keluing Taja","postal_code":"79675"},{"id":"6110072005","district_id":"611007","name":"Nanga Betangai","postal_code":"79675"},{"id":"6110072006","district_id":"611007","name":"Gelata","postal_code":"79675"},{"id":"6110072007","district_id":"611007","name":"Nanga Ora","postal_code":"79675"},{"id":"6110072008","district_id":"611007","name":"Nanga Libas","postal_code":"79675"},{"id":"6110072009","district_id":"611007","name":"Telaga Raya","postal_code":"79675"},{"id":"6110072010","district_id":"611007","name":"Teluk Pongkal ","postal_code":"79675"},{"id":"6110072011","district_id":"611007","name":"Nanga Tangkit","postal_code":"79675"},{"id":"6110072012","district_id":"611007","name":"Penyengkuang","postal_code":"79675"},{"id":"6110072013","district_id":"611007","name":"Melana","postal_code":"79675"},{"id":"6110072014","district_id":"611007","name":"Nanga Potai","postal_code":"79675"},{"id":"6110072015","district_id":"611007","name":"Sepakat","postal_code":"79675"},{"id":"6110072016","district_id":"611007","name":"Muara Tanjung","postal_code":"79675"},{"id":"6110072017","district_id":"611007","name":"Landau Kabu","postal_code":"79675"},{"id":"6110072018","district_id":"611007","name":"Tanjung Mahung","postal_code":"79675"}]