[{"id":"6112052001","district_id":"611205","name":"Tanjungberingin ","postal_code":"78385"},{"id":"6112052002","district_id":"611205","name":"Batu Ampar","postal_code":"78385"},{"id":"6112052003","district_id":"611205","name":"Teluknibung ","postal_code":"78385"},{"id":"6112052004","district_id":"611205","name":"Padang Tikar Satu ","postal_code":"78385"},{"id":"6112052005","district_id":"611205","name":"Padang Tikar Dua ","postal_code":"78385"},{"id":"6112052006","district_id":"611205","name":"Tasik Malaya","postal_code":"78385"},{"id":"6112052007","district_id":"611205","name":"Sungaibesar ","postal_code":"78385"},{"id":"6112052008","district_id":"611205","name":"Sungaijawi ","postal_code":"78385"},{"id":"6112052009","district_id":"611205","name":"Nipah Panjang","postal_code":"78385"},{"id":"6112052010","district_id":"611205","name":"Ambarawa","postal_code":"78385"},{"id":"6112052011","district_id":"611205","name":"Tanjungharapan ","postal_code":"78385"},{"id":"6112052012","district_id":"611205","name":"Sungaikerawang ","postal_code":"78385"},{"id":"6112052013","district_id":"611205","name":"Sumber Agung","postal_code":"78385"},{"id":"6112052014","district_id":"611205","name":"Muara Tiga","postal_code":"78385"},{"id":"6112052015","district_id":"611205","name":"Medan Mas","postal_code":"78385"}]