[{"id":"6112092001","district_id":"611209","name":"Sungai Kakap","postal_code":"78380"},{"id":"6112092002","district_id":"611209","name":"Sungai Itik","postal_code":"78380"},{"id":"6112092003","district_id":"611209","name":"Jeruju Besar","postal_code":"78380"},{"id":"6112092004","district_id":"611209","name":"Sungai Kupah","postal_code":"78380"},{"id":"6112092005","district_id":"611209","name":"Sungai Rengas","postal_code":"78380"},{"id":"6112092006","district_id":"611209","name":"Pal Sembilan","postal_code":"78380"},{"id":"6112092007","district_id":"611209","name":"Sungai Belidak","postal_code":"78380"},{"id":"6112092008","district_id":"611209","name":"Kalimas","postal_code":"78380"},{"id":"6112092009","district_id":"611209","name":"Punggur Kecil","postal_code":"78380"},{"id":"6112092010","district_id":"611209","name":"Punggur Besar","postal_code":"78380"},{"id":"6112092011","district_id":"611209","name":"Tanjung Saleh","postal_code":"78380"},{"id":"6112092012","district_id":"611209","name":"Sepuk Laut","postal_code":"78380"},{"id":"6112092013","district_id":"611209","name":"Punggur Kapuas","postal_code":"78380"},{"id":"6112092014","district_id":"611209","name":"Rengas Kapuas","postal_code":"78380"},{"id":"6112092015","district_id":"611209","name":"Parit Keladi","postal_code":"78380"}]