[{"id":"6112062001","district_id":"611206","name":"Kubu","postal_code":"78384"},{"id":"6112062002","district_id":"611206","name":"Olak-Olak Kubu","postal_code":"78384"},{"id":"6112062003","district_id":"611206","name":"Sungai Selamat","postal_code":"78384"},{"id":"6112062004","district_id":"611206","name":"Sungai Bemban","postal_code":"78384"},{"id":"6112062005","district_id":"611206","name":"Pinang Luar","postal_code":"78384"},{"id":"6112062006","district_id":"611206","name":"Seruat Dua","postal_code":"78384"},{"id":"6112062007","district_id":"611206","name":"Seruat Tiga","postal_code":"78384"},{"id":"6112062008","district_id":"611206","name":"Dabong","postal_code":"78384"},{"id":"6112062009","district_id":"611206","name":"Ambawang","postal_code":"78384"},{"id":"6112062010","district_id":"611206","name":"Sepakat Baru","postal_code":"78384"},{"id":"6112062011","district_id":"611206","name":"Kampung Baru","postal_code":"78384"},{"id":"6112062012","district_id":"611206","name":"Air Putih","postal_code":"78384"},{"id":"6112062013","district_id":"611206","name":"Teluk Nangka","postal_code":"78384"},{"id":"6112062014","district_id":"611206","name":"Jangkang Satu","postal_code":"78384"},{"id":"6112062015","district_id":"611206","name":"Jangkang Dua","postal_code":"78384"},{"id":"6112062016","district_id":"611206","name":"Pinang Dalam","postal_code":"78384"},{"id":"6112062017","district_id":"611206","name":"Sungai Terus","postal_code":"78384"},{"id":"6112062018","district_id":"611206","name":"Pelita Jaya","postal_code":"78384"},{"id":"6112062019","district_id":"611206","name":"Mengkalang","postal_code":"78384"},{"id":"6112062020","district_id":"611206","name":"Mengkalang Jambu","postal_code":"78384"}]