[{"id":"6203162001","district_id":"620316","name":"Dadahup","postal_code":"73593"},{"id":"6203162002","district_id":"620316","name":"Tambak Bajai","postal_code":"73593"},{"id":"6203162003","district_id":"620316","name":"Bina Jaya","postal_code":"73593"},{"id":"6203162004","district_id":"620316","name":"Harapan Baru","postal_code":"73593"},{"id":"6203162005","district_id":"620316","name":"Bentuk Jaya","postal_code":"73593"},{"id":"6203162006","district_id":"620316","name":"Sumber Agung","postal_code":"73593"},{"id":"6203162007","district_id":"620316","name":"Petak Batuah","postal_code":"73593"},{"id":"6203162008","district_id":"620316","name":"Manuntung","postal_code":"73593"},{"id":"6203162009","district_id":"620316","name":"Sumber Alaska","postal_code":"73593"},{"id":"6203162010","district_id":"620316","name":"Menteng Karya","postal_code":"73593"},{"id":"6203162011","district_id":"620316","name":"Tanjung Harapan","postal_code":"73593"},{"id":"6203162012","district_id":"620316","name":"Kahuripan Permai","postal_code":"73593"},{"id":"6203162013","district_id":"620316","name":"Dadahup Raya","postal_code":"73593"}]