[{"id":"6205061015","district_id":"620506","name":"Lahei I","postal_code":"73852"},{"id":"6205061016","district_id":"620506","name":"Lahei II","postal_code":"73852"},{"id":"6205062001","district_id":"620506","name":"Ipu","postal_code":"73852"},{"id":"6205062002","district_id":"620506","name":"Mukut","postal_code":"73852"},{"id":"6205062014","district_id":"620506","name":"Muara Bakah","postal_code":"73852"},{"id":"6205062017","district_id":"620506","name":"Juju Baru","postal_code":"73852"},{"id":"6205062018","district_id":"620506","name":"Muara Inu","postal_code":"73852"},{"id":"6205062019","district_id":"620506","name":"Bengahon","postal_code":"73852"},{"id":"6205062020","district_id":"620506","name":"Rahaden","postal_code":"73852"},{"id":"6205062021","district_id":"620506","name":"Muara Pari","postal_code":"73852"},{"id":"6205062022","district_id":"620506","name":"Haragandang","postal_code":"73852"},{"id":"6205062023","district_id":"620506","name":"Karendan","postal_code":"73852"},{"id":"6205062024","district_id":"620506","name":"Hurung Enep","postal_code":"73852"}]