[{"id":"6210031005","district_id":"621003","name":"Tewah","postal_code":"74552"},{"id":"6210032001","district_id":"621003","name":"Sare Rangan","postal_code":"74552"},{"id":"6210032002","district_id":"621003","name":"Tumbang Pajangei","postal_code":"74552"},{"id":"6210032003","district_id":"621003","name":"Kasintu","postal_code":"74552"},{"id":"6210032004","district_id":"621003","name":"Batu Nyiwuh","postal_code":"74552"},{"id":"6210032006","district_id":"621003","name":"Tumbang Habaon","postal_code":"74552"},{"id":"6210032007","district_id":"621003","name":"Sei Riang","postal_code":"74552"},{"id":"6210032008","district_id":"621003","name":"Sandung Tambun","postal_code":"74552"},{"id":"6210032009","district_id":"621003","name":"Tanjung Untung","postal_code":"74552"},{"id":"6210032010","district_id":"621003","name":"Upon Batu","postal_code":"74552"},{"id":"6210032011","district_id":"621003","name":"Sumur Mas","postal_code":"74552"},{"id":"6210032012","district_id":"621003","name":"Batu Nyapau","postal_code":"74552"},{"id":"6210032013","district_id":"621003","name":"Taja Urap","postal_code":"74552"},{"id":"6210032014","district_id":"621003","name":"Teluk Lawah","postal_code":"74552"},{"id":"6210032015","district_id":"621003","name":"Karason Raya","postal_code":"74552"},{"id":"6210032016","district_id":"621003","name":"Rangan Mihing","postal_code":"74552"}]