[{"id":"6211062001","district_id":"621106","name":"Tahai Jaya","postal_code":"74873"},{"id":"6211062002","district_id":"621106","name":"Purwodadi","postal_code":"74873"},{"id":"6211062003","district_id":"621106","name":"Wono Agung","postal_code":"74873"},{"id":"6211062004","district_id":"621106","name":"Kanamit Barat","postal_code":"74873"},{"id":"6211062005","district_id":"621106","name":"Sei Baru Tewu","postal_code":"74873"},{"id":"6211062006","district_id":"621106","name":"Kanamit","postal_code":"74873"},{"id":"6211062007","district_id":"621106","name":"Garantung","postal_code":"74873"},{"id":"6211062008","district_id":"621106","name":"Gandang","postal_code":"74873"},{"id":"6211062009","district_id":"621106","name":"Badirih","postal_code":"74873"},{"id":"6211062010","district_id":"621106","name":"Tahai Baru","postal_code":"74873"},{"id":"6211062011","district_id":"621106","name":"Maliku Baru","postal_code":"74873"},{"id":"6211062012","district_id":"621106","name":"Sidodadi","postal_code":"74873"},{"id":"6211062013","district_id":"621106","name":"Kanamit Jaya","postal_code":"74873"},{"id":"6211062014","district_id":"621106","name":"Gandang Barat","postal_code":"74873"},{"id":"6211062015","district_id":"621106","name":"Maliku Mulia","postal_code":"74873"}]