[{"id":"6212031003","district_id":"621203","name":"Muara Laung I","postal_code":"73992"},{"id":"6212031006","district_id":"621203","name":"Muara Tuhup","postal_code":"73992"},{"id":"6212031031","district_id":"621203","name":"Batu Bua I","postal_code":"73992"},{"id":"6212032001","district_id":"621203","name":"Batu Tuhup","postal_code":"73992"},{"id":"6212032002","district_id":"621203","name":"Tumbang Bahan","postal_code":"73992"},{"id":"6212032004","district_id":"621203","name":"Muara Laung II","postal_code":"73992"},{"id":"6212032005","district_id":"621203","name":"Beras Balange","postal_code":"73992"},{"id":"6212032010","district_id":"621203","name":"Pelaci","postal_code":"73992"},{"id":"6212032011","district_id":"621203","name":"Biha","postal_code":"73992"},{"id":"6212032012","district_id":"621203","name":"Dirung Pundu","postal_code":"73992"},{"id":"6212032013","district_id":"621203","name":"Dirung Pinang","postal_code":"73992"},{"id":"6212032014","district_id":"621203","name":"Muara Tupuh","postal_code":"73992"},{"id":"6212032015","district_id":"621203","name":"Narui","postal_code":"73992"},{"id":"6212032016","district_id":"621203","name":"Tumbang Bana","postal_code":"73992"},{"id":"6212032017","district_id":"621203","name":"Lakutan","postal_code":"73992"},{"id":"6212032018","district_id":"621203","name":"Tawai Haui","postal_code":"73992"},{"id":"6212032026","district_id":"621203","name":"Penda Siron","postal_code":"73992"},{"id":"6212032027","district_id":"621203","name":"Muara Maruwei I","postal_code":"73992"},{"id":"6212032028","district_id":"621203","name":"Muara Maruwei II","postal_code":"73992"},{"id":"6212032029","district_id":"621203","name":"Beralang","postal_code":"73992"},{"id":"6212032030","district_id":"621203","name":"Kalang Dohong","postal_code":"73992"},{"id":"6212032032","district_id":"621203","name":"Batu Bua II","postal_code":"73992"},{"id":"6212032033","district_id":"621203","name":"Tahujan Laung","postal_code":"73992"},{"id":"6212032034","district_id":"621203","name":"Tumbang Bondang","postal_code":"73992"},{"id":"6212032035","district_id":"621203","name":"Tumbang Tonduk","postal_code":"73992"},{"id":"6212032037","district_id":"621203","name":"Batu Karang","postal_code":"73992"}]