[{"id":"6213062001","district_id":"621306","name":"Muara Palantau","postal_code":"73653"},{"id":"6213062002","district_id":"621306","name":"Ketab ","postal_code":"73653"},{"id":"6213062003","district_id":"621306","name":"Kupang Bersih","postal_code":"73653"},{"id":"6213062004","district_id":"621306","name":"Tuyau","postal_code":"73653"},{"id":"6213062005","district_id":"621306","name":"Pinang Tunggal","postal_code":"73653"},{"id":"6213062006","district_id":"621306","name":"Nagaleah","postal_code":"73653"},{"id":"6213062007","district_id":"621306","name":"Lampeong","postal_code":"73653"},{"id":"6213062008","district_id":"621306","name":"Bararawa","postal_code":"73653"},{"id":"6213062009","district_id":"621306","name":"Bambulung","postal_code":"73653"},{"id":"6213062010","district_id":"621306","name":"Lebo","postal_code":"73653"},{"id":"6213062011","district_id":"621306","name":"Muru Duyung","postal_code":"73653"},{"id":"6213062012","district_id":"621306","name":"Tumpung Ulung","postal_code":"73653"},{"id":"6213062013","district_id":"621306","name":"Sumber Rejo ","postal_code":"73653"}]