[{"id":"6301092001","district_id":"630109","name":"Batu Ampar","postal_code":"70882"},{"id":"6301092002","district_id":"630109","name":"Gunung Mas","postal_code":"70882"},{"id":"6301092003","district_id":"630109","name":"Tajau Mulya ","postal_code":"70882"},{"id":"6301092004","district_id":"630109","name":"Jilatan","postal_code":"70882"},{"id":"6301092005","district_id":"630109","name":"Durian Bungkuk","postal_code":"70882"},{"id":"6301092006","district_id":"630109","name":"Ambawang","postal_code":"70882"},{"id":"6301092007","district_id":"630109","name":"Damit","postal_code":"70882"},{"id":"6301092008","district_id":"630109","name":"Gunung Melati","postal_code":"70882"},{"id":"6301092009","district_id":"630109","name":"Bluru","postal_code":"70882"},{"id":"6301092010","district_id":"630109","name":"Pantai Linuh","postal_code":"70882"},{"id":"6301092011","district_id":"630109","name":"Damit Hulu","postal_code":"70882"},{"id":"6301092012","district_id":"630109","name":"Jilatan Alur","postal_code":"70882"},{"id":"6301092013","district_id":"630109","name":"Damar Lima","postal_code":"70882"},{"id":"6301092014","district_id":"630109","name":"Tajau Pecah","postal_code":"70882"}]