[{"id":"6303092001","district_id":"630309","name":"Maniapun","postal_code":"70674"},{"id":"6303092002","district_id":"630309","name":"Lok Tunggul ","postal_code":"70674"},{"id":"6303092003","district_id":"630309","name":"Lobang Baru","postal_code":"70674"},{"id":"6303092004","district_id":"630309","name":"Pengaron","postal_code":"70674"},{"id":"6303092005","district_id":"630309","name":"Benteng","postal_code":"70674"},{"id":"6303092006","district_id":"630309","name":"Ati'im ","postal_code":"70674"},{"id":"6303092007","district_id":"630309","name":"Alimukim","postal_code":"70674"},{"id":"6303092008","district_id":"630309","name":"Penyiuran ","postal_code":"70674"},{"id":"6303092009","district_id":"630309","name":"Antaraku","postal_code":"70674"},{"id":"6303092010","district_id":"630309","name":"Mangkauk","postal_code":"70674"},{"id":"6303092015","district_id":"630309","name":"Kertak Empat","postal_code":"70674"},{"id":"6303092018","district_id":"630309","name":"Lumpangi","postal_code":"70674"}]