[{"id":"6303072001","district_id":"630307","name":"Pingaran ","postal_code":"70670"},{"id":"6303072002","district_id":"630307","name":"Jati Baru ","postal_code":"70670"},{"id":"6303072003","district_id":"630307","name":"Pasar Jati","postal_code":"70670"},{"id":"6303072004","district_id":"630307","name":"Danau Salak","postal_code":"70670"},{"id":"6303072005","district_id":"630307","name":"Tambak Danau","postal_code":"70670"},{"id":"6303072006","district_id":"630307","name":"Kaliukan","postal_code":"70670"},{"id":"6303072007","district_id":"630307","name":"Sei\/Sungai Alat","postal_code":"70670"},{"id":"6303072008","district_id":"630307","name":"Pingaran Ulu","postal_code":"70670"},{"id":"6303072009","district_id":"630307","name":"Astambul Kota ","postal_code":"70670"},{"id":"6303072010","district_id":"630307","name":"Astambul Seberang","postal_code":"70670"},{"id":"6303072011","district_id":"630307","name":"Sei\/Sungai Tuan Ulu","postal_code":"70670"},{"id":"6303072012","district_id":"630307","name":"Benua Anyar Sungai Tuan","postal_code":"70670"},{"id":"6303072013","district_id":"630307","name":"Kelampaian Ilir","postal_code":"70670"},{"id":"6303072014","district_id":"630307","name":"Kelampaian Ulu ","postal_code":"70670"},{"id":"6303072015","district_id":"630307","name":"Limamar","postal_code":"70670"},{"id":"6303072016","district_id":"630307","name":"Lok Gabang ","postal_code":"70670"},{"id":"6303072017","district_id":"630307","name":"Pematang Hambawang","postal_code":"70670"},{"id":"6303072018","district_id":"630307","name":"Kelampaian Tengah","postal_code":"70670"},{"id":"6303072019","district_id":"630307","name":"Tambangan","postal_code":"70670"},{"id":"6303072020","district_id":"630307","name":"Benua Anyar Danau Salak","postal_code":"70670"},{"id":"6303072021","district_id":"630307","name":"Sei\/Sungai Tuan Ilir","postal_code":"70670"},{"id":"6303072022","district_id":"630307","name":"Minggu Raya ","postal_code":"70670"}]