[{"id":"6303082005","district_id":"630308","name":"Paku","postal_code":"70673"},{"id":"6303082006","district_id":"630308","name":"Simpang Empat","postal_code":"70673"},{"id":"6303082007","district_id":"630308","name":"Lok Cantung ","postal_code":"70673"},{"id":"6303082008","district_id":"630308","name":"Tanah Intan","postal_code":"70673"},{"id":"6303082009","district_id":"630308","name":"Sei\/Sungai Raya","postal_code":"70673"},{"id":"6303082010","district_id":"630308","name":"Sungkai","postal_code":"70673"},{"id":"6303082011","district_id":"630308","name":"Sei\/Sungai Langsat","postal_code":"70673"},{"id":"6303082014","district_id":"630308","name":"Lawiran","postal_code":"70673"},{"id":"6303082017","district_id":"630308","name":"Batu Balian","postal_code":"70673"},{"id":"6303082018","district_id":"630308","name":"Cabi","postal_code":"70673"},{"id":"6303082019","district_id":"630308","name":"Berkat Mulia ","postal_code":"70673"},{"id":"6303082021","district_id":"630308","name":"Sungai Baru ","postal_code":"70673"},{"id":"6303082022","district_id":"630308","name":"Paring Tali","postal_code":"70673"},{"id":"6303082025","district_id":"630308","name":"Pasar Lama","postal_code":"70673"},{"id":"6303082026","district_id":"630308","name":"Sei\/Sungai Tabuk","postal_code":"70653"}]