[{"id":"6304062001","district_id":"630406","name":"Terantang","postal_code":"70580"},{"id":"6304062002","district_id":"630406","name":"Tanipah","postal_code":"70580"},{"id":"6304062003","district_id":"630406","name":"Puntik Luar","postal_code":"70580"},{"id":"6304062004","district_id":"630406","name":"Puntik Dalam","postal_code":"70580"},{"id":"6304062005","district_id":"630406","name":"Tabing Rimbah","postal_code":"70580"},{"id":"6304062006","district_id":"630406","name":"Pantai Hambawang","postal_code":"70580"},{"id":"6304062009","district_id":"630406","name":"Tatah Alayung","postal_code":"70580"},{"id":"6304062011","district_id":"630406","name":"Puntik Tengah","postal_code":"70580"},{"id":"6304062014","district_id":"630406","name":"Lokrawa ","postal_code":"70580"},{"id":"6304062015","district_id":"630406","name":"Sei\/Sungai Ramania","postal_code":"70580"},{"id":"6304062016","district_id":"630406","name":"Bangkit Baru","postal_code":"70580"},{"id":"6304062017","district_id":"630406","name":"Antasan Segera ","postal_code":"70580"},{"id":"6304062020","district_id":"630406","name":"Karang Bunga","postal_code":"70580"},{"id":"6304062021","district_id":"630406","name":"Karang Indah","postal_code":"70580"}]