[{"id":"6305072001","district_id":"630507","name":"Parigi Kecil","postal_code":"71152"},{"id":"6305072002","district_id":"630507","name":"Bakarangan","postal_code":"71152"},{"id":"6305072003","district_id":"630507","name":"Parigi","postal_code":"71152"},{"id":"6305072004","district_id":"630507","name":"Paul","postal_code":"71152"},{"id":"6305072005","district_id":"630507","name":"Gadung","postal_code":"71152"},{"id":"6305072006","district_id":"630507","name":"Bundung","postal_code":"71152"},{"id":"6305072007","district_id":"630507","name":"Tangkawang","postal_code":"71152"},{"id":"6305072008","district_id":"630507","name":"Waringin","postal_code":"71152"},{"id":"6305072009","district_id":"630507","name":"Gadung Keramat","postal_code":"71152"},{"id":"6305072010","district_id":"630507","name":"Masta","postal_code":"71152"},{"id":"6305072011","district_id":"630507","name":"Ketapang","postal_code":"71152"},{"id":"6305072012","district_id":"630507","name":"Tangkawang Baru","postal_code":"71152"}]