[{"id":"6306082001","district_id":"630608","name":"Pakapuran Kecil","postal_code":"71253"},{"id":"6306082002","district_id":"630608","name":"Panggandingan","postal_code":"71253"},{"id":"6306082003","district_id":"630608","name":"Tambak Bitin","postal_code":"71253"},{"id":"6306082004","district_id":"630608","name":"Pakan Dalam","postal_code":"71253"},{"id":"6306082005","district_id":"630608","name":"Paramaian","postal_code":"71253"},{"id":"6306082006","district_id":"630608","name":"Pandak Daun","postal_code":"71253"},{"id":"6306082007","district_id":"630608","name":"Murung Raya","postal_code":"71253"},{"id":"6306082008","district_id":"630608","name":"Balah Paikat","postal_code":"71253"},{"id":"6306082009","district_id":"630608","name":"Sungai Garuda","postal_code":"71253"},{"id":"6306082010","district_id":"630608","name":"Sungai Mandala","postal_code":"71253"},{"id":"6306082011","district_id":"630608","name":"Mandala Murung Mesjid","postal_code":"71253"},{"id":"6306082012","district_id":"630608","name":"Baruh Kembang","postal_code":"71253"},{"id":"6306082013","district_id":"630608","name":"Teluk Haur","postal_code":"71253"},{"id":"6306082014","district_id":"630608","name":"Pasungkan","postal_code":"71253"},{"id":"6306082015","district_id":"630608","name":"Teluk Kabak","postal_code":"71253"},{"id":"6306082016","district_id":"630608","name":"Hamayung","postal_code":"71253"},{"id":"6306082017","district_id":"630608","name":"Hamayung Utara","postal_code":"71253"},{"id":"6306082018","district_id":"630608","name":"Paharangan","postal_code":"71253"},{"id":"6306082019","district_id":"630608","name":"Hakurung","postal_code":"71253"}]