[{"id":"6308072001","district_id":"630807","name":"Banjang","postal_code":"71416"},{"id":"6308072002","district_id":"630807","name":"Patarikan","postal_code":"71416"},{"id":"6308072003","district_id":"630807","name":"Teluk Buluh","postal_code":"71416"},{"id":"6308072004","district_id":"630807","name":"Pandulangan","postal_code":"71416"},{"id":"6308072005","district_id":"630807","name":"Danau Terati","postal_code":"71416"},{"id":"6308072006","district_id":"630807","name":"Garunggang","postal_code":"71416"},{"id":"6308072007","district_id":"630807","name":"Baruh Tabing","postal_code":"71416"},{"id":"6308072008","district_id":"630807","name":"Murung Padang","postal_code":"71416"},{"id":"6308072009","district_id":"630807","name":"Teluk Sarikat","postal_code":"71416"},{"id":"6308072010","district_id":"630807","name":"Beringin","postal_code":"71416"},{"id":"6308072011","district_id":"630807","name":"Kalintamui","postal_code":"71416"},{"id":"6308072012","district_id":"630807","name":"Pelanjungan Sari","postal_code":"71416"},{"id":"6308072013","district_id":"630807","name":"Lok Bangkai","postal_code":"71416"},{"id":"6308072014","district_id":"630807","name":"Sungai Bahadangan","postal_code":"71416"},{"id":"6308072015","district_id":"630807","name":"Karias Dalam","postal_code":"71416"},{"id":"6308072016","district_id":"630807","name":"Rantau Bujur","postal_code":"71416"},{"id":"6308072017","district_id":"630807","name":"Kaludan Kecil","postal_code":"71416"},{"id":"6308072018","district_id":"630807","name":"Kaludan Besar","postal_code":"71416"},{"id":"6308072019","district_id":"630807","name":"Pawalutan","postal_code":"71416"},{"id":"6308072020","district_id":"630807","name":"Pulau Damar","postal_code":"71416"}]