[{"id":"6308012003","district_id":"630801","name":"Sungai Namang","postal_code":"71453"},{"id":"6308012004","district_id":"630801","name":"Danau Panggang","postal_code":"71453"},{"id":"6308012008","district_id":"630801","name":"Pandamaan","postal_code":"71453"},{"id":"6308012009","district_id":"630801","name":"Baru","postal_code":"71453"},{"id":"6308012010","district_id":"630801","name":"Bitin","postal_code":"71453"},{"id":"6308012011","district_id":"630801","name":"Manarap","postal_code":"71453"},{"id":"6308012012","district_id":"630801","name":"Pararain","postal_code":"71453"},{"id":"6308012013","district_id":"630801","name":"Telaga Mas","postal_code":"71453"},{"id":"6308012015","district_id":"630801","name":"Darussalam","postal_code":"71453"},{"id":"6308012016","district_id":"630801","name":"Sarang Burung","postal_code":"71453"},{"id":"6308012017","district_id":"630801","name":"Longkong","postal_code":"71453"},{"id":"6308012019","district_id":"630801","name":"Rintisan","postal_code":"71453"},{"id":"6308012020","district_id":"630801","name":"Palukahan","postal_code":"71453"},{"id":"6308012021","district_id":"630801","name":"Teluk Mesjid","postal_code":"71453"},{"id":"6308012022","district_id":"630801","name":"Sungai Panangah","postal_code":"71453"},{"id":"6308012023","district_id":"630801","name":"Manarap Hulu","postal_code":"71453"}]