[{"id":"6309052001","district_id":"630905","name":"Marindi","postal_code":"71570"},{"id":"6309052002","district_id":"630905","name":"Wirang","postal_code":"71570"},{"id":"6309052003","district_id":"630905","name":"Bongkang","postal_code":"71570"},{"id":"6309052004","district_id":"630905","name":"Nawin","postal_code":"71570"},{"id":"6309052005","district_id":"630905","name":"Halong","postal_code":"71570"},{"id":"6309052007","district_id":"630905","name":"Hayup","postal_code":"71570"},{"id":"6309052011","district_id":"630905","name":"Kembang Kuning","postal_code":"71570"},{"id":"6309052012","district_id":"630905","name":"Seradang","postal_code":"71570"},{"id":"6309052013","district_id":"630905","name":"Mahe Pasar","postal_code":"71570"},{"id":"6309052014","district_id":"630905","name":"Lok Batu","postal_code":"71570"},{"id":"6309052015","district_id":"630905","name":"Suput","postal_code":"71570"},{"id":"6309052018","district_id":"630905","name":"Surian","postal_code":"71570"},{"id":"6309052021","district_id":"630905","name":"Catur Karya","postal_code":"71570"}]