[{"id":"6309072001","district_id":"630907","name":"Kupang Nunding","postal_code":"71573"},{"id":"6309072002","district_id":"630907","name":"Mangkupum","postal_code":"71573"},{"id":"6309072003","district_id":"630907","name":"Pasar Batu","postal_code":"71573"},{"id":"6309072004","district_id":"630907","name":"Uwie","postal_code":"71573"},{"id":"6309072005","district_id":"630907","name":"Muara Uya","postal_code":"71573"},{"id":"6309072006","district_id":"630907","name":"Lumbang","postal_code":"71573"},{"id":"6309072007","district_id":"630907","name":"Santuun","postal_code":"71573"},{"id":"6309072008","district_id":"630907","name":"Simpung Layung","postal_code":"71573"},{"id":"6309072009","district_id":"630907","name":"Binjai","postal_code":"71573"},{"id":"6309072010","district_id":"630907","name":"Palapi","postal_code":"71573"},{"id":"6309072011","district_id":"630907","name":"Kampung Baru","postal_code":"71573"},{"id":"6309072012","district_id":"630907","name":"Salikung","postal_code":"71573"},{"id":"6309072013","district_id":"630907","name":"Ribang","postal_code":"71573"},{"id":"6309072014","district_id":"630907","name":"Sungai Kumap","postal_code":"71573"}]