[{"id":"6310082001","district_id":"631008","name":"Mantewe","postal_code":"72211"},{"id":"6310082002","district_id":"631008","name":"Dukuh Rejo","postal_code":"72211"},{"id":"6310082003","district_id":"631008","name":"Rejosari","postal_code":"72211"},{"id":"6310082004","district_id":"631008","name":"Suka Damai","postal_code":"72211"},{"id":"6310082005","district_id":"631008","name":"Bulu Rejo","postal_code":"72211"},{"id":"6310082006","district_id":"631008","name":"Sido Mulyo","postal_code":"72211"},{"id":"6310082008","district_id":"631008","name":"Sepakat","postal_code":"72211"},{"id":"6310082009","district_id":"631008","name":"Sari Mulya","postal_code":"72211"},{"id":"6310082010","district_id":"631008","name":"Emil Baru","postal_code":"72211"},{"id":"6310082011","district_id":"631008","name":"Mentawakan Mulia","postal_code":"72211"},{"id":"6310082012","district_id":"631008","name":"Maju Mulyo","postal_code":"72211"},{"id":"6310082014","district_id":"631008","name":"Gunungraya","postal_code":"72211"}]