[{"id":"6310042003","district_id":"631004","name":"Setarap","postal_code":"72276"},{"id":"6310042004","district_id":"631004","name":"Satui Timur","postal_code":"72276"},{"id":"6310042005","district_id":"631004","name":"Sungaicuka ","postal_code":"72276"},{"id":"6310042006","district_id":"631004","name":"Jombang","postal_code":"72276"},{"id":"6310042008","district_id":"631004","name":"Satui Barat","postal_code":"72276"},{"id":"6310042009","district_id":"631004","name":"Sekapuk","postal_code":"72276"},{"id":"6310042010","district_id":"631004","name":"Sungaidanau ","postal_code":"72276"},{"id":"6310042011","district_id":"631004","name":"Wonorejo","postal_code":"72276"},{"id":"6310042012","district_id":"631004","name":"Sumber Makmur","postal_code":"72276"},{"id":"6310042013","district_id":"631004","name":"Tegal Sari","postal_code":"72276"},{"id":"6310042019","district_id":"631004","name":"Sumber Arum","postal_code":"72276"},{"id":"6310042022","district_id":"631004","name":"Sejahtera Mulia","postal_code":"72276"},{"id":"6310042023","district_id":"631004","name":"Al Kautsar","postal_code":"72276"},{"id":"6310042024","district_id":"631004","name":"Makmur Mulia ","postal_code":"72276"},{"id":"6310042025","district_id":"631004","name":"Sinar Bulan","postal_code":"72276"},{"id":"6310042026","district_id":"631004","name":"Pandamaran Jaya","postal_code":"72276"},{"id":"6310042027","district_id":"631004","name":"Sido Rejo","postal_code":"72276"},{"id":"6310042028","district_id":"631004","name":"Beruntung Raya","postal_code":"72276"},{"id":"6310042029","district_id":"631004","name":"Berakat Mufakat","postal_code":"72276"},{"id":"6310042030","district_id":"631004","name":"Makmur Jaya","postal_code":"72276"}]