[{"id":"6311022001","district_id":"631102","name":"Hauwai ","postal_code":"71666"},{"id":"6311022002","district_id":"631102","name":"Bangkal","postal_code":"71666"},{"id":"6311022003","district_id":"631102","name":"Mantuyan","postal_code":"71666"},{"id":"6311022004","district_id":"631102","name":"Tabuan","postal_code":"71666"},{"id":"6311022005","district_id":"631102","name":"Halong","postal_code":"71666"},{"id":"6311022008","district_id":"631102","name":"Puyun","postal_code":"71666"},{"id":"6311022009","district_id":"631102","name":"Buntu Pilanduk ","postal_code":"71666"},{"id":"6311022010","district_id":"631102","name":"Gunung Riut","postal_code":"71666"},{"id":"6311022011","district_id":"631102","name":"Kapul","postal_code":"71666"},{"id":"6311022012","district_id":"631102","name":"Mamantang","postal_code":"71666"},{"id":"6311022013","district_id":"631102","name":"Binjai Punggal","postal_code":"71666"},{"id":"6311022014","district_id":"631102","name":"Liyu","postal_code":"71666"},{"id":"6311022015","district_id":"631102","name":"Binuang Santang","postal_code":"71666"},{"id":"6311022016","district_id":"631102","name":"Aniungan","postal_code":"71666"},{"id":"6311022017","district_id":"631102","name":"Binju","postal_code":"71666"},{"id":"6311022018","district_id":"631102","name":"Karya","postal_code":"71666"},{"id":"6311022019","district_id":"631102","name":"Uren","postal_code":"71666"},{"id":"6311022020","district_id":"631102","name":"Marajai","postal_code":"71666"},{"id":"6311022021","district_id":"631102","name":"Suryatama","postal_code":"71666"},{"id":"6311022022","district_id":"631102","name":"Baruh Panyambaran","postal_code":"71666"},{"id":"6311022023","district_id":"631102","name":"Mauya","postal_code":"71666"},{"id":"6311022024","district_id":"631102","name":"Padang Raya","postal_code":"71666"},{"id":"6311022025","district_id":"631102","name":"Sumber Agung","postal_code":"71666"},{"id":"6311022026","district_id":"631102","name":"Mamigang","postal_code":"71666"}]