[{"id":"6407192001","district_id":"640719","name":"Tering Baru","postal_code":"75760"},{"id":"6407192002","district_id":"640719","name":"Tering Lama","postal_code":"75760"},{"id":"6407192003","district_id":"640719","name":"Linggang Tering Seberang ","postal_code":"75760"},{"id":"6407192004","district_id":"640719","name":"Tukul","postal_code":"75760"},{"id":"6407192005","district_id":"640719","name":"Linggang Kelubaq ","postal_code":"75760"},{"id":"6407192006","district_id":"640719","name":"Linggang Purworejo ","postal_code":"75760"},{"id":"6407192007","district_id":"640719","name":"Linggang Jelemuq ","postal_code":"75760"},{"id":"6407192008","district_id":"640719","name":"Kelian Dalam","postal_code":"75760"},{"id":"6407192009","district_id":"640719","name":"Linggang Muara Mujan ","postal_code":"75760"},{"id":"6407192010","district_id":"640719","name":"Muyub Ulu","postal_code":"75760"},{"id":"6407192011","district_id":"640719","name":"Muyub Aket","postal_code":"75760"},{"id":"6407192013","district_id":"640719","name":"Linggang Muyub Ilir ","postal_code":"75760"},{"id":"6407192014","district_id":"640719","name":"Gabung Baru","postal_code":"75760"},{"id":"6407192015","district_id":"640719","name":"Linggang Banjarejo ","postal_code":"75760"},{"id":"6407192016","district_id":"640719","name":"Tering Lama Ulu","postal_code":"75760"}]