[{"id":"6409041005","district_id":"640904","name":"Sepaku","postal_code":"76148"},{"id":"6409041006","district_id":"640904","name":"Pemaluan","postal_code":"76147"},{"id":"6409041007","district_id":"640904","name":"Maridan","postal_code":"76146"},{"id":"6409041008","district_id":"640904","name":"Mentawir","postal_code":"76149"},{"id":"6409042001","district_id":"640904","name":"Tengin Baru ","postal_code":"76147"},{"id":"6409042002","district_id":"640904","name":"Bukit Raya ","postal_code":"76147"},{"id":"6409042003","district_id":"640904","name":"Suka Raja ","postal_code":"76147"},{"id":"6409042004","district_id":"640904","name":"Bumi Harapan","postal_code":"76147"},{"id":"6409042009","district_id":"640904","name":"Argo Mulyo","postal_code":"76147"},{"id":"6409042010","district_id":"640904","name":"Semoi Dua ","postal_code":"76147"},{"id":"6409042011","district_id":"640904","name":"Suko Mulyo","postal_code":"76147"},{"id":"6409042012","district_id":"640904","name":"Wono Sari ","postal_code":"76147"},{"id":"6409042013","district_id":"640904","name":"Karang Jinawi","postal_code":"76148"},{"id":"6409042014","district_id":"640904","name":"Binuang","postal_code":"76147"},{"id":"6409042015","district_id":"640904","name":"Telemow","postal_code":"76147"}]