[{"id":"6411052001","district_id":"641105","name":"Delang Kerohong","postal_code":"75768"},{"id":"6411052002","district_id":"641105","name":"Long Pakaq","postal_code":"75768"},{"id":"6411052003","district_id":"641105","name":"Long Lunuk","postal_code":"75768"},{"id":"6411052004","district_id":"641105","name":"Long Isun","postal_code":"75768"},{"id":"6411052005","district_id":"641105","name":"Naha Aru","postal_code":"75768"},{"id":"6411052006","district_id":"641105","name":"Datah Naha","postal_code":"75768"},{"id":"6411052007","district_id":"641105","name":"Lirung Ubing","postal_code":"75768"},{"id":"6411052008","district_id":"641105","name":"Long Pahangai I","postal_code":"75768"},{"id":"6411052009","district_id":"641105","name":"Long Pahangai II","postal_code":"75768"},{"id":"6411052010","district_id":"641105","name":"Long Tuyoq","postal_code":"75768"},{"id":"6411052011","district_id":"641105","name":"Liu Mulang","postal_code":"75768"},{"id":"6411052012","district_id":"641105","name":"Long Pakaq Baru","postal_code":"75768"},{"id":"6411052013","district_id":"641105","name":"Long Lunuk Baru","postal_code":"75768"}]