[{"id":"7101122001","district_id":"710112","name":"Totabuan","postal_code":"95741"},{"id":"7101122002","district_id":"710112","name":"Pindol","postal_code":"95741"},{"id":"7101122003","district_id":"710112","name":"Solog","postal_code":"95741"},{"id":"7101122004","district_id":"710112","name":"Tandu","postal_code":"95741"},{"id":"7101122005","district_id":"710112","name":"Lolak","postal_code":"95741"},{"id":"7101122006","district_id":"710112","name":"Motabang","postal_code":"95741"},{"id":"7101122007","district_id":"710112","name":"Mongkoinit","postal_code":"95741"},{"id":"7101122008","district_id":"710112","name":"Labuan Uki","postal_code":"95741"},{"id":"7101122009","district_id":"710112","name":"Pinogaluman","postal_code":"95741"},{"id":"7101122010","district_id":"710112","name":"Sauk","postal_code":"95741"},{"id":"7101122011","district_id":"710112","name":"Lalow","postal_code":"95741"},{"id":"7101122012","district_id":"710112","name":"Buntalo","postal_code":"95741"},{"id":"7101122013","district_id":"710112","name":"Bumbung","postal_code":"95741"},{"id":"7101122014","district_id":"710112","name":"Baturapa","postal_code":"95741"},{"id":"7101122015","district_id":"710112","name":"Tuyat","postal_code":"95741"},{"id":"7101122016","district_id":"710112","name":"Pindolili","postal_code":"95741"},{"id":"7101122017","district_id":"710112","name":"Lolak Tambolango","postal_code":"95741"},{"id":"7101122018","district_id":"710112","name":"Lolak II","postal_code":"95741"},{"id":"7101122019","district_id":"710112","name":"Buntalo Timur","postal_code":"95741"},{"id":"7101122020","district_id":"710112","name":"Buntalo Selatan","postal_code":"95741"},{"id":"7101122021","district_id":"710112","name":"Baturapa II","postal_code":"95741"},{"id":"7101122022","district_id":"710112","name":"Diat","postal_code":"95741"},{"id":"7101122023","district_id":"710112","name":"Pinogalum Timur","postal_code":"95741"},{"id":"7101122024","district_id":"710112","name":"Mongkoinit Barat","postal_code":"95741"},{"id":"7101122025","district_id":"710112","name":"Dulangan","postal_code":"95741"},{"id":"7101122026","district_id":"710112","name":"Padang Lalow","postal_code":"95741"}]