[{"id":"7102062003","district_id":"710206","name":"Kayuwatu","postal_code":"95680"},{"id":"7102062004","district_id":"710206","name":"Wineru","postal_code":"95680"},{"id":"7102062005","district_id":"710206","name":"Rinondor","postal_code":"95680"},{"id":"7102062006","district_id":"710206","name":"Sendangan","postal_code":"95680"},{"id":"7102062015","district_id":"710206","name":"Pahaleten","postal_code":"95680"},{"id":"7102062016","district_id":"710206","name":"Talikuran","postal_code":"95680"},{"id":"7102062017","district_id":"710206","name":"Tounelet","postal_code":"95680"},{"id":"7102062018","district_id":"710206","name":"Paslaten","postal_code":"95680"},{"id":"7102062019","district_id":"710206","name":"Kaweng","postal_code":"95680"},{"id":"7102062020","district_id":"710206","name":"Toulimembet","postal_code":"95680"},{"id":"7102062021","district_id":"710206","name":"Makalelon","postal_code":"95680"},{"id":"7102062022","district_id":"710206","name":"Tumpaan","postal_code":"95680"},{"id":"7102062023","district_id":"710206","name":"Mahembang","postal_code":"95680"}]