[{"id":"7103122001","district_id":"710312","name":"Nagha I ","postal_code":"95855"},{"id":"7103122002","district_id":"710312","name":"Nagha II ","postal_code":"95855"},{"id":"7103122003","district_id":"710312","name":"Pokol","postal_code":"95855"},{"id":"7103122004","district_id":"710312","name":"Balane","postal_code":"95855"},{"id":"7103122005","district_id":"710312","name":"Binala","postal_code":"95855"},{"id":"7103122006","district_id":"710312","name":"Ulung Peliang ","postal_code":"95855"},{"id":"7103122007","district_id":"710312","name":"Menggawa","postal_code":"95855"},{"id":"7103122008","district_id":"710312","name":"Kalinda","postal_code":"95855"},{"id":"7103122009","district_id":"710312","name":"Bebu","postal_code":"95855"},{"id":"7103122010","district_id":"710312","name":"Makalekuhe ","postal_code":"95855"},{"id":"7103122011","district_id":"710312","name":"Pananaru","postal_code":"95855"},{"id":"7103122012","district_id":"710312","name":"Dagho","postal_code":"95855"},{"id":"7103122013","district_id":"710312","name":"Mahumu","postal_code":"95855"},{"id":"7103122014","district_id":"710312","name":"Lelipang","postal_code":"95855"},{"id":"7103122015","district_id":"710312","name":"Menggawa II","postal_code":"95855"},{"id":"7103122016","district_id":"710312","name":"Kalama Darat","postal_code":"95855"},{"id":"7103122017","district_id":"710312","name":"Kalinda I","postal_code":"95855"},{"id":"7103122018","district_id":"710312","name":"Mahumu I","postal_code":"95855"},{"id":"7103122019","district_id":"710312","name":"Mahumu II","postal_code":"95855"},{"id":"7103122020","district_id":"710312","name":"Hesang","postal_code":"95855"}]