[{"id":"7103102001","district_id":"710310","name":"Kaluwatu","postal_code":"95854"},{"id":"7103102002","district_id":"710310","name":"Laine","postal_code":"95854"},{"id":"7103102003","district_id":"710310","name":"Lapango","postal_code":"95854"},{"id":"7103102004","district_id":"710310","name":"Sowaeng ","postal_code":"95854"},{"id":"7103102005","district_id":"710310","name":"Ngalipaeng Satu ","postal_code":"95854"},{"id":"7103102006","district_id":"710310","name":"Ngalipaeng Dua ","postal_code":"95854"},{"id":"7103102007","district_id":"710310","name":"Batunderang","postal_code":"95854"},{"id":"7103102008","district_id":"710310","name":"Bebalang","postal_code":"95854"},{"id":"7103102009","district_id":"710310","name":"Mawira","postal_code":"95854"},{"id":"7103102010","district_id":"710310","name":"Pindang","postal_code":"95854"},{"id":"7103102011","district_id":"710310","name":"Lapepahe","postal_code":"95854"},{"id":"7103102012","district_id":"710310","name":"Lehimi Tariang","postal_code":"95854"},{"id":"7103102013","district_id":"710310","name":"Lapango I","postal_code":"95854"}]