[{"id":"7104062001","district_id":"710406","name":"Pangeran","postal_code":"95873"},{"id":"7104062007","district_id":"710406","name":"Bulude","postal_code":"95873"},{"id":"7104062008","district_id":"710406","name":"Pantuge","postal_code":"95873"},{"id":"7104062009","district_id":"710406","name":"Kabaruan","postal_code":"95873"},{"id":"7104062010","district_id":"710406","name":"Mangaran","postal_code":"95873"},{"id":"7104062011","district_id":"710406","name":"Kordakel","postal_code":"95873"},{"id":"7104062012","district_id":"710406","name":"Rarange","postal_code":"95873"},{"id":"7104062013","district_id":"710406","name":"Taduna","postal_code":"95873"},{"id":"7104062017","district_id":"710406","name":"Kabaruan Timur","postal_code":"95873"},{"id":"7104062018","district_id":"710406","name":"Pantuge Timur","postal_code":"95873"},{"id":"7104062019","district_id":"710406","name":"Pannulan","postal_code":"95873"},{"id":"7104062020","district_id":"710406","name":"Bulude Selatan","postal_code":"95873"}]