[{"id":"7104082001","district_id":"710408","name":"Mamahan","postal_code":"95888"},{"id":"7104082002","district_id":"710408","name":"Bambung","postal_code":"95888"},{"id":"7104082003","district_id":"710408","name":"Taturan","postal_code":"95888"},{"id":"7104082004","district_id":"710408","name":"Gemeh","postal_code":"95888"},{"id":"7104082005","district_id":"710408","name":"Arangkaa","postal_code":"95888"},{"id":"7104082006","district_id":"710408","name":"Malat","postal_code":"95888"},{"id":"7104082007","district_id":"710408","name":"Apan","postal_code":"95888"},{"id":"7104082008","district_id":"710408","name":"Taruan","postal_code":"95888"},{"id":"7104082009","district_id":"710408","name":"Bannada","postal_code":"95888"},{"id":"7104082010","district_id":"710408","name":"Gemeh Rasmata ","postal_code":"95888"},{"id":"7104082011","district_id":"710408","name":"Gemeh Wantane","postal_code":"95888"},{"id":"7104082012","district_id":"710408","name":"Bambung Timur","postal_code":"95888"},{"id":"7104082013","district_id":"710408","name":"Malat Utara","postal_code":"95888"},{"id":"7104082014","district_id":"710408","name":"Mamahan Barat","postal_code":"95888"},{"id":"7104082015","district_id":"710408","name":"Lahu","postal_code":"95888"}]