[{"id":"7106082001","district_id":"710608","name":"Suwaan","postal_code":"95378"},{"id":"7106082002","district_id":"710608","name":"Kuwil","postal_code":"95378"},{"id":"7106082003","district_id":"710608","name":"Kawangkoan","postal_code":"95378"},{"id":"7106082004","district_id":"710608","name":"Kolongan","postal_code":"95378"},{"id":"7106082005","district_id":"710608","name":"Maumbi","postal_code":"95378"},{"id":"7106082006","district_id":"710608","name":"Kaleosan","postal_code":"95378"},{"id":"7106082007","district_id":"710608","name":"Watutumou ","postal_code":"95378"},{"id":"7106082008","district_id":"710608","name":"Kolongan Tetempangan","postal_code":"95378"},{"id":"7106082009","district_id":"710608","name":"Kawangkoan Baru","postal_code":"95378"},{"id":"7106082010","district_id":"710608","name":"Kalawat","postal_code":"95378"},{"id":"7106082011","district_id":"710608","name":"Watutumou Dua ","postal_code":"95378"},{"id":"7106082012","district_id":"710608","name":"Watutumou Tiga ","postal_code":"95378"}]