[{"id":"7108032001","district_id":"710803","name":"Mokoditek ","postal_code":"95767"},{"id":"7108032002","district_id":"710803","name":"Nunuka ","postal_code":"95767"},{"id":"7108032003","district_id":"710803","name":"Saleo","postal_code":"95767"},{"id":"7108032004","district_id":"710803","name":"Bohabak I","postal_code":"95767"},{"id":"7108032005","district_id":"710803","name":"Bohabak II","postal_code":"95767"},{"id":"7108032006","district_id":"710803","name":"Binjeita","postal_code":"95767"},{"id":"7108032007","district_id":"710803","name":"Biontong","postal_code":"95767"},{"id":"7108032008","district_id":"710803","name":"Biontong I","postal_code":"95767"},{"id":"7108032009","district_id":"710803","name":"Biontong II","postal_code":"95767"},{"id":"7108032010","district_id":"710803","name":"Binuanga","postal_code":"95767"},{"id":"7108032011","district_id":"710803","name":"Bohabak III","postal_code":"95767"},{"id":"7108032012","district_id":"710803","name":"Bohabak IV","postal_code":"95767"},{"id":"7108032013","district_id":"710803","name":"Binjeita I","postal_code":"95767"},{"id":"7108032014","district_id":"710803","name":"Binjeita II","postal_code":"95767"},{"id":"7108032015","district_id":"710803","name":"Mokoditek I ","postal_code":"95767"},{"id":"7108032016","district_id":"710803","name":"Lipu Bogu","postal_code":"95767"},{"id":"7108032017","district_id":"710803","name":"Binuni","postal_code":"95767"},{"id":"7108032018","district_id":"710803","name":"Tanjung Labou","postal_code":"95767"},{"id":"7108032019","district_id":"710803","name":"Nagara","postal_code":"95767"},{"id":"7108032020","district_id":"710803","name":"Saleo Satu","postal_code":"95767"}]