[{"id":"7109042001","district_id":"710904","name":"Mala","postal_code":"95867"},{"id":"7109042002","district_id":"710904","name":"Pangirolong","postal_code":"95867"},{"id":"7109042003","district_id":"710904","name":"Sawang","postal_code":"95867"},{"id":"7109042004","district_id":"710904","name":"Bandil","postal_code":"95867"},{"id":"7109042005","district_id":"710904","name":"Biau","postal_code":"95867"},{"id":"7109042006","district_id":"710904","name":"Balirangeng ","postal_code":"95867"},{"id":"7109042007","district_id":"710904","name":"Buhias","postal_code":"95867"},{"id":"7109042008","district_id":"710904","name":"Tapile","postal_code":"95867"},{"id":"7109042009","district_id":"710904","name":"Lahopang","postal_code":"95867"},{"id":"7109042010","district_id":"710904","name":"Binalu","postal_code":"95867"},{"id":"7109042011","district_id":"710904","name":"Kalihiang","postal_code":"95867"},{"id":"7109042012","district_id":"710904","name":"Pahepa","postal_code":"95867"},{"id":"7109042013","district_id":"710904","name":"Biau Seha","postal_code":"95867"},{"id":"7109042014","district_id":"710904","name":"Matole","postal_code":"95867"}]