[{"id":"7171041001","district_id":"717104","name":"Tikala Kumaraka","postal_code":"95124"},{"id":"7171041002","district_id":"717104","name":"Mahakeret Timur","postal_code":"95112"},{"id":"7171041003","district_id":"717104","name":"Mahakeret Barat","postal_code":"95112"},{"id":"7171041004","district_id":"717104","name":"Teling Bawah","postal_code":"95119"},{"id":"7171041005","district_id":"717104","name":"Wenang Utara","postal_code":"95111"},{"id":"7171041006","district_id":"717104","name":"Wenang Selatan","postal_code":"95111"},{"id":"7171041007","district_id":"717104","name":"Pinaesaan","postal_code":"95122"},{"id":"7171041008","district_id":"717104","name":"Calaca","postal_code":"95121"},{"id":"7171041009","district_id":"717104","name":"Istiqlal","postal_code":"95121"},{"id":"7171041010","district_id":"717104","name":"Lawangirung","postal_code":"95123"},{"id":"7171041011","district_id":"717104","name":"Komo Luar","postal_code":"95122"},{"id":"7171041012","district_id":"717104","name":"Bumi Beringin","postal_code":"95113"}]