[{"id":"7201031006","district_id":"720103","name":"Kintom","postal_code":"94761"},{"id":"7201031010","district_id":"720103","name":"Mendono","postal_code":"94761"},{"id":"7201031017","district_id":"720103","name":"Mondonun","postal_code":"94761"},{"id":"7201032001","district_id":"720103","name":"Kalolos","postal_code":"94761"},{"id":"7201032002","district_id":"720103","name":"Tangkiang","postal_code":"94761"},{"id":"7201032003","district_id":"720103","name":"Padang","postal_code":"94761"},{"id":"7201032004","district_id":"720103","name":"Manyula","postal_code":"94761"},{"id":"7201032005","district_id":"720103","name":"Uling","postal_code":"94761"},{"id":"7201032007","district_id":"720103","name":"Samadoya","postal_code":"94761"},{"id":"7201032008","district_id":"720103","name":"Dimpalon","postal_code":"94761"},{"id":"7201032009","district_id":"720103","name":"Solan","postal_code":"94761"},{"id":"7201032013","district_id":"720103","name":"Babang Buyangge","postal_code":"94761"},{"id":"7201032015","district_id":"720103","name":"Solan Baru","postal_code":"94761"},{"id":"7201032019","district_id":"720103","name":"Dimpalon Baru","postal_code":"94761"}]