[{"id":"7201102001","district_id":"720110","name":"Tangeban","postal_code":"94772"},{"id":"7201102002","district_id":"720110","name":"Taugi","postal_code":"94772"},{"id":"7201102003","district_id":"720110","name":"Eteng","postal_code":"94772"},{"id":"7201102004","district_id":"720110","name":"Minang Andala","postal_code":"94772"},{"id":"7201102005","district_id":"720110","name":"Kospa Duatakarya","postal_code":"94772"},{"id":"7201102006","district_id":"720110","name":"Purwo Agung","postal_code":"94772"},{"id":"7201102007","district_id":"720110","name":"Kembang Merta","postal_code":"94772"},{"id":"7201102008","district_id":"720110","name":"Simpangan","postal_code":"94772"},{"id":"7201102009","district_id":"720110","name":"Tompotika Makmur","postal_code":"94772"},{"id":"7201102010","district_id":"720110","name":"Duata Karya","postal_code":"94772"},{"id":"7201102011","district_id":"720110","name":"Serese","postal_code":"94772"},{"id":"7201102012","district_id":"720110","name":"Cemerlang","postal_code":"94772"},{"id":"7201102013","district_id":"720110","name":"Padangon","postal_code":"94772"},{"id":"7201102014","district_id":"720110","name":"Rangga-Rangga","postal_code":"94772"}]