[{"id":"7201011006","district_id":"720101","name":"Bugis","postal_code":"94762"},{"id":"7201011007","district_id":"720101","name":"Balantang","postal_code":"94762"},{"id":"7201011008","district_id":"720101","name":"Batui","postal_code":"94762"},{"id":"7201011009","district_id":"720101","name":"Tolando","postal_code":"94762"},{"id":"7201011010","district_id":"720101","name":"Lamo","postal_code":"94762"},{"id":"7201011017","district_id":"720101","name":"Sisipan","postal_code":"94762"},{"id":"7201011023","district_id":"720101","name":"Bakung","postal_code":"94762"},{"id":"7201012002","district_id":"720101","name":"Nonong","postal_code":"94762"},{"id":"7201012003","district_id":"720101","name":"Kayowa","postal_code":"94762"},{"id":"7201012005","district_id":"720101","name":"Ondo-Ondolu","postal_code":"94762"},{"id":"7201012011","district_id":"720101","name":"Honbola","postal_code":"94762"},{"id":"7201012012","district_id":"720101","name":"Uso","postal_code":"94762"},{"id":"7201012016","district_id":"720101","name":"Ondo-Ondolu I","postal_code":"94762"}]