[{"id":"7201122001","district_id":"720112","name":"Dongin","postal_code":"94766"},{"id":"7201122002","district_id":"720112","name":"Pandan Wangi","postal_code":"94766"},{"id":"7201122003","district_id":"720112","name":"Kami Wangi","postal_code":"94766"},{"id":"7201122004","district_id":"720112","name":"Sindang Sari","postal_code":"94766"},{"id":"7201122005","district_id":"720112","name":"Makapa","postal_code":"94766"},{"id":"7201122006","district_id":"720112","name":"Karya Makmur","postal_code":"94766"},{"id":"7201122007","district_id":"720112","name":"Mantawa","postal_code":"94766"},{"id":"7201122008","district_id":"720112","name":"Pasir Lamba","postal_code":"94766"},{"id":"7201122009","district_id":"720112","name":"Mantawa Bonebae","postal_code":"94766"},{"id":"7201122010","district_id":"720112","name":"Gunung Kramat","postal_code":"94766"},{"id":"7201122011","district_id":"720112","name":"Lembah Kramat","postal_code":"94766"},{"id":"7201122012","district_id":"720112","name":"Rata","postal_code":"94766"},{"id":"7201122013","district_id":"720112","name":"Bukit Makarti","postal_code":"94766"},{"id":"7201122014","district_id":"720112","name":"Uwe Lolu","postal_code":"94766"},{"id":"7201122015","district_id":"720112","name":"Bumi Harapan","postal_code":"94766"},{"id":"7201122016","district_id":"720112","name":"Mekar Sari","postal_code":"94766"},{"id":"7201122017","district_id":"720112","name":"Mekar Jaya","postal_code":"94766"}]