[{"id":"7202021008","district_id":"720202","name":"Kasinguncu","postal_code":"94652"},{"id":"7202021009","district_id":"720202","name":"Mapane","postal_code":"94652"},{"id":"7202021031","district_id":"720202","name":"Tabalu","postal_code":"94652"},{"id":"7202022007","district_id":"720202","name":"Betania","postal_code":"94652"},{"id":"7202022010","district_id":"720202","name":"Toini","postal_code":"94652"},{"id":"7202022012","district_id":"720202","name":"Bega","postal_code":"94652"},{"id":"7202022013","district_id":"720202","name":"Masamba","postal_code":"94652"},{"id":"7202022014","district_id":"720202","name":"Saatu","postal_code":"94652"},{"id":"7202022015","district_id":"720202","name":"Pinedapa","postal_code":"94652"},{"id":"7202022016","district_id":"720202","name":"Masani","postal_code":"94652"},{"id":"7202022017","district_id":"720202","name":"Tokorondo","postal_code":"94652"},{"id":"7202022018","district_id":"720202","name":"Tiwaa","postal_code":"94652"},{"id":"7202022027","district_id":"720202","name":"Lanto Jaya","postal_code":"94652"},{"id":"7202022028","district_id":"720202","name":"Lape","postal_code":"94652"},{"id":"7202022029","district_id":"720202","name":"Towu","postal_code":"94652"},{"id":"7202022030","district_id":"720202","name":"Ueralulu","postal_code":"94652"}]