[{"id":"7203062001","district_id":"720306","name":"Kambayang","postal_code":"94356"},{"id":"7203062002","district_id":"720306","name":"Talaga","postal_code":"94356"},{"id":"7203062003","district_id":"720306","name":"Sabang","postal_code":"94356"},{"id":"7203062004","district_id":"720306","name":"Sioyong","postal_code":"94356"},{"id":"7203062005","district_id":"720306","name":"Pani'i","postal_code":"94356"},{"id":"7203062006","district_id":"720306","name":"Ponggerang","postal_code":"94356"},{"id":"7203062007","district_id":"720306","name":"Rerang","postal_code":"94356"},{"id":"7203062009","district_id":"720306","name":"Budi Mukti","postal_code":"94356"},{"id":"7203062010","district_id":"720306","name":"Lembah Mukti","postal_code":"94356"},{"id":"7203062011","district_id":"720306","name":"Malonas","postal_code":"94356"},{"id":"7203062013","district_id":"720306","name":"Parisan Agung","postal_code":"94356"},{"id":"7203062014","district_id":"720306","name":"Karya Mukti","postal_code":"94356"},{"id":"7203062015","district_id":"720306","name":"Long","postal_code":"94356"}]