[{"id":"7208052005","district_id":"720805","name":"Tingkulang","postal_code":"94478"},{"id":"7208052006","district_id":"720805","name":"Tomini","postal_code":"94478"},{"id":"7208052007","district_id":"720805","name":"Ogotumubu","postal_code":"94478"},{"id":"7208052008","district_id":"720805","name":"Ambesia","postal_code":"94478"},{"id":"7208052009","district_id":"720805","name":"Tilung","postal_code":"94478"},{"id":"7208052022","district_id":"720805","name":"Ambesia Selatan","postal_code":"94478"},{"id":"7208052023","district_id":"720805","name":"Biga","postal_code":"94478"},{"id":"7208052024","district_id":"720805","name":"Tomini Utara","postal_code":"94478"},{"id":"7208052025","district_id":"720805","name":"Tomini Barat","postal_code":"94478"},{"id":"7208052026","district_id":"720805","name":"Supilopong","postal_code":"94478"},{"id":"7208052027","district_id":"720805","name":"Ambesia Barat","postal_code":"94478"},{"id":"7208052028","district_id":"720805","name":"Sipontan","postal_code":"94478"},{"id":"7208052029","district_id":"720805","name":"Ta'aniuge","postal_code":"94478"},{"id":"7208052030","district_id":"720805","name":"Ogotumubu Barat","postal_code":"94478"}]