[{"id":"7208102001","district_id":"720810","name":"Tada","postal_code":"94468"},{"id":"7208102002","district_id":"720810","name":"Sinei","postal_code":"94468"},{"id":"7208102003","district_id":"720810","name":"Maninili","postal_code":"94468"},{"id":"7208102004","district_id":"720810","name":"Sigenti","postal_code":"94468"},{"id":"7208102005","district_id":"720810","name":"Malanggo","postal_code":"94468"},{"id":"7208102006","district_id":"720810","name":"Silutung","postal_code":"94468"},{"id":"7208102007","district_id":"720810","name":"Tada Selatan","postal_code":"94468"},{"id":"7208102008","district_id":"720810","name":"Sigega Bersehati","postal_code":"94468"},{"id":"7208102009","district_id":"720810","name":"Siaga","postal_code":"94468"},{"id":"7208102010","district_id":"720810","name":"Khatulistiwa","postal_code":"94468"},{"id":"7208102011","district_id":"720810","name":"Poly ","postal_code":"94468"},{"id":"7208102012","district_id":"720810","name":"Sigenti Selatan","postal_code":"94468"},{"id":"7208102013","district_id":"720810","name":"Tada Timur","postal_code":"94468"},{"id":"7208102014","district_id":"720810","name":"Sigenti Barat","postal_code":"94468"},{"id":"7208102015","district_id":"720810","name":"Malanggo Pesisir","postal_code":"94468"},{"id":"7208102016","district_id":"720810","name":"Maninili Barat","postal_code":"94468"},{"id":"7208102017","district_id":"720810","name":"Maninili Utara","postal_code":"94468"},{"id":"7208102018","district_id":"720810","name":"Siney Tengah","postal_code":"94468"},{"id":"7208102019","district_id":"720810","name":"Tada Utara","postal_code":"94468"},{"id":"7208102020","district_id":"720810","name":"Oncone Raya","postal_code":"94468"}]