[{"id":"7209062001","district_id":"720906","name":"Tampanombo","postal_code":"94682"},{"id":"7209062002","district_id":"720906","name":"Bonebae II","postal_code":"94682"},{"id":"7209062003","district_id":"720906","name":"Tobamau ","postal_code":"94682"},{"id":"7209062004","district_id":"720906","name":"Rompi","postal_code":"94682"},{"id":"7209062005","district_id":"720906","name":"Uematopa","postal_code":"94682"},{"id":"7209062006","district_id":"720906","name":"Uekambuno","postal_code":"94682"},{"id":"7209062007","district_id":"720906","name":"Paranonge","postal_code":"94682"},{"id":"7209062008","district_id":"720906","name":"Bonebae I","postal_code":"94682"},{"id":"7209062009","district_id":"720906","name":"Watusongu","postal_code":"94682"},{"id":"7209062010","district_id":"720906","name":"Mire","postal_code":"94682"},{"id":"7209062011","district_id":"720906","name":"Marowo","postal_code":"94682"},{"id":"7209062012","district_id":"720906","name":"Borneang","postal_code":"94682"},{"id":"7209062013","district_id":"720906","name":"Bongka Makmur","postal_code":"94682"},{"id":"7209062015","district_id":"720906","name":"Cempa","postal_code":"94682"},{"id":"7209062016","district_id":"720906","name":"Boneveto ","postal_code":"94682"},{"id":"7209062017","district_id":"720906","name":"Bongkakoy ","postal_code":"94682"},{"id":"7209062018","district_id":"720906","name":"Takibangke","postal_code":"94682"},{"id":"7209062019","district_id":"720906","name":"Kasiala","postal_code":"94682"}]