[{"id":"7209072001","district_id":"720907","name":"Malei Tojo","postal_code":"94680"},{"id":"7209072002","district_id":"720907","name":"Matako","postal_code":"94680"},{"id":"7209072003","district_id":"720907","name":"Bambalo","postal_code":"94680"},{"id":"7209072004","district_id":"720907","name":"Galuga","postal_code":"94680"},{"id":"7209072005","district_id":"720907","name":"Toliba","postal_code":"94680"},{"id":"7209072006","district_id":"720907","name":"Ujung Tibu","postal_code":"94680"},{"id":"7209072007","district_id":"720907","name":"Nggawia","postal_code":"94680"},{"id":"7209072008","district_id":"720907","name":"Tombiano","postal_code":"94680"},{"id":"7209072009","district_id":"720907","name":"Tatari","postal_code":"94680"},{"id":"7209072010","district_id":"720907","name":"Kabalo","postal_code":"94680"},{"id":"7209072011","district_id":"720907","name":"Tanamawau","postal_code":"94680"},{"id":"7209072012","district_id":"720907","name":"Malewa","postal_code":"94680"},{"id":"7209072013","district_id":"720907","name":"Mawomba","postal_code":"94680"}]