[{"id":"7210012001","district_id":"721001","name":"Sidondo II","postal_code":"94367"},{"id":"7210012002","district_id":"721001","name":"Sidondo I","postal_code":"94367"},{"id":"7210012003","district_id":"721001","name":"Bora","postal_code":"94367"},{"id":"7210012004","district_id":"721001","name":"Watunonju","postal_code":"94367"},{"id":"7210012005","district_id":"721001","name":"Olobuju","postal_code":"94367"},{"id":"7210012006","district_id":"721001","name":"Soulowe","postal_code":"94367"},{"id":"7210012007","district_id":"721001","name":"Sidera","postal_code":"94367"},{"id":"7210012008","district_id":"721001","name":"Jono Oge","postal_code":"94367"},{"id":"7210012009","district_id":"721001","name":"Kalukubula","postal_code":"94367"},{"id":"7210012010","district_id":"721001","name":"Lolu","postal_code":"94367"},{"id":"7210012011","district_id":"721001","name":"Pombewe","postal_code":"94367"},{"id":"7210012012","district_id":"721001","name":"Loru","postal_code":"94367"},{"id":"7210012013","district_id":"721001","name":"Mpanau","postal_code":"94367"},{"id":"7210012014","district_id":"721001","name":"Ngatabaru","postal_code":"94367"},{"id":"7210012015","district_id":"721001","name":"Maranatha","postal_code":"94367"},{"id":"7210012016","district_id":"721001","name":"Sidondo III","postal_code":"94367"},{"id":"7210012017","district_id":"721001","name":"Sidondo IV","postal_code":"94367"}]