[{"id":"7302091001","district_id":"730209","name":"Dannuang","postal_code":"92562"},{"id":"7302092002","district_id":"730209","name":"Garanta","postal_code":"92562"},{"id":"7302092003","district_id":"730209","name":"Balle Angin ","postal_code":"92562"},{"id":"7302092004","district_id":"730209","name":"Balong","postal_code":"92562"},{"id":"7302092005","district_id":"730209","name":"Seppang","postal_code":"92562"},{"id":"7302092006","district_id":"730209","name":"Manyampa","postal_code":"92562"},{"id":"7302092007","district_id":"730209","name":"Tammatto ","postal_code":"92562"},{"id":"7302092008","district_id":"730209","name":"Padang Loang","postal_code":"92562"},{"id":"7302092009","district_id":"730209","name":"Manjalling","postal_code":"92562"},{"id":"7302092010","district_id":"730209","name":"Lonrong","postal_code":"92562"},{"id":"7302092011","district_id":"730209","name":"Salemba","postal_code":"92562"},{"id":"7302092012","district_id":"730209","name":"Bijawang","postal_code":"92562"},{"id":"7302092013","district_id":"730209","name":"Paccaramengang","postal_code":"92562"}]