[{"id":"7302061001","district_id":"730206","name":"Tanah Jaya","postal_code":"92574"},{"id":"7302061002","district_id":"730206","name":"Laikang","postal_code":"92574"},{"id":"7302062003","district_id":"730206","name":"Tambangan","postal_code":"92574"},{"id":"7302062004","district_id":"730206","name":"Lembanna","postal_code":"92574"},{"id":"7302062005","district_id":"730206","name":"Possi Tanah","postal_code":"92574"},{"id":"7302062006","district_id":"730206","name":"Tanah Towa","postal_code":"92574"},{"id":"7302062007","district_id":"730206","name":"Bontobiraeng","postal_code":"92574"},{"id":"7302062008","district_id":"730206","name":"Lembang","postal_code":"92574"},{"id":"7302062009","district_id":"730206","name":"Batunilamung","postal_code":"92574"},{"id":"7302062010","district_id":"730206","name":"Mattoanging","postal_code":"92574"},{"id":"7302062011","district_id":"730206","name":"Malleleng","postal_code":"92574"},{"id":"7302062012","district_id":"730206","name":"Bonto Baji","postal_code":"92574"},{"id":"7302062013","district_id":"730206","name":"Bontorannu","postal_code":"92574"},{"id":"7302062014","district_id":"730206","name":"Pattiroang","postal_code":"92574"},{"id":"7302062015","district_id":"730206","name":"Sapanang","postal_code":"92574"},{"id":"7302062016","district_id":"730206","name":"Sangkala","postal_code":"92574"},{"id":"7302062017","district_id":"730206","name":"Lembang Lohe","postal_code":"92574"},{"id":"7302062018","district_id":"730206","name":"Lolisang","postal_code":"92574"},{"id":"7302062019","district_id":"730206","name":"Pantama","postal_code":"92574"}]