[{"id":"7306011001","district_id":"730601","name":"Bontonompo","postal_code":"92153"},{"id":"7306011002","district_id":"730601","name":"Tamallayang","postal_code":"92153"},{"id":"7306011003","district_id":"730601","name":"Kalaserena","postal_code":"92153"},{"id":"7306012004","district_id":"730601","name":"Bontolangkasa Utara","postal_code":"92153"},{"id":"7306012005","district_id":"730601","name":"Bontolangkasa Selatan","postal_code":"92153"},{"id":"7306012006","district_id":"730601","name":"Barembeng","postal_code":"92153"},{"id":"7306012015","district_id":"730601","name":"Manjapai","postal_code":"92153"},{"id":"7306012016","district_id":"730601","name":"Bontobiraeng","postal_code":"92153"},{"id":"7306012017","district_id":"730601","name":"Romanglasa","postal_code":"92153"},{"id":"7306012018","district_id":"730601","name":"Katangka","postal_code":"92153"},{"id":"7306012019","district_id":"730601","name":"Bulogading","postal_code":"92153"},{"id":"7306012020","district_id":"730601","name":"Bategulung","postal_code":"92153"},{"id":"7306012021","district_id":"730601","name":"Kalabarembeng","postal_code":"92153"},{"id":"7306012022","district_id":"730601","name":"Bontobiraeng Selatan","postal_code":"92153"}]