[{"id":"7308081001","district_id":"730808","name":"Maroanging","postal_code":"92781"},{"id":"7308082002","district_id":"730808","name":"Pattiro Bajo","postal_code":"92781"},{"id":"7308082003","district_id":"730808","name":"Massenreng Pulu","postal_code":"92781"},{"id":"7308082004","district_id":"730808","name":"Tunreng Tellue","postal_code":"92781"},{"id":"7308082005","district_id":"730808","name":"Polewali","postal_code":"92781"},{"id":"7308082006","district_id":"730808","name":"Tadang Palie","postal_code":"92781"},{"id":"7308082007","district_id":"730808","name":"Cinnong","postal_code":"92781"},{"id":"7308082008","district_id":"730808","name":"Mallusetasi","postal_code":"92781"},{"id":"7308082009","district_id":"730808","name":"Pakkasalo","postal_code":"92781"},{"id":"7308082010","district_id":"730808","name":"Pattiro Sompe","postal_code":"92781"},{"id":"7308082011","district_id":"730808","name":"Ajang Pulu","postal_code":"92781"},{"id":"7308082012","district_id":"730808","name":"Sumpang Minangae","postal_code":"92781"},{"id":"7308082013","district_id":"730808","name":"Mabbiring","postal_code":"92781"},{"id":"7308082014","district_id":"730808","name":"Pasaka","postal_code":"92781"},{"id":"7308082015","district_id":"730808","name":"Kalibong","postal_code":"92781"},{"id":"7308082016","district_id":"730808","name":"Pattiro Riolo","postal_code":"92781"},{"id":"7308082017","district_id":"730808","name":"Letta Tanah","postal_code":"92781"},{"id":"7308082018","district_id":"730808","name":"Manajeng","postal_code":"92781"},{"id":"7308082019","district_id":"730808","name":"Bulie","postal_code":"92781"},{"id":"7308082020","district_id":"730808","name":"Balieng Toa","postal_code":"92781"}]