[{"id":"7308201001","district_id":"730820","name":"Ujung Tanah","postal_code":"92754"},{"id":"7308202002","district_id":"730820","name":"Pacubbe","postal_code":"92754"},{"id":"7308202003","district_id":"730820","name":"Panyiwi","postal_code":"92754"},{"id":"7308202004","district_id":"730820","name":"Latonro","postal_code":"92754"},{"id":"7308202005","district_id":"730820","name":"Watu","postal_code":"92754"},{"id":"7308202006","district_id":"730820","name":"Nagauleng ","postal_code":"92754"},{"id":"7308202007","district_id":"730820","name":"Cenrana","postal_code":"92754"},{"id":"7308202008","district_id":"730820","name":"Pallime","postal_code":"92754"},{"id":"7308202009","district_id":"730820","name":"Laoni","postal_code":"92754"},{"id":"7308202010","district_id":"730820","name":"Labotto","postal_code":"92754"},{"id":"7308202011","district_id":"730820","name":"Awang Cengrana \/ Cenrana","postal_code":"92754"},{"id":"7308202012","district_id":"730820","name":"Labonge ","postal_code":"92754"},{"id":"7308202013","district_id":"730820","name":"Ajalase","postal_code":"92754"},{"id":"7308202014","district_id":"730820","name":"Pusunge ","postal_code":"92754"},{"id":"7308202015","district_id":"730820","name":"Pallae","postal_code":"92754"},{"id":"7308202016","district_id":"730820","name":"Watangta ","postal_code":"92754"}]