[{"id":"7308241015","district_id":"730824","name":"Mampotu","postal_code":"92756"},{"id":"7308242001","district_id":"730824","name":"Liliriattang ","postal_code":"92756"},{"id":"7308242002","district_id":"730824","name":"Mattaro Purae","postal_code":"92756"},{"id":"7308242003","district_id":"730824","name":"Ulaweng Riaja","postal_code":"92756"},{"id":"7308242004","district_id":"730824","name":"Waempubu ","postal_code":"92756"},{"id":"7308242005","district_id":"730824","name":"Waemputiange ","postal_code":"92756"},{"id":"7308242006","district_id":"730824","name":"Amali Riattang","postal_code":"92756"},{"id":"7308242007","district_id":"730824","name":"Tassipi","postal_code":"92756"},{"id":"7308242008","district_id":"730824","name":"Wellulang","postal_code":"92756"},{"id":"7308242009","district_id":"730824","name":"Benteng Tellue","postal_code":"92756"},{"id":"7308242010","district_id":"730824","name":"Tacipong","postal_code":"92756"},{"id":"7308242011","district_id":"730824","name":"Laponrong","postal_code":"92756"},{"id":"7308242012","district_id":"730824","name":"Ajang Laleng","postal_code":"92756"},{"id":"7308242013","district_id":"730824","name":"Tocinnong","postal_code":"92756"},{"id":"7308242014","district_id":"730824","name":"Bila","postal_code":"92756"}]