[{"id":"7313101001","district_id":"731310","name":"Bulete","postal_code":"90992"},{"id":"7313101002","district_id":"731310","name":"Siwa","postal_code":"90992"},{"id":"7313101003","district_id":"731310","name":"Tobarakka","postal_code":"90992"},{"id":"7313101004","district_id":"731310","name":"Benteng","postal_code":"90992"},{"id":"7313102005","district_id":"731310","name":"Batu","postal_code":"90992"},{"id":"7313102006","district_id":"731310","name":"Lauwa","postal_code":"90992"},{"id":"7313102007","district_id":"731310","name":"Tanrongi","postal_code":"90992"},{"id":"7313102008","district_id":"731310","name":"Lompoloang","postal_code":"90992"},{"id":"7313102009","district_id":"731310","name":"Tellesang","postal_code":"90992"},{"id":"7313102010","district_id":"731310","name":"Tangkoro","postal_code":"90992"},{"id":"7313102011","district_id":"731310","name":"Marannu","postal_code":"90992"},{"id":"7313102012","district_id":"731310","name":"Abbanderangnge","postal_code":"90992"},{"id":"7313102013","district_id":"731310","name":"Simpellu","postal_code":"90992"},{"id":"7313102014","district_id":"731310","name":"Alesilurengnge","postal_code":"90992"},{"id":"7313102015","district_id":"731310","name":"Jauh Pandang","postal_code":"90992"},{"id":"7313102016","district_id":"731310","name":"Lacinde","postal_code":"90992"},{"id":"7313102017","district_id":"731310","name":"Buriko","postal_code":"90992"},{"id":"7313102018","district_id":"731310","name":"Bau-Bau","postal_code":"90992"},{"id":"7313102019","district_id":"731310","name":"Ale Lebbae","postal_code":"90992"},{"id":"7313102020","district_id":"731310","name":"Bulu Siwa","postal_code":"90992"},{"id":"7313102021","district_id":"731310","name":"Botto Tengnga","postal_code":"90992"},{"id":"7313102022","district_id":"731310","name":"Kaluku","postal_code":"90992"},{"id":"7313102023","district_id":"731310","name":"Mattiro Walie","postal_code":"90992"},{"id":"7313102024","district_id":"731310","name":"Maccolli Loloe","postal_code":"90992"},{"id":"7313102025","district_id":"731310","name":"Lompo Bulo","postal_code":"90992"},{"id":"7313102026","district_id":"731310","name":"Padang Loang","postal_code":"90992"},{"id":"7313102027","district_id":"731310","name":"Kompong","postal_code":"90992"}]