[{"id":"7316011001","district_id":"731601","name":"Bangkala","postal_code":"91760"},{"id":"7316012002","district_id":"731601","name":"Patondon Salu","postal_code":"91760"},{"id":"7316012003","district_id":"731601","name":"Tuncung","postal_code":"91760"},{"id":"7316012004","district_id":"731601","name":"Pasang","postal_code":"91760"},{"id":"7316012005","district_id":"731601","name":"Salodua ","postal_code":"91760"},{"id":"7316012006","district_id":"731601","name":"Batu Mila","postal_code":"91760"},{"id":"7316012007","district_id":"731601","name":"Puncak Harapan","postal_code":"91760"},{"id":"7316012008","district_id":"731601","name":"Palakka","postal_code":"91760"},{"id":"7316012009","district_id":"731601","name":"Tapong","postal_code":"91760"},{"id":"7316012010","district_id":"731601","name":"Mangkawani ","postal_code":"91760"},{"id":"7316012011","district_id":"731601","name":"Botto Malangga ","postal_code":"91760"},{"id":"7316012012","district_id":"731601","name":"Boiya","postal_code":"91760"},{"id":"7316012013","district_id":"731601","name":"Matajang","postal_code":"91760"},{"id":"7316012014","district_id":"731601","name":"Baringin","postal_code":"91760"},{"id":"7316012015","district_id":"731601","name":"Lebani","postal_code":"91760"},{"id":"7316012016","district_id":"731601","name":"Limbuang","postal_code":"91760"},{"id":"7316012017","district_id":"731601","name":"Paladang","postal_code":"91760"},{"id":"7316012018","district_id":"731601","name":"Pariwang","postal_code":"91760"},{"id":"7316012019","district_id":"731601","name":"Kaluppang","postal_code":"91760"},{"id":"7316012020","district_id":"731601","name":"Ongko","postal_code":"91760"},{"id":"7316012021","district_id":"731601","name":"Tanete","postal_code":"91760"},{"id":"7316012022","district_id":"731601","name":"Labuku","postal_code":"91760"}]