[{"id":"7317021003","district_id":"731702","name":"Larompong","postal_code":"91997"},{"id":"7317022001","district_id":"731702","name":"Rantebelu","postal_code":"91997"},{"id":"7317022002","district_id":"731702","name":"Komba","postal_code":"91997"},{"id":"7317022004","district_id":"731702","name":"Lumaring","postal_code":"91997"},{"id":"7317022005","district_id":"731702","name":"Binturu","postal_code":"91997"},{"id":"7317022006","district_id":"731702","name":"Bilante","postal_code":"91997"},{"id":"7317022007","district_id":"731702","name":"Rante Alang","postal_code":"91997"},{"id":"7317022008","district_id":"731702","name":"Riwang","postal_code":"91997"},{"id":"7317022009","district_id":"731702","name":"Buntu Matabbing ","postal_code":"91997"},{"id":"7317022010","district_id":"731702","name":"Bukit Sutra ","postal_code":"91997"},{"id":"7317022011","district_id":"731702","name":"Riwang Selatan","postal_code":"91997"},{"id":"7317022012","district_id":"731702","name":"Komba Selatan","postal_code":"91997"},{"id":"7317022013","district_id":"731702","name":"Buntu Pasik","postal_code":"91997"}]