[{"id":"7326131002","district_id":"732613","name":"Sapan","postal_code":"91847"},{"id":"7326132001","district_id":"732613","name":"Buntu Minanga","postal_code":"91847"},{"id":"7326132003","district_id":"732613","name":"Serambu ","postal_code":"91847"},{"id":"7326132004","district_id":"732613","name":"Rante Uma","postal_code":"91847"},{"id":"7326132005","district_id":"732613","name":"Talimbangan","postal_code":"91847"},{"id":"7326132006","district_id":"732613","name":"Pulu' Pulu'","postal_code":"91847"},{"id":"7326132007","district_id":"732613","name":"Paonganan","postal_code":"91847"},{"id":"7326132008","district_id":"732613","name":"Parandangan","postal_code":"91847"},{"id":"7326132009","district_id":"732613","name":"Roroan Barra'-Barra'","postal_code":"91847"},{"id":"7326132010","district_id":"732613","name":"Pangkung Batu","postal_code":"91847"},{"id":"7326132011","district_id":"732613","name":"Pengkaroan Manuk ","postal_code":"91847"},{"id":"7326132012","district_id":"732613","name":"Batu Busa ","postal_code":"91847"},{"id":"7326132013","district_id":"732613","name":"Ponglu","postal_code":"91847"}]