[{"id":"7371031001","district_id":"737103","name":"Maricaya","postal_code":"90142"},{"id":"7371031002","district_id":"737103","name":"Bara-Baraya","postal_code":"90143"},{"id":"7371031003","district_id":"737103","name":"Maradekaya","postal_code":"90141"},{"id":"7371031004","district_id":"737103","name":"Lariangbangi ","postal_code":"90141"},{"id":"7371031005","district_id":"737103","name":"Maccini","postal_code":"90144"},{"id":"7371031006","district_id":"737103","name":"Maricaya Baru","postal_code":"90142"},{"id":"7371031007","district_id":"737103","name":"Bara-Baraya Timur","postal_code":"90143"},{"id":"7371031008","district_id":"737103","name":"Bara-Baraya Selatan","postal_code":"90143"},{"id":"7371031009","district_id":"737103","name":"Maradekaya Selatan","postal_code":"90141"},{"id":"7371031010","district_id":"737103","name":"Barana","postal_code":"90145"},{"id":"7371031011","district_id":"737103","name":"Maccini Parang","postal_code":"90144"},{"id":"7371031012","district_id":"737103","name":"Maccini Gusung","postal_code":"90144"},{"id":"7371031013","district_id":"737103","name":"Maradekaya Utara","postal_code":"90141"},{"id":"7371031014","district_id":"737103","name":"Bara-Baraya Utara","postal_code":"90143"}]