[{"id":"7401201001","district_id":"740120","name":"Tosiba","postal_code":"93521"},{"id":"7401201013","district_id":"740120","name":"Tonganapo","postal_code":"93521"},{"id":"7401202002","district_id":"740120","name":"Konaweha","postal_code":"93521"},{"id":"7401202003","district_id":"740120","name":"Kaloloa","postal_code":"93521"},{"id":"7401202004","district_id":"740120","name":"Tamboli","postal_code":"93521"},{"id":"7401202005","district_id":"740120","name":"Lambolemo","postal_code":"93521"},{"id":"7401202006","district_id":"740120","name":"Amamutu","postal_code":"93521"},{"id":"7401202007","district_id":"740120","name":"Lawulo","postal_code":"93521"},{"id":"7401202008","district_id":"740120","name":"Awa","postal_code":"93521"},{"id":"7401202009","district_id":"740120","name":"Latuo","postal_code":"93521"},{"id":"7401202010","district_id":"740120","name":"Wawo Tambali","postal_code":"93521"},{"id":"7401202011","district_id":"740120","name":"Malaha","postal_code":"93521"},{"id":"7401202012","district_id":"740120","name":"Sani-sani","postal_code":"93521"},{"id":"7401202014","district_id":"740120","name":"Ulu Konaweha","postal_code":"93521"},{"id":"7401202015","district_id":"740120","name":"Puu Tamboli","postal_code":"93521"},{"id":"7401202016","district_id":"740120","name":"Ulaweng","postal_code":"93521"},{"id":"7401202017","district_id":"740120","name":"Puu Lawulo","postal_code":"93521"},{"id":"7401202018","district_id":"740120","name":"Liku","postal_code":"93521"},{"id":"7401202019","district_id":"740120","name":"Meura","postal_code":"93521"}]