[{"id":"7402412001","district_id":"740241","name":"Wonggeduku","postal_code":"93469"},{"id":"7402412002","district_id":"740241","name":"Puday","postal_code":"93469"},{"id":"7402412003","district_id":"740241","name":"Waturay","postal_code":"93469"},{"id":"7402412004","district_id":"740241","name":"Tobimeita","postal_code":"93469"},{"id":"7402412005","district_id":"740241","name":"Kasukia","postal_code":"93469"},{"id":"7402412006","district_id":"740241","name":"Baruga","postal_code":"93469"},{"id":"7402412007","district_id":"740241","name":"Teteona","postal_code":"93469"},{"id":"7402412008","district_id":"740241","name":"Ambuuwiu ","postal_code":"93469"},{"id":"7402412009","district_id":"740241","name":"Linonggasai ","postal_code":"93469"},{"id":"7402412010","district_id":"740241","name":"Lambangi","postal_code":"93469"},{"id":"7402412011","district_id":"740241","name":"Lahotutu","postal_code":"93469"},{"id":"7402412012","district_id":"740241","name":"Lamokuni","postal_code":"93469"},{"id":"7402412013","district_id":"740241","name":"Ranotundobu","postal_code":"93469"},{"id":"7402412014","district_id":"740241","name":"Anggadola","postal_code":"93469"}]