[{"id":"7402201003","district_id":"740220","name":"Besulutu","postal_code":"93459"},{"id":"7402202001","district_id":"740220","name":"Lawonua","postal_code":"93459"},{"id":"7402202002","district_id":"740220","name":"Amosilu","postal_code":"93459"},{"id":"7402202004","district_id":"740220","name":"Laloumera","postal_code":"93459"},{"id":"7402202005","district_id":"740220","name":"Asunde","postal_code":"93459"},{"id":"7402202006","district_id":"740220","name":"Ulupohara","postal_code":"93459"},{"id":"7402202007","district_id":"740220","name":"Labela","postal_code":"93459"},{"id":"7402202008","district_id":"740220","name":"Ranomolua","postal_code":"93459"},{"id":"7402202009","district_id":"740220","name":"Silea","postal_code":"93459"},{"id":"7402202010","district_id":"740220","name":"Onembute","postal_code":"93459"},{"id":"7402202011","district_id":"740220","name":"Andomesinggo","postal_code":"93459"},{"id":"7402202012","district_id":"740220","name":"Puulowaru","postal_code":"93459"},{"id":"7402202013","district_id":"740220","name":"Puundoho","postal_code":"93459"},{"id":"7402202014","district_id":"740220","name":"Punggaluku","postal_code":"93459"},{"id":"7402202015","district_id":"740220","name":"Waworaha","postal_code":"93459"},{"id":"7402202016","district_id":"740220","name":"Lalowulo","postal_code":"93459"}]