[{"id":"7403271005","district_id":"740327","name":"Danagoa","postal_code":"93662"},{"id":"7403271007","district_id":"740327","name":"Kontumolepe","postal_code":"93662"},{"id":"7403271008","district_id":"740327","name":"Tombula","postal_code":"93662"},{"id":"7403272003","district_id":"740327","name":"Lamorende","postal_code":"93662"},{"id":"7403272004","district_id":"740327","name":"Laghontoghe \/ Lahontohe","postal_code":"93662"},{"id":"7403272006","district_id":"740327","name":"Lakologou","postal_code":"93662"},{"id":"7403272009","district_id":"740327","name":"Laano Sandana","postal_code":"93662"},{"id":"7403272014","district_id":"740327","name":"Oeno Kandoli","postal_code":"93662"},{"id":"7403272015","district_id":"740327","name":"Walengkabhola","postal_code":"93662"},{"id":"7403272016","district_id":"740327","name":"Fongkaniwa","postal_code":"93662"},{"id":"7403272017","district_id":"740327","name":"Matanooe ","postal_code":"93662"},{"id":"7403272019","district_id":"740327","name":"Kotano Wuna","postal_code":"93662"}]