[{"id":"7407011002","district_id":"740701","name":"Pongo","postal_code":"93791"},{"id":"7407011003","district_id":"740701","name":"Wanci","postal_code":"93791"},{"id":"7407011004","district_id":"740701","name":"Wandoka","postal_code":"93791"},{"id":"7407011007","district_id":"740701","name":"Waetuno","postal_code":"93791"},{"id":"7407011025","district_id":"740701","name":"Wandoka Utara","postal_code":"93791"},{"id":"7407011026","district_id":"740701","name":"Wandoka Selatan","postal_code":"93791"},{"id":"7407012005","district_id":"740701","name":"Sombu","postal_code":"93791"},{"id":"7407012006","district_id":"740701","name":"Waha","postal_code":"93791"},{"id":"7407012008","district_id":"740701","name":"Tindoi","postal_code":"93791"},{"id":"7407012009","district_id":"740701","name":"Maleko","postal_code":"93791"},{"id":"7407012013","district_id":"740701","name":"Longa","postal_code":"93791"},{"id":"7407012022","district_id":"740701","name":"Pada Raya Makmur","postal_code":"93791"},{"id":"7407012023","district_id":"740701","name":"Waelumu","postal_code":"93791"},{"id":"7407012024","district_id":"740701","name":"Patuno","postal_code":"93791"},{"id":"7407012027","district_id":"740701","name":"Waginopo","postal_code":"93791"},{"id":"7407012028","district_id":"740701","name":"Tindoi Timur","postal_code":"93791"},{"id":"7407012029","district_id":"740701","name":"Posalu","postal_code":"93791"},{"id":"7407012030","district_id":"740701","name":"Koroe Onawa","postal_code":"93791"},{"id":"7407012031","district_id":"740701","name":"Wapia-pia","postal_code":"93791"},{"id":"7407012032","district_id":"740701","name":"Pookambua","postal_code":"93791"}]