[{"id":"7409051001","district_id":"740905","name":"Tinobu","postal_code":"93352"},{"id":"7409052006","district_id":"740905","name":"Abola","postal_code":"93352"},{"id":"7409052007","district_id":"740905","name":"Belalo","postal_code":"93352"},{"id":"7409052008","district_id":"740905","name":"Andeo","postal_code":"93352"},{"id":"7409052009","district_id":"740905","name":"Matapila","postal_code":"93352"},{"id":"7409052010","district_id":"740905","name":"Andumowu","postal_code":"93352"},{"id":"7409052011","district_id":"740905","name":"Basule","postal_code":"93352"},{"id":"7409052012","district_id":"740905","name":"Waworaha","postal_code":"93352"},{"id":"7409052013","district_id":"740905","name":"Otole","postal_code":"93352"},{"id":"7409052016","district_id":"740905","name":"Watukila","postal_code":"93352"},{"id":"7409052017","district_id":"740905","name":"Lametono","postal_code":"93352"},{"id":"7409052020","district_id":"740905","name":"Larodangge","postal_code":"93352"},{"id":"7409052024","district_id":"740905","name":"Tetelupai","postal_code":"93352"},{"id":"7409052025","district_id":"740905","name":"Lalowaru","postal_code":"93352"},{"id":"7409052026","district_id":"740905","name":"Muara Tinobu","postal_code":"93352"},{"id":"7409052030","district_id":"740905","name":"Marombo Pantai ","postal_code":"93352"},{"id":"7409052031","district_id":"740905","name":"Tokowuta","postal_code":"93352"}]