[{"id":"7409101002","district_id":"740910","name":"Bende","postal_code":"93358"},{"id":"7409102001","district_id":"740910","name":"Tondowatu","postal_code":"93358"},{"id":"7409102003","district_id":"740910","name":"Matandahi","postal_code":"93358"},{"id":"7409102004","district_id":"740910","name":"Banggina","postal_code":"93358"},{"id":"7409102005","district_id":"740910","name":"Motui","postal_code":"93358"},{"id":"7409102006","district_id":"740910","name":"Wawoluri","postal_code":"93358"},{"id":"7409102007","district_id":"740910","name":"Lambuluo","postal_code":"93358"},{"id":"7409102008","district_id":"740910","name":"Poni Poniki","postal_code":"93358"},{"id":"7409102009","district_id":"740910","name":"Puuwonggia","postal_code":"93358"},{"id":"7409102010","district_id":"740910","name":"Punggulahi","postal_code":"93358"},{"id":"7409102011","district_id":"740910","name":"Sama Subur","postal_code":"93358"},{"id":"7409102012","district_id":"740910","name":"Ranombupulu","postal_code":"93358"},{"id":"7409102013","district_id":"740910","name":"Tobimeita","postal_code":"93358"},{"id":"7409102014","district_id":"740910","name":"Kapolano","postal_code":"93358"},{"id":"7409102015","district_id":"740910","name":"Sambasule","postal_code":"93358"}]