[{"id":"7409071002","district_id":"740907","name":"Sawa","postal_code":"93357"},{"id":"7409072003","district_id":"740907","name":"Lalembo","postal_code":"93357"},{"id":"7409072004","district_id":"740907","name":"Laimeo","postal_code":"93357"},{"id":"7409072005","district_id":"740907","name":"Pudonggala","postal_code":"93357"},{"id":"7409072007","district_id":"740907","name":"Matanggonawe","postal_code":"93357"},{"id":"7409072008","district_id":"740907","name":"Kokapi","postal_code":"93357"},{"id":"7409072012","district_id":"740907","name":"Tongauna ","postal_code":"93357"},{"id":"7409072013","district_id":"740907","name":"Puupi","postal_code":"93357"},{"id":"7409072016","district_id":"740907","name":"Pudonggala Utama","postal_code":"93357"},{"id":"7409072017","district_id":"740907","name":"Ulu Sawa","postal_code":"93357"},{"id":"7409072021","district_id":"740907","name":"Tudungano","postal_code":"93357"},{"id":"7409072022","district_id":"740907","name":"Tanjung Laimeo","postal_code":"93357"},{"id":"7409072023","district_id":"740907","name":"Panggulawu","postal_code":"93357"},{"id":"7409072024","district_id":"740907","name":"Pekaroa","postal_code":"93357"}]