[{"id":"7410011008","district_id":"741001","name":"Bangkudu","postal_code":"93672"},{"id":"7410011009","district_id":"741001","name":"Lipu","postal_code":"93672"},{"id":"7410011010","district_id":"741001","name":"Lakonea","postal_code":"93672"},{"id":"7410011012","district_id":"741001","name":"Lemo","postal_code":"93672"},{"id":"7410011014","district_id":"741001","name":"Bonelipu","postal_code":"93672"},{"id":"7410011016","district_id":"741001","name":"Sara'ea","postal_code":"93672"},{"id":"7410011017","district_id":"741001","name":"Wandaka","postal_code":"93672"},{"id":"7410012001","district_id":"741001","name":"Tri Wacu-Wacu","postal_code":"93672"},{"id":"7410012002","district_id":"741001","name":"Waculaea","postal_code":"93672"},{"id":"7410012003","district_id":"741001","name":"Eelahaji","postal_code":"93672"},{"id":"7410012004","district_id":"741001","name":"Tomoahi","postal_code":"93672"},{"id":"7410012005","district_id":"741001","name":"Kalibu","postal_code":"93672"},{"id":"7410012006","district_id":"741001","name":"Jampaka","postal_code":"93672"},{"id":"7410012007","district_id":"741001","name":"Loji","postal_code":"93672"},{"id":"7410012011","district_id":"741001","name":"Linsowu","postal_code":"93672"},{"id":"7410012013","district_id":"741001","name":"Rombo","postal_code":"93672"},{"id":"7410012018","district_id":"741001","name":"Wasalabose","postal_code":"93672"},{"id":"7410012019","district_id":"741001","name":"Malalanda","postal_code":"93672"},{"id":"7410012020","district_id":"741001","name":"Lemo Ea","postal_code":"93672"},{"id":"7410012021","district_id":"741001","name":"Lantagi","postal_code":"93672"},{"id":"7410012022","district_id":"741001","name":"Laangke","postal_code":"93672"},{"id":"7410012023","district_id":"741001","name":"Kadacua","postal_code":"93672"},{"id":"7410012024","district_id":"741001","name":"Banu-Banua Jaya","postal_code":"93672"}]