[{"id":"7411122001","district_id":"741112","name":"Gunung Jaya","postal_code":"93576"},{"id":"7411122002","district_id":"741112","name":"Lembah Subur","postal_code":"93576"},{"id":"7411122003","district_id":"741112","name":"Dangia","postal_code":"93576"},{"id":"7411122004","district_id":"741112","name":"Lamosila","postal_code":"93576"},{"id":"7411122005","district_id":"741112","name":"Tetewua","postal_code":"93576"},{"id":"7411122006","district_id":"741112","name":"Anambada","postal_code":"93576"},{"id":"7411122007","district_id":"741112","name":"Talinduka","postal_code":"93576"},{"id":"7411122008","district_id":"741112","name":"Tetembuta","postal_code":"93576"},{"id":"7411122009","district_id":"741112","name":"Lalongkateba","postal_code":"93576"},{"id":"7411122010","district_id":"741112","name":"Wande","postal_code":"93576"},{"id":"7411122011","district_id":"741112","name":"Mekar Jaya","postal_code":"93576"},{"id":"7411122012","district_id":"741112","name":"Mulia Jaya","postal_code":"93576"}]