[{"id":"7411041001","district_id":"741104","name":"Poli-Polia","postal_code":"93579"},{"id":"7411042002","district_id":"741104","name":"Wia-Wia","postal_code":"93579"},{"id":"7411042003","district_id":"741104","name":"Pangi-Pangi","postal_code":"93579"},{"id":"7411042004","district_id":"741104","name":"Tokai","postal_code":"93579"},{"id":"7411042005","district_id":"741104","name":"Andowengga","postal_code":"93579"},{"id":"7411042006","district_id":"741104","name":"Taosu","postal_code":"93579"},{"id":"7411042007","district_id":"741104","name":"Pole Maju Jaya","postal_code":"93579"},{"id":"7411042008","district_id":"741104","name":"Polenga Jaya","postal_code":"93579"},{"id":"7411042009","district_id":"741104","name":"Wundumbite","postal_code":"93579"},{"id":"7411042010","district_id":"741104","name":"Hakambololi","postal_code":"93579"},{"id":"7411042011","district_id":"741104","name":"Inotu Mewao","postal_code":"93579"},{"id":"7411042012","district_id":"741104","name":"Puundokulo","postal_code":"93579"}]