[{"id":"7414041001","district_id":"741404","name":"Watolo","postal_code":"93762"},{"id":"7414041002","district_id":"741404","name":"Mawasangka","postal_code":"93762"},{"id":"7414042003","district_id":"741404","name":"Oengkolaki","postal_code":"93762"},{"id":"7414042004","district_id":"741404","name":"Banga","postal_code":"93762"},{"id":"7414042005","district_id":"741404","name":"Tanailandu","postal_code":"93762"},{"id":"7414042006","district_id":"741404","name":"Polindu","postal_code":"93762"},{"id":"7414042007","district_id":"741404","name":"Kanapa Napa","postal_code":"93762"},{"id":"7414042008","district_id":"741404","name":"Terapung","postal_code":"93762"},{"id":"7414042009","district_id":"741404","name":"Wasilomata II","postal_code":"93762"},{"id":"7414042010","district_id":"741404","name":"Wasilotama I ","postal_code":"93762"},{"id":"7414042011","district_id":"741404","name":"Matara","postal_code":"93762"},{"id":"7414042012","district_id":"741404","name":"Balobone","postal_code":"93762"},{"id":"7414042013","district_id":"741404","name":"Napa","postal_code":"93762"},{"id":"7414042014","district_id":"741404","name":"Wakambangura","postal_code":"93762"},{"id":"7414042015","district_id":"741404","name":"Kancebungi","postal_code":"93762"},{"id":"7414042016","district_id":"741404","name":"Gumanano","postal_code":"93762"},{"id":"7414042017","district_id":"741404","name":"Dahiango","postal_code":"93762"},{"id":"7414042018","district_id":"741404","name":"Air Bajo","postal_code":"93762"},{"id":"7414042019","district_id":"741404","name":"Wakambangura II","postal_code":"93762"}]