[{"id":"7501132001","district_id":"750113","name":"Sukamakmur","postal_code":"96222"},{"id":"7501132002","district_id":"750113","name":"Lakeya","postal_code":"96222"},{"id":"7501132003","district_id":"750113","name":"Gandasari","postal_code":"96222"},{"id":"7501132004","district_id":"750113","name":"Molohu","postal_code":"96222"},{"id":"7501132007","district_id":"750113","name":"Polohungo","postal_code":"96222"},{"id":"7501132008","district_id":"750113","name":"Bina Jaya","postal_code":"96222"},{"id":"7501132009","district_id":"750113","name":"Tamaila","postal_code":"96222"},{"id":"7501132010","district_id":"750113","name":"Sidoarjo","postal_code":"96222"},{"id":"7501132013","district_id":"750113","name":"Sukamakmur Utara","postal_code":"96222"},{"id":"7501132014","district_id":"750113","name":"Margomulya","postal_code":"96222"},{"id":"7501132015","district_id":"750113","name":"Makmur Abadi","postal_code":"96222"},{"id":"7501132016","district_id":"750113","name":"Gandaria","postal_code":"96222"},{"id":"7501132017","district_id":"750113","name":"Ombulo Tango","postal_code":"96222"},{"id":"7501132018","district_id":"750113","name":"Tamaila Utara","postal_code":"96222"},{"id":"7501132019","district_id":"750113","name":"Himalaya","postal_code":"96222"}]