[{"id":"7603011001","district_id":"760301","name":"Mambi","postal_code":"91370"},{"id":"7603011002","district_id":"760301","name":"Talipukki","postal_code":"91370"},{"id":"7603012004","district_id":"760301","name":"Rantebulahan","postal_code":"91370"},{"id":"7603012008","district_id":"760301","name":"Sondonglayu","postal_code":"91370"},{"id":"7603012016","district_id":"760301","name":"Salubanua","postal_code":"91370"},{"id":"7603012017","district_id":"760301","name":"Tapalina","postal_code":"91370"},{"id":"7603012019","district_id":"760301","name":"Sendana","postal_code":"91370"},{"id":"7603012024","district_id":"760301","name":"Pamosean","postal_code":"91370"},{"id":"7603012025","district_id":"760301","name":"Selumaka","postal_code":"91370"},{"id":"7603012026","district_id":"760301","name":"Bujung Manurung","postal_code":"91370"},{"id":"7603012027","district_id":"760301","name":"Salu Alo","postal_code":"91370"},{"id":"7603012029","district_id":"760301","name":"Indobanua","postal_code":"91370"},{"id":"7603012030","district_id":"760301","name":"Saludurian","postal_code":"91370"}]