[{"id":"7603112001","district_id":"760311","name":"Mokallang","postal_code":"91371"},{"id":"7603112002","district_id":"760311","name":"Masoso","postal_code":"91371"},{"id":"7603112003","district_id":"760311","name":"Saluassing","postal_code":"91371"},{"id":"7603112004","district_id":"760311","name":"Salubulo","postal_code":"91371"},{"id":"7603112005","district_id":"760311","name":"Salukadi","postal_code":"91371"},{"id":"7603112006","district_id":"760311","name":"Salukepopok","postal_code":"91371"},{"id":"7603112007","district_id":"760311","name":"Ulumambi Barat","postal_code":"91371"},{"id":"7603112008","district_id":"760311","name":"Limbadebata","postal_code":"91371"},{"id":"7603112009","district_id":"760311","name":"Tanete Tomba","postal_code":"91371"},{"id":"7603112010","district_id":"760311","name":"Bambang","postal_code":"91371"},{"id":"7603112011","district_id":"760311","name":"Rantelemo","postal_code":"91371"},{"id":"7603112012","district_id":"760311","name":"Saludengen","postal_code":"91371"},{"id":"7603112013","district_id":"760311","name":"Ulumambi","postal_code":"91371"},{"id":"7603112014","district_id":"760311","name":"Bambang Timur","postal_code":"91371"},{"id":"7603112015","district_id":"760311","name":"Minanga","postal_code":"91371"},{"id":"7603112016","district_id":"760311","name":"Sikamase","postal_code":"91371"},{"id":"7603112017","district_id":"760311","name":"Rantetarima","postal_code":"91371"},{"id":"7603112018","district_id":"760311","name":"Salururu","postal_code":"91371"},{"id":"7603112019","district_id":"760311","name":"Salutabang","postal_code":"91371"},{"id":"7603112020","district_id":"760311","name":"Balatana","postal_code":"91371"}]