[{"id":"7603031001","district_id":"760303","name":"Mamasa","postal_code":"91362"},{"id":"7603032002","district_id":"760303","name":"Rambusaratu","postal_code":"91362"},{"id":"7603032003","district_id":"760303","name":"Osango","postal_code":"91362"},{"id":"7603032004","district_id":"760303","name":"Lambanan","postal_code":"91362"},{"id":"7603032005","district_id":"760303","name":"Lembana Salulo","postal_code":"91362"},{"id":"7603032006","district_id":"760303","name":"Taupe","postal_code":"91362"},{"id":"7603032007","district_id":"760303","name":"Buntu Buda","postal_code":"91362"},{"id":"7603032008","district_id":"760303","name":"Tondok Bakaru","postal_code":"91362"},{"id":"7603032009","district_id":"760303","name":"Pebassian","postal_code":"91362"},{"id":"7603032010","district_id":"760303","name":"Mambuliling","postal_code":"91362"},{"id":"7603032011","district_id":"760303","name":"Bombong Lambe","postal_code":"91362"},{"id":"7603032012","district_id":"760303","name":"Bubun Batu","postal_code":"91362"}]