[{"id":"7604031001","district_id":"760403","name":"Sidodadi","postal_code":"91342"},{"id":"7604032002","district_id":"760403","name":"Sidorejo","postal_code":"91342"},{"id":"7604032003","district_id":"760403","name":"Sumberjo","postal_code":"91342"},{"id":"7604032004","district_id":"760403","name":"Bumiayu","postal_code":"91342"},{"id":"7604032005","district_id":"760403","name":"Kebunsari","postal_code":"91342"},{"id":"7604032006","district_id":"760403","name":"Banua Baru","postal_code":"91342"},{"id":"7604032007","district_id":"760403","name":"Nepo","postal_code":"91342"},{"id":"7604032008","district_id":"760403","name":"Sugihwaras","postal_code":"91342"},{"id":"7604032009","district_id":"760403","name":"Campurjo","postal_code":"91342"},{"id":"7604032010","district_id":"760403","name":"Bumimulyo","postal_code":"91342"},{"id":"7604032011","district_id":"760403","name":"Tumpiling","postal_code":"91342"},{"id":"7604032012","district_id":"760403","name":"Bakka-Bakka","postal_code":"91342"},{"id":"7604032013","district_id":"760403","name":"Arjosari","postal_code":"91342"},{"id":"7604032014","district_id":"760403","name":"Galeso","postal_code":"91342"}]