[{"id":"8102182001","district_id":"810218","name":"Hoat","postal_code":"97633"},{"id":"8102182002","district_id":"810218","name":"Ngafan","postal_code":"97633"},{"id":"8102182003","district_id":"810218","name":"Feer","postal_code":"97633"},{"id":"8102182004","district_id":"810218","name":"Rerean","postal_code":"97633"},{"id":"8102182005","district_id":"810218","name":"Ngurko","postal_code":"97633"},{"id":"8102182006","district_id":"810218","name":"Hoko","postal_code":"97633"},{"id":"8102182007","district_id":"810218","name":"Weduar Fer","postal_code":"97633"},{"id":"8102182008","district_id":"810218","name":"Uat","postal_code":"97633"},{"id":"8102182009","district_id":"810218","name":"Ngan","postal_code":"97633"},{"id":"8102182010","district_id":"810218","name":"Watkidat","postal_code":"97633"},{"id":"8102182011","district_id":"810218","name":"Ohoilean","postal_code":"97633"},{"id":"8102182012","district_id":"810218","name":"Wafol","postal_code":"97633"},{"id":"8102182013","district_id":"810218","name":"Rahangiar","postal_code":"97633"}]