[{"id":"8105042001","district_id":"810504","name":"Kataloka","postal_code":"97593"},{"id":"8105042003","district_id":"810504","name":"Amarsekaru","postal_code":"97593"},{"id":"8105042004","district_id":"810504","name":"Ondor","postal_code":"97593"},{"id":"8105042005","district_id":"810504","name":"Day","postal_code":"97593"},{"id":"8105042006","district_id":"810504","name":"Mida","postal_code":"97593"},{"id":"8105042021","district_id":"810504","name":"Loko","postal_code":"97593"},{"id":"8105042022","district_id":"810504","name":"Sera","postal_code":"97593"},{"id":"8105042023","district_id":"810504","name":"Kulugowa","postal_code":"97593"},{"id":"8105042024","district_id":"810504","name":"Rumeon","postal_code":"97593"},{"id":"8105042031","district_id":"810504","name":"Kelibingan","postal_code":"97593"},{"id":"8105042032","district_id":"810504","name":"Ilili","postal_code":"97593"},{"id":"8105042042","district_id":"810504","name":"Namalean","postal_code":"97593"},{"id":"8105042043","district_id":"810504","name":"Dulak","postal_code":"97593"},{"id":"8105042044","district_id":"810504","name":"Kilalir Kilwouw","postal_code":"97593"},{"id":"8105042045","district_id":"810504","name":"Kilotak","postal_code":"97593"},{"id":"8105042046","district_id":"810504","name":"Kilean","postal_code":"97593"},{"id":"8105042047","district_id":"810504","name":"Kaforing","postal_code":"97593"},{"id":"8105042048","district_id":"810504","name":"Arewang","postal_code":"97593"},{"id":"8105042049","district_id":"810504","name":"Usun Kataloka","postal_code":"97593"},{"id":"8105042050","district_id":"810504","name":"Buan Kataloka","postal_code":"97593"},{"id":"8105042051","district_id":"810504","name":"Rumanama Kotawouw Kataloka","postal_code":"97593"},{"id":"8105042052","district_id":"810504","name":"Sikaro Kataloka","postal_code":"97593"},{"id":"8105042053","district_id":"810504","name":"Aroa Kataloka","postal_code":"97593"},{"id":"8105042054","district_id":"810504","name":"Dada Kataloka","postal_code":"97593"}]