[{"id":"8105082001","district_id":"810508","name":"Selor","postal_code":"97591"},{"id":"8105082002","district_id":"810508","name":"Nekan","postal_code":"97591"},{"id":"8105082003","district_id":"810508","name":"Afang Kota","postal_code":"97591"},{"id":"8105082004","district_id":"810508","name":"Afang Defol","postal_code":"97591"},{"id":"8105082005","district_id":"810508","name":"Kumelang","postal_code":"97591"},{"id":"8105082006","district_id":"810508","name":"Undur","postal_code":"97591"},{"id":"8105082007","district_id":"810508","name":"Kamar","postal_code":"97591"},{"id":"8105082008","district_id":"810508","name":"Gunak","postal_code":"97591"},{"id":"8105082009","district_id":"810508","name":"Sumbawa","postal_code":"97591"},{"id":"8105082010","district_id":"810508","name":"Kilmury","postal_code":"97591"},{"id":"8105082011","district_id":"810508","name":"Kilbon Kway","postal_code":"97591"},{"id":"8105082012","district_id":"810508","name":"Mising","postal_code":"97591"},{"id":"8105082013","district_id":"810508","name":"Bitorik","postal_code":"97591"},{"id":"8105082014","district_id":"810508","name":"Taa","postal_code":"97591"}]