[{"id":"8109052001","district_id":"810905","name":"Waemulang","postal_code":"97543"},{"id":"8109052002","district_id":"810905","name":"Waeturen","postal_code":"97543"},{"id":"8109052003","district_id":"810905","name":"Waehaka","postal_code":"97543"},{"id":"8109052004","district_id":"810905","name":"Waemala","postal_code":"97543"},{"id":"8109052005","district_id":"810905","name":"Erwiri ","postal_code":"97543"},{"id":"8109052006","district_id":"810905","name":"Tifu","postal_code":"97543"},{"id":"8109052007","district_id":"810905","name":"Mepa","postal_code":"97543"},{"id":"8109052008","district_id":"810905","name":"Leksula","postal_code":"97543"},{"id":"8109052009","district_id":"810905","name":"Nalbessy","postal_code":"97543"},{"id":"8109052010","district_id":"810905","name":"Kase","postal_code":"97543"},{"id":"8109052015","district_id":"810905","name":"Neath","postal_code":"97543"},{"id":"8109052016","district_id":"810905","name":"Liang","postal_code":"97543"},{"id":"8109052018","district_id":"810905","name":"Slealale","postal_code":"97543"},{"id":"8109052023","district_id":"810905","name":"Walunhelat ","postal_code":"97543"},{"id":"8109052024","district_id":"810905","name":"Wahaolon","postal_code":"97543"},{"id":"8109052025","district_id":"810905","name":"Waewali ","postal_code":"97543"},{"id":"8109052026","district_id":"810905","name":"Waenamaolon","postal_code":"97543"},{"id":"8109052029","district_id":"810905","name":"Grahwaen","postal_code":"97543"},{"id":"8109052030","district_id":"810905","name":"Terkuri","postal_code":"97543"}]