[{"id":"8171011006","district_id":"817101","name":"Nusaniwe","postal_code":"97117"},{"id":"8171011007","district_id":"817101","name":"Wainitu","postal_code":"97115"},{"id":"8171011008","district_id":"817101","name":"Benteng","postal_code":"97117"},{"id":"8171011009","district_id":"817101","name":"Kudamati","postal_code":"97116"},{"id":"8171011010","district_id":"817101","name":"Mangga Dua","postal_code":"97114"},{"id":"8171011011","district_id":"817101","name":"Urimessing","postal_code":"97113"},{"id":"8171011012","district_id":"817101","name":"Waihaong","postal_code":"97112"},{"id":"8171011013","district_id":"817101","name":"Silale","postal_code":"97111"},{"id":"8171012001","district_id":"817101","name":"Latuhalat","postal_code":"97118"},{"id":"8171012002","district_id":"817101","name":"Seilale","postal_code":"97118"},{"id":"8171012003","district_id":"817101","name":"Nusaniwe","postal_code":"97117"},{"id":"8171012004","district_id":"817101","name":"Amahusu","postal_code":"97117"},{"id":"8171012005","district_id":"817101","name":"Urimessing","postal_code":"97113"}]