[{"id":"8201042001","district_id":"820104","name":"Susupu","postal_code":"97753"},{"id":"8201042002","district_id":"820104","name":"Lako Akelamo","postal_code":"97753"},{"id":"8201042003","district_id":"820104","name":"Taruba","postal_code":"97753"},{"id":"8201042004","district_id":"820104","name":"Todahe","postal_code":"97753"},{"id":"8201042005","district_id":"820104","name":"Peot","postal_code":"97753"},{"id":"8201042006","district_id":"820104","name":"Sasur","postal_code":"97753"},{"id":"8201042007","district_id":"820104","name":"Goro Goro","postal_code":"97753"},{"id":"8201042008","district_id":"820104","name":"Tacim","postal_code":"97753"},{"id":"8201042009","district_id":"820104","name":"Balisoang ","postal_code":"97753"},{"id":"8201042010","district_id":"820104","name":"Worat Worat","postal_code":"97753"},{"id":"8201042011","district_id":"820104","name":"Tacici","postal_code":"97753"},{"id":"8201042012","district_id":"820104","name":"Taraudu","postal_code":"97753"},{"id":"8201042013","district_id":"820104","name":"Golo","postal_code":"97753"},{"id":"8201042028","district_id":"820104","name":"Lako Akederi ","postal_code":"97753"},{"id":"8201042029","district_id":"820104","name":"Jara Kore ","postal_code":"97753"},{"id":"8201042030","district_id":"820104","name":"Ropu Tengah Balu ","postal_code":"97753"},{"id":"8201042033","district_id":"820104","name":"Dere","postal_code":"97753"},{"id":"8201042034","district_id":"820104","name":"Balisoan Utara","postal_code":"97753"},{"id":"8201042035","district_id":"820104","name":"Sasur Pantai","postal_code":"97753"}]