[{"id":"8201072001","district_id":"820107","name":"Podol","postal_code":"97757"},{"id":"8201072002","district_id":"820107","name":"Tengowango","postal_code":"97757"},{"id":"8201072003","district_id":"820107","name":"Togowo","postal_code":"97757"},{"id":"8201072004","district_id":"820107","name":"Duono","postal_code":"97757"},{"id":"8201072005","district_id":"820107","name":"Goin","postal_code":"97757"},{"id":"8201072006","district_id":"820107","name":"Sangaji Nyeku","postal_code":"97757"},{"id":"8201072007","district_id":"820107","name":"Tuguis","postal_code":"97757"},{"id":"8201072008","district_id":"820107","name":"Togoreba Sungi","postal_code":"97757"},{"id":"8201072009","district_id":"820107","name":"Barona","postal_code":"97757"},{"id":"8201072010","district_id":"820107","name":"Todoke","postal_code":"97757"},{"id":"8201072011","district_id":"820107","name":"Tolisaor","postal_code":"97757"},{"id":"8201072012","district_id":"820107","name":"Pasalulu","postal_code":"97757"},{"id":"8201072013","district_id":"820107","name":"Togoreba Tua","postal_code":"97757"},{"id":"8201072014","district_id":"820107","name":"Tukuoku","postal_code":"97757"},{"id":"8201072015","district_id":"820107","name":"Soasangaji","postal_code":"97757"},{"id":"8201072016","district_id":"820107","name":"Aru Jaya","postal_code":"97757"}]