[{"id":"8201032012","district_id":"820103","name":"Togola Wayoli ","postal_code":"97754"},{"id":"8201032013","district_id":"820103","name":"Togola Sangir ","postal_code":"97754"},{"id":"8201032014","district_id":"820103","name":"Tahafo","postal_code":"97754"},{"id":"8201032015","district_id":"820103","name":"Tongute Ternate","postal_code":"97754"},{"id":"8201032016","district_id":"820103","name":"Akesibu","postal_code":"97754"},{"id":"8201032017","district_id":"820103","name":"Maritango","postal_code":"97754"},{"id":"8201032018","district_id":"820103","name":"Kie Ici ","postal_code":"97754"},{"id":"8201032019","district_id":"820103","name":"Tongute Goin","postal_code":"97754"},{"id":"8201032020","district_id":"820103","name":"Tungute Sungi ","postal_code":"97754"},{"id":"8201032021","district_id":"820103","name":"Gam Ici","postal_code":"97754"},{"id":"8201032022","district_id":"820103","name":"Tobaol","postal_code":"97754"},{"id":"8201032023","district_id":"820103","name":"Gamlamo ","postal_code":"97754"},{"id":"8201032037","district_id":"820103","name":"Naga","postal_code":"97754"},{"id":"8201032040","district_id":"820103","name":"Soana Masungi","postal_code":"97754"},{"id":"8201032041","district_id":"820103","name":"Tongute Ternate Selatan","postal_code":"97754"},{"id":"8201032042","district_id":"820103","name":"Ake Boso","postal_code":"97754"},{"id":"8201032043","district_id":"820103","name":"Kampung Baru","postal_code":"97754"}]