[{"id":"8201052001","district_id":"820105","name":"Sidangoli Gam","postal_code":"97751"},{"id":"8201052002","district_id":"820105","name":"Sidongoli Dehe ","postal_code":"97751"},{"id":"8201052003","district_id":"820105","name":"Domato","postal_code":"97751"},{"id":"8201052004","district_id":"820105","name":"Tataleka","postal_code":"97751"},{"id":"8201052005","district_id":"820105","name":"Gamlenge","postal_code":"97751"},{"id":"8201052006","district_id":"820105","name":"Akejailolo ","postal_code":"97751"},{"id":"8201052007","district_id":"820105","name":"Biamaahi","postal_code":"97751"},{"id":"8201052008","district_id":"820105","name":"Tuguraci","postal_code":"97751"},{"id":"8201052009","district_id":"820105","name":"Akeara","postal_code":"97751"},{"id":"8201052010","district_id":"820105","name":"Akelaha","postal_code":"97751"},{"id":"8201052011","district_id":"820105","name":"Dodinga","postal_code":"97751"},{"id":"8201052012","district_id":"820105","name":"Tewe","postal_code":"97751"},{"id":"8201052013","district_id":"820105","name":"Toniku","postal_code":"97751"},{"id":"8201052014","district_id":"820105","name":"Rioribati","postal_code":"97751"},{"id":"8201052021","district_id":"820105","name":"Taba Damai ","postal_code":"97751"},{"id":"8201052022","district_id":"820105","name":"Moiso","postal_code":"97751"},{"id":"8201052023","district_id":"820105","name":"Braha","postal_code":"97751"},{"id":"8201052024","district_id":"820105","name":"Bangkit Rahmat","postal_code":"97751"},{"id":"8201052025","district_id":"820105","name":"Bobane Dano","postal_code":"97751"},{"id":"8201052026","district_id":"820105","name":"Suka Damai","postal_code":"97751"},{"id":"8201052027","district_id":"820105","name":"Hijrah","postal_code":"97751"},{"id":"8201052028","district_id":"820105","name":"Ratem","postal_code":"97751"},{"id":"8201052029","district_id":"820105","name":"Bobaneigo Madihutu","postal_code":"97751"},{"id":"8201052030","district_id":"820105","name":"Tetewang Joronga","postal_code":"97751"},{"id":"8201052031","district_id":"820105","name":"Akelamo Cinga-Cinga","postal_code":"97751"},{"id":"8201052032","district_id":"820105","name":"Akesahu Madutu","postal_code":"97751"}]