[{"id":"8272021002","district_id":"827202","name":"Guraping","postal_code":"97827"},{"id":"8272021003","district_id":"827202","name":"Sofifi","postal_code":"97827"},{"id":"8272022001","district_id":"827202","name":"Kaiyasa","postal_code":"97827"},{"id":"8272022005","district_id":"827202","name":"Oba","postal_code":"97827"},{"id":"8272022006","district_id":"827202","name":"Somahode","postal_code":"97827"},{"id":"8272022007","district_id":"827202","name":"Ake Kolano","postal_code":"97827"},{"id":"8272022009","district_id":"827202","name":"Balbar","postal_code":"97827"},{"id":"8272022010","district_id":"827202","name":"Bukit Durian","postal_code":"97827"},{"id":"8272022011","district_id":"827202","name":"Galala","postal_code":"97827"},{"id":"8272022012","district_id":"827202","name":"Ampera","postal_code":"97827"},{"id":"8272022013","district_id":"827202","name":"Kusu","postal_code":"97827"},{"id":"8272022014","district_id":"827202","name":"Garojou","postal_code":"97827"},{"id":"8272022015","district_id":"827202","name":"Gosale","postal_code":"97827"}]