[{"id":"9105021003","district_id":"910502","name":"Ansus","postal_code":"98648"},{"id":"9105022002","district_id":"910502","name":"Webi","postal_code":"98648"},{"id":"9105022004","district_id":"910502","name":"Papuama","postal_code":"98648"},{"id":"9105022007","district_id":"910502","name":"Kairawi","postal_code":"98648"},{"id":"9105022008","district_id":"910502","name":"Natabui","postal_code":"98648"},{"id":"9105022010","district_id":"910502","name":"Warabori","postal_code":"98648"},{"id":"9105022012","district_id":"910502","name":"Wimoni","postal_code":"98648"},{"id":"9105022013","district_id":"910502","name":"Sasawa","postal_code":"98648"},{"id":"9105022015","district_id":"910502","name":"Inowa","postal_code":"98648"},{"id":"9105022016","district_id":"910502","name":"Maniri","postal_code":"98648"},{"id":"9105022017","district_id":"910502","name":"Nuiwiora","postal_code":"98648"},{"id":"9105022018","district_id":"910502","name":"Yenusi Marau","postal_code":"98648"},{"id":"9105022019","district_id":"910502","name":"Marau","postal_code":"98648"},{"id":"9105022020","district_id":"910502","name":"Toweta","postal_code":"98648"},{"id":"9105022021","district_id":"910502","name":"Woiwani","postal_code":"98648"},{"id":"9105022022","district_id":"910502","name":"Yarori","postal_code":"98648"},{"id":"9105022023","district_id":"910502","name":"Narei","postal_code":"98648"}]