[{"id":"9106121001","district_id":"910612","name":"Samofa","postal_code":"98551"},{"id":"9106121002","district_id":"910612","name":"Brambaken","postal_code":"98551"},{"id":"9106121010","district_id":"910612","name":"Karang Mulia","postal_code":"98551"},{"id":"9106121011","district_id":"910612","name":"Yafdas","postal_code":"98551"},{"id":"9106121012","district_id":"910612","name":"Mansinyas","postal_code":"98551"},{"id":"9106121013","district_id":"910612","name":"Snerbo","postal_code":"98551"},{"id":"9106121014","district_id":"910612","name":"Anjarew","postal_code":"98551"},{"id":"9106122003","district_id":"910612","name":"Mandouw","postal_code":"98551"},{"id":"9106122004","district_id":"910612","name":"Sumberker","postal_code":"98551"},{"id":"9106122006","district_id":"910612","name":"Maryendi","postal_code":"98551"},{"id":"9106122007","district_id":"910612","name":"Sambawofuar","postal_code":"98551"},{"id":"9106122008","district_id":"910612","name":"Adainasnosen","postal_code":"98551"},{"id":"9106122009","district_id":"910612","name":"Darmopis","postal_code":"98551"},{"id":"9106122015","district_id":"910612","name":"Kamorfuar","postal_code":"98551"},{"id":"9106122016","district_id":"910612","name":"Anjereuw","postal_code":"98551"},{"id":"9106122017","district_id":"910612","name":"Wisata Binsari","postal_code":"98551"},{"id":"9106122018","district_id":"910612","name":"Kinmom","postal_code":"98551"}]