[{"id":"9106192001","district_id":"910619","name":"Mios Mangguandi","postal_code":"98555"},{"id":"9106192002","district_id":"910619","name":"Supraima","postal_code":"98555"},{"id":"9106192003","district_id":"910619","name":"Samber Pasi","postal_code":"98555"},{"id":"9106192004","district_id":"910619","name":"Pasi","postal_code":"98555"},{"id":"9106192005","district_id":"910619","name":"Mbromsi","postal_code":"98555"},{"id":"9106192006","district_id":"910619","name":"Karabai","postal_code":"98555"},{"id":"9106192007","district_id":"910619","name":"Saribra","postal_code":"98555"},{"id":"9106192008","district_id":"910619","name":"Nyansoren","postal_code":"98555"},{"id":"9106192009","district_id":"910619","name":"Sasari","postal_code":"98555"},{"id":"9106192010","district_id":"910619","name":"Padaido","postal_code":"98555"},{"id":"9106192011","district_id":"910619","name":"Yeri","postal_code":"98555"},{"id":"9106192012","district_id":"910619","name":"Anobo","postal_code":"98555"},{"id":"9106192013","district_id":"910619","name":"Yen Manaina","postal_code":"98555"}]