[{"id":"9111052001","district_id":"911105","name":"Skanto","postal_code":"99469"},{"id":"9111052002","district_id":"911105","name":"Jaifuri","postal_code":"99469"},{"id":"9111052003","district_id":"911105","name":"Arsopura","postal_code":"99469"},{"id":"9111052004","district_id":"911105","name":"Wiantre","postal_code":"99469"},{"id":"9111052005","district_id":"911105","name":"Naramben","postal_code":"99469"},{"id":"9111052006","district_id":"911105","name":"Intaimelyan","postal_code":"99469"},{"id":"9111052007","district_id":"911105","name":"Traimelyan","postal_code":"99469"},{"id":"9111052008","district_id":"911105","name":"Wulukubun","postal_code":"99469"},{"id":"9111052009","district_id":"911105","name":"Gudang Garam","postal_code":"99469"},{"id":"9111052010","district_id":"911105","name":"Saefen Empat Dua","postal_code":"99469"},{"id":"9111052011","district_id":"911105","name":"Walma","postal_code":"99469"},{"id":"9111052012","district_id":"911105","name":"Alang-alang Raya","postal_code":"99469"}]