[{"id":"9201071001","district_id":"920107","name":"Aimas","postal_code":"98444"},{"id":"9201071002","district_id":"920107","name":"Malawili","postal_code":"98444"},{"id":"9201071003","district_id":"920107","name":"Malawele","postal_code":"98444"},{"id":"9201071006","district_id":"920107","name":"Mariat Pantai","postal_code":"98444"},{"id":"9201071026","district_id":"920107","name":"Mariat Gunung","postal_code":"98444"},{"id":"9201071029","district_id":"920107","name":"Warmon","postal_code":"98444"},{"id":"9201071030","district_id":"920107","name":"Klabinain","postal_code":"98444"},{"id":"9201071031","district_id":"920107","name":"Malasom","postal_code":"98444"},{"id":"9201071032","district_id":"920107","name":"Klaigit","postal_code":"98444"},{"id":"9201071034","district_id":"920107","name":"Malagusa","postal_code":"98444"},{"id":"9201071035","district_id":"920107","name":"Klafma","postal_code":"98444"},{"id":"9201072028","district_id":"920107","name":"Maibo","postal_code":"98444"},{"id":"9201072033","district_id":"920107","name":"Aimo","postal_code":"98444"},{"id":"9201072038","district_id":"920107","name":"Malasaum","postal_code":"98444"}]