[{"id":"9202042001","district_id":"920204","name":"Prafi Mulya","postal_code":"98316"},{"id":"9202042002","district_id":"920204","name":"Umbuy","postal_code":"98316"},{"id":"9202042003","district_id":"920204","name":"Desay","postal_code":"98316"},{"id":"9202042004","district_id":"920204","name":"Aimasi","postal_code":"98316"},{"id":"9202042005","district_id":"920204","name":"Udapi Hilir ","postal_code":"98316"},{"id":"9202042006","district_id":"920204","name":"Waseki Pop ","postal_code":"98316"},{"id":"9202042007","district_id":"920204","name":"Wasegi Indah","postal_code":"98316"},{"id":"9202042008","district_id":"920204","name":"Ingkwoisi ","postal_code":"98316"},{"id":"9202042009","district_id":"920204","name":"Bogor","postal_code":"98316"},{"id":"9202042010","district_id":"920204","name":"Somi ","postal_code":"98316"},{"id":"9202042011","district_id":"920204","name":"Bedip Matoa ","postal_code":"98316"},{"id":"9202042012","district_id":"920204","name":"Kali Amin","postal_code":"98316"},{"id":"9202042013","district_id":"920204","name":"Lismaungu ","postal_code":"98316"},{"id":"9202042014","district_id":"920204","name":"Uhyehebrig ","postal_code":"98316"},{"id":"9202042015","district_id":"920204","name":"Kerenu","postal_code":"98316"},{"id":"9202042016","district_id":"920204","name":"Mebji ","postal_code":"98316"}]