[{"id":"9208032001","district_id":"920803","name":"Furnusu ","postal_code":"98111"},{"id":"9208032002","district_id":"920803","name":"Feternu ","postal_code":"98111"},{"id":"9208032003","district_id":"920803","name":"Sawi ","postal_code":"98111"},{"id":"9208032004","district_id":"920803","name":"Turgani ","postal_code":"98111"},{"id":"9208032010","district_id":"920803","name":"Sawatewera ","postal_code":"98111"},{"id":"9208032012","district_id":"920803","name":"Bofuwer","postal_code":"98111"},{"id":"9208032013","district_id":"920803","name":"Warwasi","postal_code":"98111"},{"id":"9208032014","district_id":"920803","name":"Wanggita","postal_code":"98111"},{"id":"9208032016","district_id":"920803","name":"Fudima","postal_code":"98111"},{"id":"9208032017","district_id":"920803","name":"Weswasa","postal_code":"98111"},{"id":"9208032018","district_id":"920803","name":"Borogerba","postal_code":"98111"},{"id":"9208032019","district_id":"920803","name":"Afu Afu ","postal_code":"98111"},{"id":"9208032020","district_id":"920803","name":"Bayeda","postal_code":"98111"},{"id":"9208032021","district_id":"920803","name":"Moyana","postal_code":"98111"},{"id":"9208032022","district_id":"920803","name":"Kokoroba","postal_code":"98111"},{"id":"9208032023","district_id":"920803","name":"Wainaga","postal_code":"98111"},{"id":"9208032024","district_id":"920803","name":"Maskur","postal_code":"98111"},{"id":"9208032025","district_id":"920803","name":"Kensi ","postal_code":"98111"},{"id":"9208032027","district_id":"920803","name":"Erigara","postal_code":"98111"},{"id":"9208032028","district_id":"920803","name":"Pigo","postal_code":"98111"},{"id":"9208032029","district_id":"920803","name":"Tugumawa ","postal_code":"98111"},{"id":"9208032030","district_id":"920803","name":"Tiwara","postal_code":"98111"},{"id":"9208032031","district_id":"920803","name":"Gusi","postal_code":"98111"},{"id":"9208032032","district_id":"920803","name":"Warua","postal_code":"98111"}]