[{"id":"9210222001","district_id":"921022","name":"Yaksoro","postal_code":"98264"},{"id":"9210222002","district_id":"921022","name":"Awit","postal_code":"98264"},{"id":"9210222003","district_id":"921022","name":"Sira","postal_code":"98264"},{"id":"9210222004","district_id":"921022","name":"Eway","postal_code":"98264"},{"id":"9210222005","district_id":"921022","name":"Erokwero","postal_code":"98264"},{"id":"9210222006","district_id":"921022","name":"Sabun","postal_code":"98264"},{"id":"9210222007","district_id":"921022","name":"Itigah","postal_code":"98264"},{"id":"9210222008","district_id":"921022","name":"Sira Tee","postal_code":"98264"},{"id":"9210222009","district_id":"921022","name":"Wrait 'U'","postal_code":"98264"},{"id":"9210222010","district_id":"921022","name":"Way 'U'","postal_code":"98264"},{"id":"9210222011","district_id":"921022","name":"Asnaif","postal_code":"98264"},{"id":"9210222012","district_id":"921022","name":"Iroh Sohser","postal_code":"98264"},{"id":"9210222013","district_id":"921022","name":"Framboh","postal_code":"98264"},{"id":"9210222014","district_id":"921022","name":"Tohmri","postal_code":"98264"}]