[{"id":"9212012001","district_id":"921201","name":"Iraiweri","postal_code":"98355"},{"id":"9212012002","district_id":"921201","name":"Igembai","postal_code":"98355"},{"id":"9212012003","district_id":"921201","name":"Imbai","postal_code":"98355"},{"id":"9212012004","district_id":"921201","name":"Suteibey","postal_code":"98355"},{"id":"9212012005","district_id":"921201","name":"Susi","postal_code":"98355"},{"id":"9212012006","district_id":"921201","name":"Ullong","postal_code":"98355"},{"id":"9212012007","district_id":"921201","name":"Mentubey","postal_code":"98355"},{"id":"9212012008","district_id":"921201","name":"Ayaubey","postal_code":"98355"},{"id":"9212012009","district_id":"921201","name":"Testega Pamaha","postal_code":"98355"},{"id":"9212012010","district_id":"921201","name":"Pamaha","postal_code":"98355"},{"id":"9212012011","district_id":"921201","name":"Uper","postal_code":"98355"},{"id":"9212012012","district_id":"921201","name":"Hungku","postal_code":"98355"},{"id":"9212012013","district_id":"921201","name":"Srubey","postal_code":"98355"}]