[{"id":"9402021070","district_id":"940202","name":"Wurak ","postal_code":"98935"},{"id":"9402022002","district_id":"940202","name":"Wurak","postal_code":"98935"},{"id":"9402022010","district_id":"940202","name":"Lambo","postal_code":"98935"},{"id":"9402022018","district_id":"940202","name":"Pindebaga","postal_code":"98935"},{"id":"9402022027","district_id":"940202","name":"Dolinggame","postal_code":"98935"},{"id":"9402022035","district_id":"940202","name":"Belantara","postal_code":"98935"},{"id":"9402022036","district_id":"940202","name":"Kalengga","postal_code":"98935"},{"id":"9402022037","district_id":"940202","name":"Pulau Timur","postal_code":"98935"},{"id":"9402022038","district_id":"940202","name":"Girmor","postal_code":"98935"},{"id":"9402022039","district_id":"940202","name":"Maka","postal_code":"98935"},{"id":"9402022040","district_id":"940202","name":"Mobigi","postal_code":"98935"},{"id":"9402022041","district_id":"940202","name":"Juria Satu","postal_code":"98935"},{"id":"9402022046","district_id":"940202","name":"Gubulome","postal_code":"98935"},{"id":"9402022048","district_id":"940202","name":"Megawi Megewa","postal_code":"98935"},{"id":"9402022049","district_id":"940202","name":"Kurikpulok","postal_code":"98935"},{"id":"9402022050","district_id":"940202","name":"Pukipaki","postal_code":"98935"},{"id":"9402022051","district_id":"940202","name":"Kaninonggo","postal_code":"98935"},{"id":"9402022065","district_id":"940202","name":"Kirigimaduk","postal_code":"98935"},{"id":"9402022067","district_id":"940202","name":"Pulogengga","postal_code":"98935"},{"id":"9402022068","district_id":"940202","name":"Ginipago","postal_code":"98935"},{"id":"9402022069","district_id":"940202","name":"Alukme ","postal_code":"98935"}]