[{"id":"9402192001","district_id":"940219","name":"Wanuwi","postal_code":"98923"},{"id":"9402192002","district_id":"940219","name":"Nenegame","postal_code":"98923"},{"id":"9402192003","district_id":"940219","name":"Bime","postal_code":"98923"},{"id":"9402192004","district_id":"940219","name":"Anggege","postal_code":"98923"},{"id":"9402192005","district_id":"940219","name":"Pernaluk","postal_code":"98923"},{"id":"9402192006","district_id":"940219","name":"Kiburu","postal_code":"98923"},{"id":"9402192007","district_id":"940219","name":"Nuwi","postal_code":"98923"},{"id":"9402192008","district_id":"940219","name":"Ponggoname","postal_code":"98923"},{"id":"9402192009","district_id":"940219","name":"Gibume","postal_code":"98923"},{"id":"9402192010","district_id":"940219","name":"Naburage","postal_code":"98923"},{"id":"9402192011","district_id":"940219","name":"Yunggwi","postal_code":"98923"},{"id":"9402192012","district_id":"940219","name":"Anggagalo","postal_code":"98923"},{"id":"9402192013","district_id":"940219","name":"Anggalo","postal_code":"98923"},{"id":"9402192014","district_id":"940219","name":"Wiyage","postal_code":"98923"},{"id":"9402192015","district_id":"940219","name":"Piyabigimbut","postal_code":"98923"},{"id":"9402192016","district_id":"940219","name":"Bunaluk","postal_code":"98923"},{"id":"9402192017","district_id":"940219","name":"Gereja Lama","postal_code":"98923"}]