[{"id":"9403011001","district_id":"940301","name":"Enarotali","postal_code":"98714"},{"id":"9403011006","district_id":"940301","name":"Timida","postal_code":"98713"},{"id":"9403012002","district_id":"940301","name":"Madi","postal_code":"98714"},{"id":"9403012003","district_id":"940301","name":"Aikai","postal_code":"98711"},{"id":"9403012004","district_id":"940301","name":"Ipakiye","postal_code":"98711"},{"id":"9403012005","district_id":"940301","name":"Papato","postal_code":"98711"},{"id":"9403012007","district_id":"940301","name":"Kopo","postal_code":"98712"},{"id":"9403012008","district_id":"940301","name":"Wage","postal_code":"98711"},{"id":"9403012009","district_id":"940301","name":"Kagupago","postal_code":"98711"},{"id":"9403012010","district_id":"940301","name":"Oyaigo","postal_code":"98714"},{"id":"9403012011","district_id":"940301","name":"Kogekotu","postal_code":"98713"},{"id":"9403012012","district_id":"940301","name":"Awabutu","postal_code":"98713"},{"id":"9403012013","district_id":"940301","name":"Geko","postal_code":"98711"},{"id":"9403012014","district_id":"940301","name":"Mugimeketago","postal_code":"98714"},{"id":"9403012015","district_id":"940301","name":"Tuamakida","postal_code":"98713"},{"id":"9403012016","district_id":"940301","name":"Geibu","postal_code":"98711"},{"id":"9403012017","district_id":"940301","name":"Pudotadi","postal_code":"98714"},{"id":"9403012018","district_id":"940301","name":"Kogekotu ","postal_code":"98713"},{"id":"9403012019","district_id":"940301","name":"Iyaitaka","postal_code":"98714"},{"id":"9403012020","district_id":"940301","name":"Ugibutu","postal_code":"98714"},{"id":"9403012021","district_id":"940301","name":"Wouyebutu","postal_code":"98712"},{"id":"9403012022","district_id":"940301","name":"Amougibutu","postal_code":"98713"},{"id":"9403012023","district_id":"940301","name":"Dapaiba","postal_code":"98714"},{"id":"9403012024","district_id":"940301","name":"Yukekebo","postal_code":"98711"},{"id":"9403012025","district_id":"940301","name":"Agumaida","postal_code":"98711"},{"id":"9403012026","district_id":"940301","name":"Yagiyo Butu","postal_code":"98714"}]