[{"id":"9404011001","district_id":"940401","name":"Koperapoka","postal_code":"99952"},{"id":"9404011002","district_id":"940401","name":"Kwamki","postal_code":"99952"},{"id":"9404011007","district_id":"940401","name":"Timika Jaya","postal_code":"99952"},{"id":"9404011026","district_id":"940401","name":"Sempan","postal_code":"99952"},{"id":"9404011027","district_id":"940401","name":"Pasar Sentral","postal_code":"99952"},{"id":"9404011028","district_id":"940401","name":"Wanagon","postal_code":"99952"},{"id":"9404011029","district_id":"940401","name":"Kebun Sirih","postal_code":"99952"},{"id":"9404011030","district_id":"940401","name":"Otomona","postal_code":"99952"},{"id":"9404011031","district_id":"940401","name":"Perintis","postal_code":"99952"},{"id":"9404011032","district_id":"940401","name":"Dingo Narama","postal_code":"99952"},{"id":"9404011033","district_id":"940401","name":"Timika Indah","postal_code":"99952"},{"id":"9404012010","district_id":"940401","name":"Nayaro","postal_code":"99952"},{"id":"9404012012","district_id":"940401","name":"Minabua","postal_code":"99952"},{"id":"9404012013","district_id":"940401","name":"Hangaitji","postal_code":"99952"}]