[{"id":"9405202001","district_id":"940520","name":"Eromaga","postal_code":"98968"},{"id":"9405202002","district_id":"940520","name":"Pinggil\/Eronggobak","postal_code":"98968"},{"id":"9405202003","district_id":"940520","name":"Gilini","postal_code":"98968"},{"id":"9405202004","district_id":"940520","name":"Pinapa","postal_code":"98968"},{"id":"9405202005","district_id":"940520","name":"Kunga","postal_code":"98968"},{"id":"9405202006","district_id":"940520","name":"Ondugura","postal_code":"98968"},{"id":"9405202007","district_id":"940520","name":"Manggume","postal_code":"98968"},{"id":"9405202008","district_id":"940520","name":"Kuleme","postal_code":"98968"},{"id":"9405202009","district_id":"940520","name":"Ninggibome","postal_code":"98968"},{"id":"9405202010","district_id":"940520","name":"Awilkinop","postal_code":"98968"},{"id":"9405202011","district_id":"940520","name":"Domaoa","postal_code":"98968"},{"id":"9405202012","district_id":"940520","name":"Pungtrama","postal_code":"98968"},{"id":"9405202013","district_id":"940520","name":"Balamagalama","postal_code":"98968"},{"id":"9405202014","district_id":"940520","name":"Aminggaru","postal_code":"98968"}]