[{"id":"9407022001","district_id":"940702","name":"Mapa","postal_code":"98791"},{"id":"9407022002","district_id":"940702","name":"Bilai","postal_code":"98791"},{"id":"9407022003","district_id":"940702","name":"Maya","postal_code":"98791"},{"id":"9407022004","district_id":"940702","name":"Degesiga","postal_code":"98791"},{"id":"9407022005","district_id":"940702","name":"Pogapa","postal_code":"98791"},{"id":"9407022006","district_id":"940702","name":"Bamba","postal_code":"98791"},{"id":"9407022007","district_id":"940702","name":"Zombandoga","postal_code":"98791"},{"id":"9407022008","district_id":"940702","name":"Kobae","postal_code":"98791"},{"id":"9407022009","district_id":"940702","name":"Selemama","postal_code":"98791"},{"id":"9407022010","district_id":"940702","name":"Kendetapa","postal_code":"98791"},{"id":"9407022011","district_id":"940702","name":"Hiyabu","postal_code":"98791"},{"id":"9407022012","district_id":"940702","name":"Ogoeapa","postal_code":"98791"},{"id":"9407022013","district_id":"940702","name":"Bonogo","postal_code":"98791"},{"id":"9407022014","district_id":"940702","name":"Agapa","postal_code":"98791"},{"id":"9407022015","district_id":"940702","name":"Engganengga","postal_code":"98791"},{"id":"9407022016","district_id":"940702","name":"Waiagepa","postal_code":"98791"},{"id":"9407022017","district_id":"940702","name":"Hugitapa","postal_code":"98791"},{"id":"9407022018","district_id":"940702","name":"Bubisiga","postal_code":"98791"},{"id":"9407022019","district_id":"940702","name":"Nggagemba","postal_code":"98791"},{"id":"9407022020","district_id":"940702","name":"Sanepa","postal_code":"98791"},{"id":"9407022021","district_id":"940702","name":"Mbomogo","postal_code":"98791"}]