[{"id":"9407042001","district_id":"940704","name":"Danggatadi","postal_code":"98784"},{"id":"9407042002","district_id":"940704","name":"Mbiandoga","postal_code":"98784"},{"id":"9407042003","district_id":"940704","name":"Bugalaga","postal_code":"98784"},{"id":"9407042004","district_id":"940704","name":"Yagaito","postal_code":"98784"},{"id":"9407042005","district_id":"940704","name":"Kalawa","postal_code":"98784"},{"id":"9407042006","district_id":"940704","name":"Yanei","postal_code":"98784"},{"id":"9407042007","district_id":"940704","name":"Maniuwo","postal_code":"98784"},{"id":"9407042008","district_id":"940704","name":"Tunggapo","postal_code":"98784"},{"id":"9407042009","district_id":"940704","name":"Pagamba","postal_code":"98784"},{"id":"9407042010","district_id":"940704","name":"Maolagi","postal_code":"98784"},{"id":"9407042011","district_id":"940704","name":"Aneya","postal_code":"98784"},{"id":"9407042012","district_id":"940704","name":"Kigitadi","postal_code":"98784"},{"id":"9407042013","district_id":"940704","name":"Ndabatadi","postal_code":"98784"},{"id":"9407042014","district_id":"940704","name":"Moyomataga","postal_code":"98784"},{"id":"9407042015","district_id":"940704","name":"Pitadi","postal_code":"98784"},{"id":"9407042016","district_id":"940704","name":"Ular Merah","postal_code":"98784"}]