[{"id":"9408042001","district_id":"940804","name":"Gakokebo","postal_code":"98761"},{"id":"9408042002","district_id":"940804","name":"Demago","postal_code":"98761"},{"id":"9408042003","district_id":"940804","name":"Widuwakiya","postal_code":"98761"},{"id":"9408042004","district_id":"940804","name":"Onago","postal_code":"98761"},{"id":"9408042005","district_id":"940804","name":"Wagomani","postal_code":"98761"},{"id":"9408042006","district_id":"940804","name":"Digibagata","postal_code":"98761"},{"id":"9408042007","district_id":"940804","name":"Piyekedimi","postal_code":"98761"},{"id":"9408042008","district_id":"940804","name":"Ayatei","postal_code":"98761"},{"id":"9408042009","district_id":"940804","name":"Tenedagi","postal_code":"98761"},{"id":"9408042010","district_id":"940804","name":"Diyai","postal_code":"98761"},{"id":"9408042011","district_id":"940804","name":"Jinidaba","postal_code":"98761"},{"id":"9408042012","district_id":"940804","name":"Widimei","postal_code":"98761"},{"id":"9408042013","district_id":"940804","name":"Yagu","postal_code":"98761"},{"id":"9408042014","district_id":"940804","name":"Obai","postal_code":"98761"},{"id":"9408042015","district_id":"940804","name":"Yipai","postal_code":"98761"},{"id":"9408042016","district_id":"940804","name":"Diyai II","postal_code":"98761"},{"id":"9408042017","district_id":"940804","name":"Meyepa","postal_code":"98761"},{"id":"9408042018","district_id":"940804","name":"Kogemani","postal_code":"98761"},{"id":"9408042019","district_id":"940804","name":"Digikotu","postal_code":"98761"},{"id":"9408042020","district_id":"940804","name":"Onago II","postal_code":"98761"},{"id":"9408042021","district_id":"940804","name":"Maatadi","postal_code":"98761"},{"id":"9408042022","district_id":"940804","name":"Epanai","postal_code":"98761"}]