[{"id":"9408022001","district_id":"940802","name":"Damabagata","postal_code":"98771"},{"id":"9408022002","district_id":"940802","name":"Kokobaya","postal_code":"98771"},{"id":"9408022003","district_id":"940802","name":"Watiyai","postal_code":"98771"},{"id":"9408022004","district_id":"940802","name":"Edagotadi","postal_code":"98771"},{"id":"9408022005","district_id":"940802","name":"Dakebo","postal_code":"98771"},{"id":"9408022006","district_id":"940802","name":"Bagou","postal_code":"98771"},{"id":"9408022007","district_id":"940802","name":"Dagokebo","postal_code":"98771"},{"id":"9408022008","district_id":"940802","name":"Ipoke","postal_code":"98771"},{"id":"9408022009","district_id":"940802","name":"Waitakotu","postal_code":"98771"},{"id":"9408022010","district_id":"940802","name":"Pekepa","postal_code":"98771"},{"id":"9408022011","district_id":"940802","name":"Bagumoma","postal_code":"98771"},{"id":"9408022012","district_id":"940802","name":"Udaugida","postal_code":"98771"},{"id":"9408022013","district_id":"940802","name":"Bagou II","postal_code":"98771"},{"id":"9408022014","district_id":"940802","name":"Idayodagi","postal_code":"98771"}]