[{"id":"9504162001","district_id":"950416","name":"Abena","postal_code":"99011"},{"id":"9504162002","district_id":"950416","name":"Nogobumbu","postal_code":"99011"},{"id":"9504162003","district_id":"950416","name":"Bilubaga","postal_code":"99011"},{"id":"9504162004","district_id":"950416","name":"Gabunggobak","postal_code":"99011"},{"id":"9504162005","district_id":"950416","name":"Wulurik","postal_code":"99011"},{"id":"9504162006","district_id":"950416","name":"Wanggulam","postal_code":"99011"},{"id":"9504162007","district_id":"950416","name":"Bitillabur","postal_code":"99011"},{"id":"9504162008","district_id":"950416","name":"Windik","postal_code":"99011"},{"id":"9504162009","district_id":"950416","name":"Yibalo","postal_code":"99011"},{"id":"9504162010","district_id":"950416","name":"Wania","postal_code":"99011"},{"id":"9504162011","district_id":"950416","name":"Arelam","postal_code":"99011"},{"id":"9504162012","district_id":"950416","name":"Gelalo","postal_code":"99011"},{"id":"9504162013","district_id":"950416","name":"Duma","postal_code":"99011"},{"id":"9504162014","district_id":"950416","name":"Yinama","postal_code":"99011"}]