[{"id":"9504192001","district_id":"950419","name":"Nunggawi","postal_code":"99046"},{"id":"9504192002","district_id":"950419","name":"Kononda ","postal_code":"99046"},{"id":"9504192003","district_id":"950419","name":"Belep","postal_code":"99046"},{"id":"9504192004","district_id":"950419","name":"Kuripaga ","postal_code":"99046"},{"id":"9504192005","district_id":"950419","name":"Timobur ","postal_code":"99046"},{"id":"9504192006","district_id":"950419","name":"Wondame","postal_code":"99046"},{"id":"9504192007","district_id":"950419","name":"Kilungga","postal_code":"99046"},{"id":"9504192008","district_id":"950419","name":"Nombori","postal_code":"99046"},{"id":"9504192009","district_id":"950419","name":"Delelah ","postal_code":"99046"},{"id":"9504192010","district_id":"950419","name":"Gilo","postal_code":"99046"},{"id":"9504192011","district_id":"950419","name":"Undi","postal_code":"99046"},{"id":"9504192012","district_id":"950419","name":"Derek","postal_code":"99046"},{"id":"9504192013","district_id":"950419","name":"Numbe","postal_code":"99046"},{"id":"9504192014","district_id":"950419","name":"Kanggineri","postal_code":"99046"},{"id":"9504192015","district_id":"950419","name":"Wonoluk","postal_code":"99046"},{"id":"9504192016","district_id":"950419","name":"Barenggo ","postal_code":"99046"},{"id":"9504192017","district_id":"950419","name":"Tunibur","postal_code":"99046"},{"id":"9504192018","district_id":"950419","name":"Woyi","postal_code":"99046"},{"id":"9504192019","district_id":"950419","name":"Kubalo","postal_code":"99046"},{"id":"9504192020","district_id":"950419","name":"Tinoweno","postal_code":"99046"},{"id":"9504192021","district_id":"950419","name":"Mololowa","postal_code":"99046"},{"id":"9504192022","district_id":"950419","name":"Kunipaga ","postal_code":"99046"},{"id":"9504192023","district_id":"950419","name":"Kabumanggen ","postal_code":"99046"},{"id":"9504192024","district_id":"950419","name":"Kondangwi","postal_code":"99046"},{"id":"9504192025","district_id":"950419","name":"Kipino","postal_code":"99046"},{"id":"9504192026","district_id":"950419","name":"Tomobur ","postal_code":"99046"}]