[{"id":"9505012001","district_id":"950501","name":"Kobakma","postal_code":"99074"},{"id":"9505012002","district_id":"950501","name":"Ninugagas","postal_code":"99074"},{"id":"9505012003","district_id":"950501","name":"Seralema","postal_code":"99074"},{"id":"9505012004","district_id":"950501","name":"Gimbis","postal_code":"99074"},{"id":"9505012005","district_id":"950501","name":"Boroges","postal_code":"99074"},{"id":"9505012006","district_id":"950501","name":"Aunduang","postal_code":"99074"},{"id":"9505012007","district_id":"950501","name":"Luarima","postal_code":"99074"},{"id":"9505012008","district_id":"950501","name":"Guawage","postal_code":"99074"},{"id":"9505012009","district_id":"950501","name":"Moga","postal_code":"99074"},{"id":"9505012010","district_id":"950501","name":"Keniwa","postal_code":"99074"},{"id":"9505012011","district_id":"950501","name":"Sembegulik","postal_code":"99074"},{"id":"9505012012","district_id":"950501","name":"Dogle","postal_code":"99074"},{"id":"9505012013","district_id":"950501","name":"Wiyugobak","postal_code":"99074"},{"id":"9505012014","district_id":"950501","name":"Baliklabuk","postal_code":"99074"},{"id":"9505012015","district_id":"950501","name":"Yagalim","postal_code":"99074"}]