[{"id":"9506042001","district_id":"950604","name":"Gilika","postal_code":"99081"},{"id":"9506042002","district_id":"950604","name":"Trikora","postal_code":"99081"},{"id":"9506042003","district_id":"950604","name":"Ampera","postal_code":"99081"},{"id":"9506042004","district_id":"950604","name":"Pepera","postal_code":"99081"},{"id":"9506042005","district_id":"950604","name":"Naira","postal_code":"99081"},{"id":"9506042006","district_id":"950604","name":"Siwa","postal_code":"99081"},{"id":"9506042007","district_id":"950604","name":"Tiwayi","postal_code":"99081"},{"id":"9506042008","district_id":"950604","name":"Kutakuruk","postal_code":"99081"},{"id":"9506042009","district_id":"950604","name":"Narau","postal_code":"99081"},{"id":"9506042010","district_id":"950604","name":"Neigase","postal_code":"99081"},{"id":"9506042011","district_id":"950604","name":"Martaru","postal_code":"99081"},{"id":"9506042012","district_id":"950604","name":"Himi","postal_code":"99081"},{"id":"9506042013","district_id":"950604","name":"Nungkere","postal_code":"99081"},{"id":"9506042014","district_id":"950604","name":"Puruku","postal_code":"99081"},{"id":"9506042015","district_id":"950604","name":"Paluke","postal_code":"99081"},{"id":"9506042016","district_id":"950604","name":"Lulum","postal_code":"99081"},{"id":"9506042017","district_id":"950604","name":"Pensale","postal_code":"99081"},{"id":"9506042018","district_id":"950604","name":"Iyap","postal_code":"99081"},{"id":"9506042019","district_id":"950604","name":"Wibi","postal_code":"99081"},{"id":"9506042020","district_id":"950604","name":"Konobun","postal_code":"99081"},{"id":"9506042021","district_id":"950604","name":"Wirsa","postal_code":"99081"},{"id":"9506042022","district_id":"950604","name":"Karamina","postal_code":"99081"},{"id":"9506042023","district_id":"950604","name":"Dukunasi","postal_code":"99081"},{"id":"9506042024","district_id":"950604","name":"Thamaksin","postal_code":"99081"},{"id":"9506042025","district_id":"950604","name":"Kamika","postal_code":"99081"},{"id":"9506042026","district_id":"950604","name":"Uramburu","postal_code":"99081"},{"id":"9506042027","district_id":"950604","name":"Kapawa","postal_code":"99081"},{"id":"9506042028","district_id":"950604","name":"Miyawi ","postal_code":"99081"},{"id":"9506042029","district_id":"950604","name":"Yakwa","postal_code":"99081"},{"id":"9506042030","district_id":"950604","name":"Wermas","postal_code":"99081"},{"id":"9506042031","district_id":"950604","name":"Makrip","postal_code":"99081"},{"id":"9506042032","district_id":"950604","name":"Ikon","postal_code":"99081"},{"id":"9506042033","district_id":"950604","name":"Key","postal_code":"99081"},{"id":"9506042034","district_id":"950604","name":"Lawe","postal_code":"99081"},{"id":"9506042035","district_id":"950604","name":"Kukdomol","postal_code":"99081"},{"id":"9506042036","district_id":"950604","name":"Nihol ","postal_code":"99081"},{"id":"9506042037","district_id":"950604","name":"Nuorok","postal_code":"99081"}]