[{"id":"9506012001","district_id":"950601","name":"Elelim","postal_code":"99082"},{"id":"9506012002","district_id":"950601","name":"Aluis","postal_code":"99082"},{"id":"9506012003","district_id":"950601","name":"Honita","postal_code":"99082"},{"id":"9506012004","district_id":"950601","name":"Yabema","postal_code":"99082"},{"id":"9506012005","district_id":"950601","name":"Pihel","postal_code":"99082"},{"id":"9506012006","district_id":"950601","name":"Walkep","postal_code":"99082"},{"id":"9506012007","district_id":"950601","name":"Pangkik","postal_code":"99082"},{"id":"9506012008","district_id":"950601","name":"Maribu","postal_code":"99082"},{"id":"9506012009","district_id":"950601","name":"Yakikma","postal_code":"99082"},{"id":"9506012010","district_id":"950601","name":"Ulo","postal_code":"99082"},{"id":"9506012011","district_id":"950601","name":"Sira","postal_code":"99082"},{"id":"9506012012","district_id":"950601","name":"Ohoam","postal_code":"99082"},{"id":"9506012013","district_id":"950601","name":"Bulmu","postal_code":"99082"},{"id":"9506012014","district_id":"950601","name":"Ubi","postal_code":"99082"},{"id":"9506012015","district_id":"950601","name":"Pirip","postal_code":"99082"},{"id":"9506012016","district_id":"950601","name":"Momonhusi","postal_code":"99082"},{"id":"9506012017","district_id":"950601","name":"Helabu","postal_code":"99082"},{"id":"9506012018","district_id":"950601","name":"Pungkahik","postal_code":"99082"},{"id":"9506012019","district_id":"950601","name":"Wekolani","postal_code":"99082"},{"id":"9506012020","district_id":"950601","name":"Hobakma","postal_code":"99082"},{"id":"9506012021","district_id":"950601","name":"Wasua","postal_code":"99082"},{"id":"9506012022","district_id":"950601","name":"Warikma","postal_code":"99082"},{"id":"9506012023","district_id":"950601","name":"Kalak","postal_code":"99082"},{"id":"9506012024","district_id":"950601","name":"Isila","postal_code":"99082"},{"id":"9506012025","district_id":"950601","name":"Fima","postal_code":"99082"},{"id":"9506012026","district_id":"950601","name":"Sohi","postal_code":"99082"},{"id":"9506012027","district_id":"950601","name":"Pasimbolo","postal_code":"99082"},{"id":"9506012028","district_id":"950601","name":"Wagagu","postal_code":"99082"},{"id":"9506012029","district_id":"950601","name":"Sowi","postal_code":"99082"},{"id":"9506012030","district_id":"950601","name":"Sipson","postal_code":"99082"},{"id":"9506012031","district_id":"950601","name":"Sipsoi","postal_code":"99082"},{"id":"9506012032","district_id":"950601","name":"Eregi","postal_code":"99082"},{"id":"9506012033","district_id":"950601","name":"Ohoniam","postal_code":"99082"},{"id":"9506012034","district_id":"950601","name":"Hiling","postal_code":"99082"},{"id":"9506012035","district_id":"950601","name":"Duwong","postal_code":"99082"},{"id":"9506012036","district_id":"950601","name":"Pisireg","postal_code":"99082"},{"id":"9506012037","district_id":"950601","name":"Tanapasir","postal_code":"99082"},{"id":"9506012038","district_id":"950601","name":"Olani","postal_code":"99082"},{"id":"9506012039","district_id":"950601","name":"Sili","postal_code":"99082"},{"id":"9506012040","district_id":"950601","name":"Hesmat","postal_code":"99082"},{"id":"9506012041","district_id":"950601","name":"Molinggu","postal_code":"99082"},{"id":"9506012042","district_id":"950601","name":"Werekma","postal_code":"99082"},{"id":"9506012043","district_id":"950601","name":"Emon","postal_code":"99082"},{"id":"9506012044","district_id":"950601","name":"Kwikma","postal_code":"99082"}]