[{"id":"9506032001","district_id":"950603","name":"Abenaho","postal_code":"99085"},{"id":"9506032002","district_id":"950603","name":"Wambalfak","postal_code":"99085"},{"id":"9506032003","district_id":"950603","name":"Landikma","postal_code":"99085"},{"id":"9506032004","district_id":"950603","name":"Dombomi","postal_code":"99085"},{"id":"9506032005","district_id":"950603","name":"Dosumo","postal_code":"99085"},{"id":"9506032006","district_id":"950603","name":"Wambo","postal_code":"99085"},{"id":"9506032007","district_id":"950603","name":"Sombule","postal_code":"99085"},{"id":"9506032008","district_id":"950603","name":"Hubliki","postal_code":"99085"},{"id":"9506032009","district_id":"950603","name":"Hulikma","postal_code":"99085"},{"id":"9506032010","district_id":"950603","name":"Sebi","postal_code":"99085"},{"id":"9506032011","district_id":"950603","name":"Suminaikma","postal_code":"99085"},{"id":"9506032012","district_id":"950603","name":"Ulun","postal_code":"99085"},{"id":"9506032013","district_id":"950603","name":"Fuahe","postal_code":"99085"},{"id":"9506032014","district_id":"950603","name":"Wutlarin","postal_code":"99085"},{"id":"9506032015","district_id":"950603","name":"Kolaima","postal_code":"99085"},{"id":"9506032016","district_id":"950603","name":"Wanggibo","postal_code":"99085"},{"id":"9506032017","district_id":"950603","name":"Walagima","postal_code":"99085"},{"id":"9506032018","district_id":"950603","name":"Tagabaga","postal_code":"99085"},{"id":"9506032019","district_id":"950603","name":"Bohum","postal_code":"99085"},{"id":"9506032020","district_id":"950603","name":"Jinggiwi","postal_code":"99085"},{"id":"9506032021","district_id":"950603","name":"Hurualma","postal_code":"99085"},{"id":"9506032022","district_id":"950603","name":"Humalma","postal_code":"99085"},{"id":"9506032023","district_id":"950603","name":"Yahatma","postal_code":"99085"},{"id":"9506032024","district_id":"950603","name":"Sohombunu","postal_code":"99085"},{"id":"9506032025","district_id":"950603","name":"Bumbum","postal_code":"99085"},{"id":"9506032026","district_id":"950603","name":"Burim","postal_code":"99085"},{"id":"9506032027","district_id":"950603","name":"Dahonaikma","postal_code":"99085"},{"id":"9506032028","district_id":"950603","name":"Musanahikma","postal_code":"99085"},{"id":"9506032029","district_id":"950603","name":"Abagima","postal_code":"99085"},{"id":"9506032030","district_id":"950603","name":"Waghasilimo","postal_code":"99085"},{"id":"9506032031","district_id":"950603","name":"Wileroma","postal_code":"99085"},{"id":"9506032032","district_id":"950603","name":"Obabin","postal_code":"99085"},{"id":"9506032033","district_id":"950603","name":"Babin","postal_code":"99085"},{"id":"9506032034","district_id":"950603","name":"Elesim","postal_code":"99085"},{"id":"9506032035","district_id":"950603","name":"Wanwal ","postal_code":"99085"},{"id":"9506032036","district_id":"950603","name":"Sabilironggo","postal_code":"99085"},{"id":"9506032037","district_id":"950603","name":"Yanamik","postal_code":"99085"},{"id":"9506032038","district_id":"950603","name":"Lakongkong ","postal_code":"99085"},{"id":"9506032039","district_id":"950603","name":"Helaksili","postal_code":"99085"},{"id":"9506032040","district_id":"950603","name":"Bukurik","postal_code":"99085"},{"id":"9506032041","district_id":"950603","name":"Kewi","postal_code":"99085"},{"id":"9506032042","district_id":"950603","name":"Yambaikma","postal_code":"99085"},{"id":"9506032043","district_id":"950603","name":"Hubualma ","postal_code":"99085"},{"id":"9506032044","district_id":"950603","name":"Yuktanggo ","postal_code":"99085"},{"id":"9506032045","district_id":"950603","name":"Wambal","postal_code":"99085"},{"id":"9506032046","district_id":"950603","name":"Lilimuhuk ","postal_code":"99085"},{"id":"9506032047","district_id":"950603","name":"Hulhule","postal_code":"99085"},{"id":"9506032048","district_id":"950603","name":"Mahiyal ","postal_code":"99085"},{"id":"9506032049","district_id":"950603","name":"Alugi","postal_code":"99085"},{"id":"9506032050","district_id":"950603","name":"Sahikma","postal_code":"99085"},{"id":"9506032051","district_id":"950603","name":"Bonahik","postal_code":"99085"},{"id":"9506032052","district_id":"950603","name":"Eliyekma ","postal_code":"99085"},{"id":"9506032053","district_id":"950603","name":"Yabusup","postal_code":"99085"},{"id":"9506032054","district_id":"950603","name":"Arikbalek","postal_code":"99085"},{"id":"9506032055","district_id":"950603","name":"Yawan","postal_code":"99085"},{"id":"9506032056","district_id":"950603","name":"Fuim","postal_code":"99085"},{"id":"9506032057","district_id":"950603","name":"Witlanggo ","postal_code":"99085"},{"id":"9506032058","district_id":"950603","name":"Worowi ","postal_code":"99085"},{"id":"9506032059","district_id":"950603","name":"Bonggi","postal_code":"99085"},{"id":"9506032060","district_id":"950603","name":"Wilak","postal_code":"99085"},{"id":"9506032061","district_id":"950603","name":"Wanggun ","postal_code":"99085"},{"id":"9506032062","district_id":"950603","name":"Hombanma ","postal_code":"99085"},{"id":"9506032063","district_id":"950603","name":"Yama","postal_code":"99085"},{"id":"9506032064","district_id":"950603","name":"Halifur","postal_code":"99085"},{"id":"9506032065","district_id":"950603","name":"Beim","postal_code":"99085"},{"id":"9506032066","district_id":"950603","name":"Ulusi","postal_code":"99085"},{"id":"9506032067","district_id":"950603","name":"Salo","postal_code":"99085"},{"id":"9506032068","district_id":"950603","name":"Moban","postal_code":"99085"},{"id":"9506032069","district_id":"950603","name":"Mulip","postal_code":"99085"},{"id":"9506032070","district_id":"950603","name":"Ulukhumi","postal_code":"99085"},{"id":"9506032071","district_id":"950603","name":"Halisek","postal_code":"99085"},{"id":"9506032072","district_id":"950603","name":"Lohomabel","postal_code":"99085"},{"id":"9506032073","district_id":"950603","name":"Kule","postal_code":"99085"},{"id":"9506032074","district_id":"950603","name":"Kandibung","postal_code":"99085"},{"id":"9506032075","district_id":"950603","name":"Gefido ","postal_code":"99085"},{"id":"9506032076","district_id":"950603","name":"Sapiwarek","postal_code":"99085"},{"id":"9506032077","district_id":"950603","name":"Fialem","postal_code":"99085"},{"id":"9506032078","district_id":"950603","name":"Horakia","postal_code":"99085"},{"id":"9506032079","district_id":"950603","name":"Suahe","postal_code":"99085"},{"id":"9506032080","district_id":"950603","name":"Uluhufuk","postal_code":"99085"},{"id":"9506032081","district_id":"950603","name":"Waroham","postal_code":"99085"},{"id":"9506032082","district_id":"950603","name":"Sohi","postal_code":"99085"},{"id":"9506032083","district_id":"950603","name":"Akris","postal_code":"99085"},{"id":"9506032084","district_id":"950603","name":"Pirikalem","postal_code":"99085"},{"id":"9506032085","district_id":"950603","name":"Sumbul","postal_code":"99085"},{"id":"9506032086","district_id":"950603","name":"Hundilip","postal_code":"99085"},{"id":"9506032087","district_id":"950603","name":"Amuki","postal_code":"99085"},{"id":"9506032088","district_id":"950603","name":"Wamhor","postal_code":"99085"},{"id":"9506032089","district_id":"950603","name":"Kesuwi","postal_code":"99085"},{"id":"9506032090","district_id":"950603","name":"Pamumu","postal_code":"99085"},{"id":"9506032091","district_id":"950603","name":"Wafuhuk","postal_code":"99085"},{"id":"9506032092","district_id":"950603","name":"Lilluikma ","postal_code":"99085"},{"id":"9506032093","district_id":"950603","name":"Noholuok","postal_code":"99085"},{"id":"9506032094","district_id":"950603","name":"Wanam","postal_code":"99085"},{"id":"9506032095","district_id":"950603","name":"Nenomani","postal_code":"99085"},{"id":"9506032096","district_id":"950603","name":"Wilofing","postal_code":"99085"},{"id":"9506032097","district_id":"950603","name":"Salohe","postal_code":"99085"},{"id":"9506032098","district_id":"950603","name":"Dama","postal_code":"99085"},{"id":"9506032099","district_id":"950603","name":"Kelesu ","postal_code":"99085"},{"id":"9506032100","district_id":"950603","name":"Kaboholik ","postal_code":"99085"},{"id":"9506032101","district_id":"950603","name":"Horenikma","postal_code":"99085"},{"id":"9506032102","district_id":"950603","name":"Lasikma","postal_code":"99085"},{"id":"9506032103","district_id":"950603","name":"Suele","postal_code":"99085"},{"id":"9506032104","district_id":"950603","name":"Heahobak","postal_code":"99085"},{"id":"9506032105","district_id":"950603","name":"Maleo","postal_code":"99085"},{"id":"9506032106","district_id":"950603","name":"Usabiye","postal_code":"99085"},{"id":"9506032107","district_id":"950603","name":"Wiwulik","postal_code":"99085"},{"id":"9506032108","district_id":"950603","name":"Somohi","postal_code":"99085"}]