[{"id":"9508122001","district_id":"950812","name":"Meborok","postal_code":"99912"},{"id":"9508122002","district_id":"950812","name":"Yuguru","postal_code":"99912"},{"id":"9508122003","district_id":"950812","name":"Lemurak","postal_code":"99912"},{"id":"9508122004","district_id":"950812","name":"Setmit","postal_code":"99912"},{"id":"9508122005","district_id":"950812","name":"Aptam","postal_code":"99912"},{"id":"9508122006","district_id":"950812","name":"Ngenamba","postal_code":"99912"},{"id":"9508122007","district_id":"950812","name":"Narugum","postal_code":"99912"},{"id":"9508122008","district_id":"950812","name":"Eregenmanggal","postal_code":"99912"},{"id":"9508122009","district_id":"950812","name":"Talpam","postal_code":"99912"},{"id":"9508122010","district_id":"950812","name":"Siginimarem","postal_code":"99912"},{"id":"9508122011","district_id":"950812","name":"Bone","postal_code":"99912"},{"id":"9508122012","district_id":"950812","name":"Olunmu","postal_code":"99912"},{"id":"9508122013","district_id":"950812","name":"Sabiem","postal_code":"99912"},{"id":"9508122014","district_id":"950812","name":"Pereki","postal_code":"99912"}]