[{"id":"1101092001","district_id":"110109","name":"Keude Trumon","postal_code":"23774"},{"id":"1101092002","district_id":"110109","name":"Ujong\/Ujung Tanoh","postal_code":"23774"},{"id":"1101092003","district_id":"110109","name":"Sigleng ","postal_code":"23774"},{"id":"1101092004","district_id":"110109","name":"Ie Meudama","postal_code":"23774"},{"id":"1101092005","district_id":"110109","name":"Tuepin Tinggi ","postal_code":"23774"},{"id":"1101092006","district_id":"110109","name":"Kuta Baro\/Baru","postal_code":"23774"},{"id":"1101092007","district_id":"110109","name":"Panton Bilie","postal_code":"23774"},{"id":"1101092012","district_id":"110109","name":"Kuta Padang","postal_code":"23774"},{"id":"1101092013","district_id":"110109","name":"Raket","postal_code":"23774"},{"id":"1101092014","district_id":"110109","name":"Gampong Teungoh","postal_code":"23774"},{"id":"1101092015","district_id":"110109","name":"Seuneubok Jaya ","postal_code":"23774"},{"id":"1101092016","district_id":"110109","name":"Padang Harapan","postal_code":"23774"}]