[{"id":"1102052005","district_id":"110205","name":"Salang Alas","postal_code":"24666"},{"id":"1102052009","district_id":"110205","name":"Kuta\/Kute Pasir","postal_code":"24666"},{"id":"1102052011","district_id":"110205","name":"Purwodadi","postal_code":"24666"},{"id":"1102052012","district_id":"110205","name":"Kuta\/Kute Tinggi","postal_code":"24666"},{"id":"1102052013","district_id":"110205","name":"Kampung Baru","postal_code":"24666"},{"id":"1102052014","district_id":"110205","name":"Peranginan","postal_code":"24666"},{"id":"1102052015","district_id":"110205","name":"Natam","postal_code":"24666"},{"id":"1102052025","district_id":"110205","name":"Kumbang Jaya","postal_code":"24666"},{"id":"1102052026","district_id":"110205","name":"Kumbang Indah","postal_code":"24666"},{"id":"1102052027","district_id":"110205","name":"Natam Baru","postal_code":"24666"},{"id":"1102052029","district_id":"110205","name":"Deleng Megakhe","postal_code":"24666"},{"id":"1102052030","district_id":"110205","name":"Lawe Bekung","postal_code":"24666"},{"id":"1102052031","district_id":"110205","name":"Lawe Bekung Tampahan","postal_code":"24666"},{"id":"1102052032","district_id":"110205","name":"Badar Indah","postal_code":"24666"},{"id":"1102052033","district_id":"110205","name":"Batu Mbekhong ","postal_code":"24666"},{"id":"1102052034","district_id":"110205","name":"Tanah Merah","postal_code":"24666"},{"id":"1102052035","district_id":"110205","name":"Tanoh Megakhe","postal_code":"24666"},{"id":"1102052036","district_id":"110205","name":"Lawe Sekerah ","postal_code":"24666"}]