[{"id":"1102072001","district_id":"110207","name":"Gulo","postal_code":"24663"},{"id":"1102072002","district_id":"110207","name":"Pulo Piku","postal_code":"24663"},{"id":"1102072003","district_id":"110207","name":"Terutung Kute","postal_code":"24663"},{"id":"1102072004","district_id":"110207","name":"Kute Ujung","postal_code":"24663"},{"id":"1102072005","district_id":"110207","name":"Lawe Stul","postal_code":"24663"},{"id":"1102072006","district_id":"110207","name":"Kite Merangun","postal_code":"24663"},{"id":"1102072007","district_id":"110207","name":"Mamas","postal_code":"24663"},{"id":"1102072008","district_id":"110207","name":"Tanjung Lama","postal_code":"24663"},{"id":"1102072009","district_id":"110207","name":"Tanjung Muda","postal_code":"24663"},{"id":"1102072010","district_id":"110207","name":"Rambung Teldak","postal_code":"24663"},{"id":"1102072011","district_id":"110207","name":"Tanjung Aman","postal_code":"24663"},{"id":"1102072012","district_id":"110207","name":"Sri Muda","postal_code":"24663"},{"id":"1102072013","district_id":"110207","name":"Ujung Baru","postal_code":"24663"},{"id":"1102072014","district_id":"110207","name":"Kute Rambe","postal_code":"24663"},{"id":"1102072015","district_id":"110207","name":"Mamas Baru","postal_code":"24663"},{"id":"1102072016","district_id":"110207","name":"Rambung Jaya","postal_code":"24663"},{"id":"1102072017","district_id":"110207","name":"Makmur Jaya","postal_code":"24663"},{"id":"1102072018","district_id":"110207","name":"Darul Makmur","postal_code":"24663"},{"id":"1102072019","district_id":"110207","name":"Tanjung Bakhu","postal_code":"24663"},{"id":"1102072020","district_id":"110207","name":"Pulo Gabung","postal_code":"24663"},{"id":"1102072021","district_id":"110207","name":"Kokhtan Jaya","postal_code":"24663"},{"id":"1102072022","district_id":"110207","name":"Istiqamah","postal_code":"24663"},{"id":"1102072023","district_id":"110207","name":"Lawe Mamas Indah","postal_code":"24663"},{"id":"1102072024","district_id":"110207","name":"Tanjung Leuser","postal_code":"24663"},{"id":"1102072025","district_id":"110207","name":"Simpang IV Tanjung","postal_code":"24663"},{"id":"1102072026","district_id":"110207","name":"Lawe Pinis","postal_code":"24663"},{"id":"1102072027","district_id":"110207","name":"Buntul Kendawi","postal_code":"24663"},{"id":"1102072028","district_id":"110207","name":"Kuning Abadi","postal_code":"24663"}]