[{"id":"1103112001","district_id":"110311","name":"Blang Seunong","postal_code":"24463"},{"id":"1103112002","district_id":"110311","name":"Suka Damai","postal_code":"24463"},{"id":"1103112003","district_id":"110311","name":"Pante Labu","postal_code":"24463"},{"id":"1103112004","district_id":"110311","name":"Pante Rambong","postal_code":"24463"},{"id":"1103112005","district_id":"110311","name":"Alue Ie Mirah","postal_code":"24463"},{"id":"1103112006","district_id":"110311","name":"Seuneubok Tuha","postal_code":"24463"},{"id":"1103112007","district_id":"110311","name":"Seuneubok Saboh","postal_code":"24463"},{"id":"1103112008","district_id":"110311","name":"Buket Kareung","postal_code":"24463"},{"id":"1103112009","district_id":"110311","name":"Buket Bata","postal_code":"24463"},{"id":"1103112010","district_id":"110311","name":"Meunasah Tunong","postal_code":"24463"},{"id":"1103112011","district_id":"110311","name":"Meunasah Teungoh","postal_code":"24463"},{"id":"1103112012","district_id":"110311","name":"Keude Baro","postal_code":"24463"},{"id":"1103112013","district_id":"110311","name":"Matang Perlak","postal_code":"24463"},{"id":"1103112014","district_id":"110311","name":"Grong-grong","postal_code":"24463"},{"id":"1103112015","district_id":"110311","name":"Matang Kruet","postal_code":"24463"},{"id":"1103112016","district_id":"110311","name":"Meunasah Leubok","postal_code":"24463"},{"id":"1103112017","district_id":"110311","name":"Pante Panah","postal_code":"24463"},{"id":"1103112018","district_id":"110311","name":"Paya Demam Sa","postal_code":"24463"},{"id":"1103112019","district_id":"110311","name":"Paya Demam Dua","postal_code":"24463"},{"id":"1103112020","district_id":"110311","name":"Paya Demam Lhee","postal_code":"24463"},{"id":"1103112021","district_id":"110311","name":"Matang Pudeng","postal_code":"24463"},{"id":"1103112022","district_id":"110311","name":"Putoh Sa","postal_code":"24463"},{"id":"1103112023","district_id":"110311","name":"Putoh Dua","postal_code":"24463"},{"id":"1103112024","district_id":"110311","name":"Sah Raja","postal_code":"24463"},{"id":"1103112025","district_id":"110311","name":"Sijudo","postal_code":"24463"}]