[{"id":"1103012001","district_id":"110301","name":"Alue Luddin Sa","postal_code":"24455"},{"id":"1103012002","district_id":"110301","name":"Alue Luddin Dua","postal_code":"24455"},{"id":"1103012003","district_id":"110301","name":"Alue Dalam","postal_code":"24455"},{"id":"1103012004","district_id":"110301","name":"Dama Pulo Sa","postal_code":"24455"},{"id":"1103012005","district_id":"110301","name":"Dama Pulo Dua","postal_code":"24455"},{"id":"1103012006","district_id":"110301","name":"Buket Kulam","postal_code":"24455"},{"id":"1103012007","district_id":"110301","name":"Seuneubok Teungoh","postal_code":"24455"},{"id":"1103012008","district_id":"110301","name":"Jungka Gajah","postal_code":"24455"},{"id":"1103012009","district_id":"110301","name":"Seuneubok Simpang","postal_code":"24455"},{"id":"1103012010","district_id":"110301","name":"Matang Pineung","postal_code":"24455"},{"id":"1103012011","district_id":"110301","name":"Lhok Geulumpang","postal_code":"24455"},{"id":"1103012012","district_id":"110301","name":"Blang Buket","postal_code":"24455"},{"id":"1103012013","district_id":"110301","name":"Meunasah Keutapang","postal_code":"24455"},{"id":"1103012014","district_id":"110301","name":"Buket Rumia","postal_code":"24455"},{"id":"1103012015","district_id":"110301","name":"Alue Gadeng","postal_code":"24455"},{"id":"1103012016","district_id":"110301","name":"Kapai Baro","postal_code":"24455"},{"id":"1103012017","district_id":"110301","name":"Seuneubok Tuha Sa","postal_code":"24455"},{"id":"1103012018","district_id":"110301","name":"Seuneubok Tuha Dua","postal_code":"24455"},{"id":"1103012019","district_id":"110301","name":"Seuneubok Buloh","postal_code":"24455"},{"id":"1103012020","district_id":"110301","name":"Gaseh Sayang","postal_code":"24455"},{"id":"1103012021","district_id":"110301","name":"Alue Lhok","postal_code":"24455"},{"id":"1103012022","district_id":"110301","name":"Trieng Gadeng","postal_code":"24455"},{"id":"1103012023","district_id":"110301","name":"Grong-Grong","postal_code":"24455"},{"id":"1103012024","district_id":"110301","name":"Matang Geuto","postal_code":"24455"},{"id":"1103012025","district_id":"110301","name":"Alue Merbo","postal_code":"24455"},{"id":"1103012026","district_id":"110301","name":"Buket Raya","postal_code":"24455"},{"id":"1103012027","district_id":"110301","name":"Gampong Keude","postal_code":"24455"},{"id":"1103012028","district_id":"110301","name":"Peukan Idi Cut","postal_code":"24455"},{"id":"1103012029","district_id":"110301","name":"Gampong Beunot","postal_code":"24455"},{"id":"1103012030","district_id":"110301","name":"Seuneubok Baroh","postal_code":"24455"},{"id":"1103012031","district_id":"110301","name":"Teupin Drum","postal_code":"24455"},{"id":"1103012032","district_id":"110301","name":"Kuala Idi Cut","postal_code":"24455"},{"id":"1103012034","district_id":"110301","name":"Seuneubok Aceh","postal_code":"24455"},{"id":"1103012035","district_id":"110301","name":"Gampong Baro","postal_code":"24455"},{"id":"1103012036","district_id":"110301","name":"Bagok Panah Sa","postal_code":"24455"},{"id":"1103012037","district_id":"110301","name":"Bagok Panah Dua","postal_code":"24455"},{"id":"1103012038","district_id":"110301","name":"Bagok Panah Lhee","postal_code":"24455"},{"id":"1103012039","district_id":"110301","name":"Bagok Panah Peut","postal_code":"24455"},{"id":"1103012040","district_id":"110301","name":"Buket Tualang","postal_code":"24455"},{"id":"1103012041","district_id":"110301","name":"Keumuneng Sa","postal_code":"24455"},{"id":"1103012042","district_id":"110301","name":"Keumuneng Dua","postal_code":"24455"},{"id":"1103012043","district_id":"110301","name":"Keumuneng Lhee","postal_code":"24455"},{"id":"1103012044","district_id":"110301","name":"Keumuneng Peut","postal_code":"24455"},{"id":"1103012045","district_id":"110301","name":"Keumuneng Limong","postal_code":"24455"},{"id":"1103012046","district_id":"110301","name":"Meunasah Blang","postal_code":"24455"}]