[{"id":"1103132001","district_id":"110313","name":"Seuneubok Bayu","postal_code":"24457"},{"id":"1103132002","district_id":"110313","name":"Alue Ie Itam","postal_code":"24457"},{"id":"1103132003","district_id":"110313","name":"Blang Nisan ","postal_code":"24457"},{"id":"1103132004","district_id":"110313","name":"Bandar Baro","postal_code":"24457"},{"id":"1103132005","district_id":"110313","name":"Alue Patong","postal_code":"24457"},{"id":"1103132006","district_id":"110313","name":"Alue Ie Mirah","postal_code":"24457"},{"id":"1103132007","district_id":"110313","name":"Suka Makmur","postal_code":"24457"},{"id":"1103132008","district_id":"110313","name":"Jambo Balee","postal_code":"24457"},{"id":"1103132009","district_id":"110313","name":"Jambo Lubok","postal_code":"24457"},{"id":"1103132010","district_id":"110313","name":"Seuneubok Cina","postal_code":"24457"},{"id":"1103132011","district_id":"110313","name":"Pelita Sagop Jaya","postal_code":"24457"},{"id":"1103132012","district_id":"110313","name":"Perkebunan Julok Rayeuk Selatan","postal_code":"24457"},{"id":"1103132013","district_id":"110313","name":"Perkebunan Julok Rayeuk Utara","postal_code":"24457"}]