[{"id":"1104172001","district_id":"110417","name":"Takengon Timur","postal_code":"24511"},{"id":"1104172002","district_id":"110417","name":"Asir Asir","postal_code":"24513"},{"id":"1104172003","district_id":"110417","name":"Asir Asir Asia","postal_code":"24512"},{"id":"1104172004","district_id":"110417","name":"Bale Atu","postal_code":"24512"},{"id":"1104172005","district_id":"110417","name":"Bujang","postal_code":"24512"},{"id":"1104172006","district_id":"110417","name":"Gunung Suku","postal_code":"24512"},{"id":"1104172007","district_id":"110417","name":"Hakim Bale Bujang","postal_code":"24513"},{"id":"1104172008","district_id":"110417","name":"Kenawat","postal_code":"24515"},{"id":"1104172009","district_id":"110417","name":"Kuteni Reje","postal_code":"24512"},{"id":"1104172010","district_id":"110417","name":"Pedemun One One","postal_code":"24515"},{"id":"1104172011","district_id":"110417","name":"Rawe","postal_code":"24516"},{"id":"1104172012","district_id":"110417","name":"Takengon Barat","postal_code":"24514"},{"id":"1104172013","district_id":"110417","name":"Toweren Antara","postal_code":"24516"},{"id":"1104172014","district_id":"110417","name":"Toweren Toa","postal_code":"24516"},{"id":"1104172015","district_id":"110417","name":"Toweren Uken","postal_code":"24516"},{"id":"1104172016","district_id":"110417","name":"Teluk One-One","postal_code":"24515"},{"id":"1104172017","district_id":"110417","name":"Merah Mersa","postal_code":"24516"},{"id":"1104172018","district_id":"110417","name":"Waq Toweren","postal_code":"24516"}]