[{"id":"1105032001","district_id":"110503","name":"Tungkop","postal_code":"23685"},{"id":"1105032002","district_id":"110503","name":"Sakuy","postal_code":"23685"},{"id":"1105032003","district_id":"110503","name":"Kajeung","postal_code":"23685"},{"id":"1105032004","district_id":"110503","name":"Geudong","postal_code":"23685"},{"id":"1105032005","district_id":"110503","name":"Sarah Perlak","postal_code":"23685"},{"id":"1105032006","district_id":"110503","name":"Tutut","postal_code":"23685"},{"id":"1105032007","district_id":"110503","name":"Drien Sibak","postal_code":"23685"},{"id":"1105032008","district_id":"110503","name":"Tuwi Saya","postal_code":"23685"},{"id":"1105032009","district_id":"110503","name":"Lancong","postal_code":"23685"},{"id":"1105032010","district_id":"110503","name":"Sipot","postal_code":"23685"},{"id":"1105032011","district_id":"110503","name":"Pungki ","postal_code":"23685"},{"id":"1105032012","district_id":"110503","name":"Gunong Buloh","postal_code":"23685"},{"id":"1105032013","district_id":"110503","name":"Ramitie","postal_code":"23685"},{"id":"1105032014","district_id":"110503","name":"Lubok Beutong ","postal_code":"23685"},{"id":"1105032015","district_id":"110503","name":"Gleng ","postal_code":"23685"},{"id":"1105032016","district_id":"110503","name":"Tanoh Mirah","postal_code":"23685"},{"id":"1105032017","district_id":"110503","name":"Gaseu","postal_code":"23685"},{"id":"1105032018","district_id":"110503","name":"Lueng Baro","postal_code":"23685"}]