[{"id":"1105042001","district_id":"110504","name":"Kuala Bhee","postal_code":"23654"},{"id":"1105042002","district_id":"110504","name":"Pasi Lunak","postal_code":"23654"},{"id":"1105042003","district_id":"110504","name":"Pasi Aceh","postal_code":"23654"},{"id":"1105042004","district_id":"110504","name":"Aron Tunong","postal_code":"23654"},{"id":"1105042005","district_id":"110504","name":"Aron Baroh","postal_code":"23654"},{"id":"1105042006","district_id":"110504","name":"Pasi Pandan","postal_code":"23654"},{"id":"1105042007","district_id":"110504","name":"Ranto Panyang","postal_code":"23654"},{"id":"1105042008","district_id":"110504","name":"Gempa Raya","postal_code":"23654"},{"id":"1105042009","district_id":"110504","name":"Padang Jawa","postal_code":"23654"},{"id":"1105042010","district_id":"110504","name":"Ie Itam Tunong","postal_code":"23654"},{"id":"1105042011","district_id":"110504","name":"Ie Itam Baroh","postal_code":"23654"},{"id":"1105042012","district_id":"110504","name":"Tingkeum Panyang","postal_code":"23654"},{"id":"1105042013","district_id":"110504","name":"Lueng Teungku Yah ","postal_code":"23654"},{"id":"1105042014","district_id":"110504","name":"Lueng Tanoh Tho","postal_code":"23654"},{"id":"1105042015","district_id":"110504","name":"Gunong\/Gunung Rambong","postal_code":"23654"},{"id":"1105042016","district_id":"110504","name":"Drien Mangko ","postal_code":"23654"},{"id":"1105042017","district_id":"110504","name":"Gunung Hampa","postal_code":"23654"},{"id":"1105042018","district_id":"110504","name":"Lung Jawa ","postal_code":"23654"},{"id":"1105042019","district_id":"110504","name":"Blang Mee","postal_code":"23654"},{"id":"1105042020","district_id":"110504","name":"Alue Blang","postal_code":"23654"},{"id":"1105042021","district_id":"110504","name":"Paya Dua","postal_code":"23654"},{"id":"1105042022","district_id":"110504","name":"Paya Luah","postal_code":"23654"},{"id":"1105042023","district_id":"110504","name":"Pasi Ara Kuala Batee ","postal_code":"23654"},{"id":"1105042024","district_id":"110504","name":"Alue Sikaya","postal_code":"23654"},{"id":"1105042025","district_id":"110504","name":"Darul Huda","postal_code":"23654"},{"id":"1105042026","district_id":"110504","name":"Keuleumbah","postal_code":"23654"},{"id":"1105042027","district_id":"110504","name":"Jawa","postal_code":"23654"},{"id":"1105042028","district_id":"110504","name":"Pulo Ie","postal_code":"23654"},{"id":"1105042029","district_id":"110504","name":"Alue Panyang","postal_code":"23654"},{"id":"1105042030","district_id":"110504","name":"Cot Keumudai ","postal_code":"23654"},{"id":"1105042031","district_id":"110504","name":"Seumantok","postal_code":"23654"},{"id":"1105042032","district_id":"110504","name":"Cot Situah","postal_code":"23654"},{"id":"1105042033","district_id":"110504","name":"Jawi","postal_code":"23654"},{"id":"1105042034","district_id":"110504","name":"Panton","postal_code":"23654"},{"id":"1105042035","district_id":"110504","name":"Pasi Birah","postal_code":"23654"},{"id":"1105042036","district_id":"110504","name":"Alue Sundak","postal_code":"23654"},{"id":"1105042037","district_id":"110504","name":"Teumarom","postal_code":"23654"},{"id":"1105042038","district_id":"110504","name":"Cot Murong","postal_code":"23654"},{"id":"1105042039","district_id":"110504","name":"Glee Siblah","postal_code":"23654"},{"id":"1105042040","district_id":"110504","name":"Suak Trieng ","postal_code":"23654"},{"id":"1105042041","district_id":"110504","name":"Cot Lagan Bubon ","postal_code":"23654"},{"id":"1105042042","district_id":"110504","name":"Bakat","postal_code":"23654"},{"id":"1105042043","district_id":"110504","name":"Lueng Buloh","postal_code":"23654"}]