[{"id":"1106112001","district_id":"110611","name":"Krueng Anoi","postal_code":"23372"},{"id":"1106112002","district_id":"110611","name":"Lam Puuk","postal_code":"23372"},{"id":"1106112003","district_id":"110611","name":"Cot Beut","postal_code":"23372"},{"id":"1106112004","district_id":"110611","name":"Bueng Bakjok","postal_code":"23372"},{"id":"1106112005","district_id":"110611","name":"Lam Neuheun","postal_code":"23372"},{"id":"1106112006","district_id":"110611","name":"Seupeu","postal_code":"23372"},{"id":"1106112007","district_id":"110611","name":"Cot Mancang","postal_code":"23372"},{"id":"1106112008","district_id":"110611","name":"Lam Baet","postal_code":"23372"},{"id":"1106112009","district_id":"110611","name":"Cot Masam","postal_code":"23372"},{"id":"1106112016","district_id":"110611","name":"Gue","postal_code":"23372"},{"id":"1106112018","district_id":"110611","name":"Lam Sabang","postal_code":"23372"},{"id":"1106112019","district_id":"110611","name":"Lam Alue Raya","postal_code":"23372"},{"id":"1106112020","district_id":"110611","name":"Lam Alue Cut","postal_code":"23372"},{"id":"1106112021","district_id":"110611","name":"Leupung Mesjid","postal_code":"23372"},{"id":"1106112022","district_id":"110611","name":"Cot Lamee","postal_code":"23372"},{"id":"1106112023","district_id":"110611","name":"Leupung Ulee Alue","postal_code":"23372"},{"id":"1106112024","district_id":"110611","name":"Lampoh Tarom","postal_code":"23372"},{"id":"1106112025","district_id":"110611","name":"Lamteube Geupula","postal_code":"23372"},{"id":"1106112026","district_id":"110611","name":"Lamteube Mon Ara","postal_code":"23372"},{"id":"1106112027","district_id":"110611","name":"Aron","postal_code":"23372"},{"id":"1106112028","district_id":"110611","name":"Bak Buloh","postal_code":"23372"},{"id":"1106112029","district_id":"110611","name":"Lam Seunong","postal_code":"23372"},{"id":"1106112030","district_id":"110611","name":"Lam Raya","postal_code":"23372"},{"id":"1106112031","district_id":"110611","name":"Lam Roh","postal_code":"23372"},{"id":"1106112032","district_id":"110611","name":"Lambunot Tanoh","postal_code":"23372"},{"id":"1106112033","district_id":"110611","name":"Tumpok Lampoh","postal_code":"23372"},{"id":"1106112034","district_id":"110611","name":"Puuk","postal_code":"23372"},{"id":"1106112035","district_id":"110611","name":"Lambunot Paya","postal_code":"23372"},{"id":"1106112036","district_id":"110611","name":"Lampoh Keude","postal_code":"23372"},{"id":"1106112037","district_id":"110611","name":"Lam Asan","postal_code":"23372"},{"id":"1106112038","district_id":"110611","name":"Lambro Deyah","postal_code":"23372"},{"id":"1106112039","district_id":"110611","name":"Lambro Bileu","postal_code":"23372"},{"id":"1106112040","district_id":"110611","name":"Cot Peutano","postal_code":"23372"},{"id":"1106112041","district_id":"110611","name":"Cot Cut","postal_code":"23372"},{"id":"1106112042","district_id":"110611","name":"Meunasah Baktrieng","postal_code":"23372"},{"id":"1106112043","district_id":"110611","name":"Babah Jurong","postal_code":"23372"},{"id":"1106112044","district_id":"110611","name":"Lam Glumpang","postal_code":"23372"},{"id":"1106112045","district_id":"110611","name":"Rabeu","postal_code":"23372"},{"id":"1106112046","district_id":"110611","name":"Cucum","postal_code":"23372"},{"id":"1106112047","district_id":"110611","name":"Deyah","postal_code":"23372"},{"id":"1106112048","district_id":"110611","name":"Lam Trieng","postal_code":"23372"},{"id":"1106112049","district_id":"110611","name":"Beurangong","postal_code":"23372"},{"id":"1106112050","district_id":"110611","name":"Cot Preh","postal_code":"23372"},{"id":"1106112051","district_id":"110611","name":"Cot Raya","postal_code":"23372"},{"id":"1106112052","district_id":"110611","name":"Cot Yang","postal_code":"23372"},{"id":"1106112053","district_id":"110611","name":"Ujong Blang","postal_code":"23372"},{"id":"1106112054","district_id":"110611","name":"Lamceu","postal_code":"23372"}]