[{"id":"1106142001","district_id":"110614","name":"Lamtamot","postal_code":"23952"},{"id":"1106142002","district_id":"110614","name":"Lambaro Tunong","postal_code":"23952"},{"id":"1106142003","district_id":"110614","name":"Lonbaroh ","postal_code":"23952"},{"id":"1106142004","district_id":"110614","name":"Lon Asan","postal_code":"23952"},{"id":"1106142005","district_id":"110614","name":"Paya Keureuleh","postal_code":"23952"},{"id":"1106142006","district_id":"110614","name":"Panca","postal_code":"23952"},{"id":"1106142007","district_id":"110614","name":"Lam Kubu","postal_code":"23952"},{"id":"1106142008","district_id":"110614","name":"Panca Kubu","postal_code":"23952"},{"id":"1106142009","district_id":"110614","name":"Suka Damai ","postal_code":"23952"},{"id":"1106142010","district_id":"110614","name":"Suka Mulya ","postal_code":"23952"},{"id":"1106142011","district_id":"110614","name":"Saree Aceh","postal_code":"23952"},{"id":"1106142012","district_id":"110614","name":"Teuladan","postal_code":"23952"}]