[{"id":"1107112001","district_id":"110711","name":"Blang ","postal_code":"24163"},{"id":"1107112002","district_id":"110711","name":"Teumeucet","postal_code":"24163"},{"id":"1107112003","district_id":"110711","name":"Blang Cut","postal_code":"24163"},{"id":"1107112004","district_id":"110711","name":"Kumbang","postal_code":"24163"},{"id":"1107112005","district_id":"110711","name":"Pulo Tanjong","postal_code":"24163"},{"id":"1107112006","district_id":"110711","name":"Ara Bungkok","postal_code":"24163"},{"id":"1107112007","district_id":"110711","name":"Lagang","postal_code":"24163"},{"id":"1107112008","district_id":"110711","name":"Mesjid Ilot","postal_code":"24163"},{"id":"1107112009","district_id":"110711","name":"Baroh Ilot","postal_code":"24163"},{"id":"1107112010","district_id":"110711","name":"Tunong Ilot ","postal_code":"24163"},{"id":"1107112011","district_id":"110711","name":"Teungoh Ilot","postal_code":"24163"},{"id":"1107112012","district_id":"110711","name":"Dayah Andeue","postal_code":"24163"},{"id":"1107112013","district_id":"110711","name":"Dayah Sinthop","postal_code":"24163"},{"id":"1107112014","district_id":"110711","name":"Kulu","postal_code":"24163"},{"id":"1107112015","district_id":"110711","name":"Mesjid Andeue","postal_code":"24163"},{"id":"1107112016","district_id":"110711","name":"Meuyub Lala","postal_code":"24163"},{"id":"1107112017","district_id":"110711","name":"Tuha Lada ","postal_code":"24163"},{"id":"1107112018","district_id":"110711","name":"Lhok Lubue ","postal_code":"24163"},{"id":"1107112019","district_id":"110711","name":"Babah Jurong","postal_code":"24163"},{"id":"1107112020","district_id":"110711","name":"Krueng Lala","postal_code":"24163"}]