[{"id":"1107132001","district_id":"110713","name":"Mesjid Yaman","postal_code":"24173"},{"id":"1107132002","district_id":"110713","name":"Baro Yaman","postal_code":"24173"},{"id":"1107132003","district_id":"110713","name":"Mee Teungoh Yaman ","postal_code":"24173"},{"id":"1107132004","district_id":"110713","name":"Sentosa","postal_code":"24173"},{"id":"1107132005","district_id":"110713","name":"Baroh Barat Yaman ","postal_code":"24173"},{"id":"1107132006","district_id":"110713","name":"Tuha Gampong Gajah ","postal_code":"24173"},{"id":"1107132007","district_id":"110713","name":"Jadan ","postal_code":"24173"},{"id":"1107132008","district_id":"110713","name":"Balee Keumangan ","postal_code":"24173"},{"id":"1107132009","district_id":"110713","name":"Blang Tidiek","postal_code":"24173"},{"id":"1107132010","district_id":"110713","name":"Blang Lilue ","postal_code":"24173"},{"id":"1107132011","district_id":"110713","name":"Keumangan Cut","postal_code":"24173"},{"id":"1107132012","district_id":"110713","name":"Mesjid Keumangan","postal_code":"24173"},{"id":"1107132013","district_id":"110713","name":"Dayah Tidiek","postal_code":"24173"},{"id":"1107132014","district_id":"110713","name":"Lueng Sagoe","postal_code":"24173"},{"id":"1107132015","district_id":"110713","name":"Blang Beureueh","postal_code":"24173"},{"id":"1107132016","district_id":"110713","name":"Dayah Beureueh","postal_code":"24173"},{"id":"1107132017","district_id":"110713","name":"Pante Beureueh","postal_code":"24173"},{"id":"1107132018","district_id":"110713","name":"Rapana","postal_code":"24173"},{"id":"1107132019","district_id":"110713","name":"Paya Tiba","postal_code":"24173"},{"id":"1107132020","district_id":"110713","name":"Paloh Kambuek ","postal_code":"24173"},{"id":"1107132021","district_id":"110713","name":"Lampoh Sirong ","postal_code":"24173"},{"id":"1107132022","district_id":"110713","name":"Mee Panyang ","postal_code":"24173"},{"id":"1107132023","district_id":"110713","name":"Reului ","postal_code":"24173"},{"id":"1107132024","district_id":"110713","name":"Dayah Syarief ","postal_code":"24173"},{"id":"1107132025","district_id":"110713","name":"Peureulak ","postal_code":"24173"},{"id":"1107132026","district_id":"110713","name":"Ribeun ","postal_code":"24173"},{"id":"1107132027","district_id":"110713","name":"Balee Busu ","postal_code":"24173"},{"id":"1107132028","district_id":"110713","name":"Lingkok Busu","postal_code":"24173"},{"id":"1107132029","district_id":"110713","name":"Kumbang ","postal_code":"24173"}]