[{"id":"1108162015","district_id":"110816","name":"Paloh Mambu","postal_code":"24378"},{"id":"1108162017","district_id":"110816","name":"Blang Karieng","postal_code":"24378"},{"id":"1108162018","district_id":"110816","name":"Paloh Kayee Kunyet","postal_code":"24378"},{"id":"1108162019","district_id":"110816","name":"Gampong Barat","postal_code":"24378"},{"id":"1108162020","district_id":"110816","name":"Meunasah Beunot","postal_code":"24378"},{"id":"1108162021","district_id":"110816","name":"Seuneubok","postal_code":"24378"},{"id":"1108162022","district_id":"110816","name":"Cot Leupee","postal_code":"24378"},{"id":"1108162023","district_id":"110816","name":"Gampong Teungoh","postal_code":"24378"},{"id":"1108162024","district_id":"110816","name":"Meunasah Meucat","postal_code":"24378"},{"id":"1108162025","district_id":"110816","name":"Meunasah Alue","postal_code":"24378"},{"id":"1108162026","district_id":"110816","name":"Panton","postal_code":"24378"},{"id":"1108162027","district_id":"110816","name":"Paloh Mampree","postal_code":"24378"},{"id":"1108162028","district_id":"110816","name":"Peunayan","postal_code":"24378"},{"id":"1108162029","district_id":"110816","name":"Tingkeum","postal_code":"24378"},{"id":"1108162030","district_id":"110816","name":"Meunasah Rayeuk","postal_code":"24378"},{"id":"1108162031","district_id":"110816","name":"Meunasah Cut","postal_code":"24378"},{"id":"1108162032","district_id":"110816","name":"Jeulikat","postal_code":"24378"},{"id":"1108162033","district_id":"110816","name":"Alue Bili","postal_code":"24378"},{"id":"1108162034","district_id":"110816","name":"Cot Mambong","postal_code":"24378"},{"id":"1108162035","district_id":"110816","name":"Blang Dalam Geunteng","postal_code":"24378"},{"id":"1108162036","district_id":"110816","name":"Blang Dalam Tunong","postal_code":"24378"},{"id":"1108162037","district_id":"110816","name":"Blang Dalam Baroh","postal_code":"24378"},{"id":"1108162038","district_id":"110816","name":"Cot Mee","postal_code":"24378"},{"id":"1108162039","district_id":"110816","name":"Cot Euntung","postal_code":"24378"},{"id":"1108162040","district_id":"110816","name":"Blang Crok","postal_code":"24378"},{"id":"1108162041","district_id":"110816","name":"Meunasah Krueng","postal_code":"24378"},{"id":"1108162042","district_id":"110816","name":"Binjee","postal_code":"24378"},{"id":"1108162043","district_id":"110816","name":"Keutapang","postal_code":"24378"},{"id":"1108162044","district_id":"110816","name":"Ulee Blang","postal_code":"24378"}]