[{"id":"1108112001","district_id":"110811","name":"Bale","postal_code":"24370"},{"id":"1108112002","district_id":"110811","name":"Bie","postal_code":"24370"},{"id":"1108112003","district_id":"110811","name":"Beurandang","postal_code":"24370"},{"id":"1108112004","district_id":"110811","name":"Baro Kulam Gajah","postal_code":"24370"},{"id":"1108112005","district_id":"110811","name":"Glong ","postal_code":"24370"},{"id":"1108112006","district_id":"110811","name":"Nibong","postal_code":"24370"},{"id":"1108112007","district_id":"110811","name":"Langa ","postal_code":"24370"},{"id":"1108112008","district_id":"110811","name":"Beunot ","postal_code":"24370"},{"id":"1108112009","district_id":"110811","name":"Keude Bayu","postal_code":"24370"},{"id":"1108112010","district_id":"110811","name":"Blang Bayu","postal_code":"24370"},{"id":"1108112011","district_id":"110811","name":"Dayah Tuha","postal_code":"24370"},{"id":"1108112012","district_id":"110811","name":"Dayah Baro","postal_code":"24370"},{"id":"1108112013","district_id":"110811","name":"Lancok","postal_code":"24370"},{"id":"1108112014","district_id":"110811","name":"Punti","postal_code":"24370"},{"id":"1108112015","district_id":"110811","name":"Bungong","postal_code":"24370"},{"id":"1108112016","district_id":"110811","name":"Baroh Blang Rimueng","postal_code":"24370"},{"id":"1108112017","district_id":"110811","name":"Ulee Meuria","postal_code":"24370"},{"id":"1108112018","district_id":"110811","name":"Kayee Panyang","postal_code":"24370"},{"id":"1108112019","district_id":"110811","name":"Rheng","postal_code":"24370"},{"id":"1108112020","district_id":"110811","name":"Trieng Meudurou","postal_code":"24370"},{"id":"1108112021","district_id":"110811","name":"Ulee Gampong","postal_code":"24370"},{"id":"1108112022","district_id":"110811","name":"Garut ","postal_code":"24370"},{"id":"1108112023","district_id":"110811","name":"Blang Awe","postal_code":"24370"},{"id":"1108112024","district_id":"110811","name":"Pulo Blang Mangat","postal_code":"24370"},{"id":"1108112025","district_id":"110811","name":"Cibrek","postal_code":"24370"},{"id":"1108112026","district_id":"110811","name":"Pulo Blang Trieng","postal_code":"24370"},{"id":"1108112027","district_id":"110811","name":"Meudang Ara","postal_code":"24370"},{"id":"1108112028","district_id":"110811","name":"Cot Neuheun ","postal_code":"24370"},{"id":"1108112029","district_id":"110811","name":"Tumpeun ","postal_code":"24370"},{"id":"1108112030","district_id":"110811","name":"Alen","postal_code":"24370"},{"id":"1108112031","district_id":"110811","name":"Dayah Blang Seureukuy","postal_code":"24370"},{"id":"1108112032","district_id":"110811","name":"Blang Patra","postal_code":"24370"},{"id":"1108112033","district_id":"110811","name":"Blang Majron","postal_code":"24370"},{"id":"1108112034","district_id":"110811","name":"Seuneubok Baro ","postal_code":"24370"},{"id":"1108112035","district_id":"110811","name":"Buket Glumpang","postal_code":"24370"},{"id":"1108112037","district_id":"110811","name":"Alue Majron","postal_code":"24370"},{"id":"1108112038","district_id":"110811","name":"Siren Tujoh","postal_code":"24370"},{"id":"1108112047","district_id":"110811","name":"Blang Seureukuy \/ Blang Serikuy","postal_code":"24370"}]