[{"id":"1108222001","district_id":"110822","name":"Keude Simpang Empat","postal_code":"24313"},{"id":"1108222002","district_id":"110822","name":"Seunebok Punti","postal_code":"24313"},{"id":"1108222003","district_id":"110822","name":"Paya Leupah","postal_code":"24313"},{"id":"1108222004","district_id":"110822","name":"Paya Teungoh","postal_code":"24313"},{"id":"1108222005","district_id":"110822","name":"Keubon Baro","postal_code":"24313"},{"id":"1108222006","district_id":"110822","name":"Meunasah Teungoh","postal_code":"24313"},{"id":"1108222007","district_id":"110822","name":"Meunasah Baroh","postal_code":"24313"},{"id":"1108222008","district_id":"110822","name":"Mancang","postal_code":"24313"},{"id":"1108222009","district_id":"110822","name":"Alue Bade","postal_code":"24313"},{"id":"1108222010","district_id":"110822","name":"Meunasah Dayah Spk","postal_code":"24313"},{"id":"1108222011","district_id":"110822","name":"Kilometer VI","postal_code":"24313"},{"id":"1108222012","district_id":"110822","name":"Kilometer VIII","postal_code":"24313"},{"id":"1108222013","district_id":"110822","name":"Ie Tarek I","postal_code":"24313"},{"id":"1108222014","district_id":"110822","name":"Ie Tarek II","postal_code":"24313"},{"id":"1108222015","district_id":"110822","name":"Pase Sentosa","postal_code":"24313"},{"id":"1108222016","district_id":"110822","name":"Blang Raleue","postal_code":"24313"}]