[{"id":"1108082001","district_id":"110808","name":"Pie ","postal_code":"24374"},{"id":"1108082002","district_id":"110808","name":"Asan ","postal_code":"24374"},{"id":"1108082003","district_id":"110808","name":"Murong","postal_code":"24374"},{"id":"1108082004","district_id":"110808","name":"Blang Kabu","postal_code":"24374"},{"id":"1108082005","district_id":"110808","name":"Mancang","postal_code":"24374"},{"id":"1108082006","district_id":"110808","name":"Keude Geudong","postal_code":"24374"},{"id":"1108082007","district_id":"110808","name":"Blang Peuria","postal_code":"24374"},{"id":"1108082008","district_id":"110808","name":"Teupin Ara","postal_code":"24374"},{"id":"1108082009","district_id":"110808","name":"Teupin Beulangan","postal_code":"24374"},{"id":"1108082010","district_id":"110808","name":"Krueng Baro Langgahan","postal_code":"24374"},{"id":"1108082011","district_id":"110808","name":"Pusong","postal_code":"24374"},{"id":"1108082012","district_id":"110808","name":"Tanjong Kleng","postal_code":"24374"},{"id":"1108082013","district_id":"110808","name":"Gampong Baro","postal_code":"24374"},{"id":"1108082014","district_id":"110808","name":"Beuringen","postal_code":"24374"},{"id":"1108082015","district_id":"110808","name":"Kuta Krueng","postal_code":"24374"},{"id":"1108082016","district_id":"110808","name":"Kuta Glumpang","postal_code":"24374"},{"id":"1108082017","district_id":"110808","name":"Meucat","postal_code":"24374"},{"id":"1108082018","district_id":"110808","name":"Krueng Baro Blang Mee ","postal_code":"24374"},{"id":"1108082019","district_id":"110808","name":"Ujong","postal_code":"24374"},{"id":"1108082020","district_id":"110808","name":"Mesjid ","postal_code":"24374"},{"id":"1108082021","district_id":"110808","name":"Teungoh ","postal_code":"24374"},{"id":"1108082022","district_id":"110808","name":"Keude Blangmee Pulokat","postal_code":"24374"},{"id":"1108082023","district_id":"110808","name":"Puuk","postal_code":"24374"},{"id":"1108082024","district_id":"110808","name":"Lancang","postal_code":"24374"},{"id":"1108082025","district_id":"110808","name":"Matang Ulim","postal_code":"24374"},{"id":"1108082026","district_id":"110808","name":"Sawang","postal_code":"24374"},{"id":"1108082027","district_id":"110808","name":"Laga Baro","postal_code":"24374"},{"id":"1108082028","district_id":"110808","name":"Pulo","postal_code":"24374"},{"id":"1108082029","district_id":"110808","name":"Matang Tunong","postal_code":"24374"},{"id":"1108082030","district_id":"110808","name":"Matang Puntong","postal_code":"24374"},{"id":"1108082031","district_id":"110808","name":"Blang Nibong","postal_code":"24374"},{"id":"1108082032","district_id":"110808","name":"Tanjong Baroh ","postal_code":"24374"},{"id":"1108082033","district_id":"110808","name":"Tanjung\/Tanjong Hagu","postal_code":"24374"},{"id":"1108082034","district_id":"110808","name":"Tanjong Reungkam ","postal_code":"24374"},{"id":"1108082035","district_id":"110808","name":"Tanjung\/Tanjong Mesjid","postal_code":"24374"},{"id":"1108082036","district_id":"110808","name":"Paya Terbang","postal_code":"24374"},{"id":"1108082037","district_id":"110808","name":"Madan","postal_code":"24374"},{"id":"1108082038","district_id":"110808","name":"Tanjong Awe ","postal_code":"24374"},{"id":"1108082039","district_id":"110808","name":"Kitou","postal_code":"24374"},{"id":"1108082040","district_id":"110808","name":"Krueng Matee ","postal_code":"24374"}]