[{"id":"1109022001","district_id":"110902","name":"Ujung Salang","postal_code":"23896"},{"id":"1109022002","district_id":"110902","name":"Padang Unoi","postal_code":"23896"},{"id":"1109022003","district_id":"110902","name":"Nasreuhe","postal_code":"23896"},{"id":"1109022004","district_id":"110902","name":"Meunafa","postal_code":"23896"},{"id":"1109022005","district_id":"110902","name":"Along","postal_code":"23896"},{"id":"1109022006","district_id":"110902","name":"Panton Lawe","postal_code":"23896"},{"id":"1109022007","district_id":"110902","name":"Mutiara","postal_code":"23896"},{"id":"1109022008","district_id":"110902","name":"Tamon Jaya","postal_code":"23896"},{"id":"1109022009","district_id":"110902","name":"Karya Bakti","postal_code":"23896"},{"id":"1109022010","district_id":"110902","name":"Jaya Baru","postal_code":"23896"},{"id":"1109022011","district_id":"110902","name":"Tameng","postal_code":"23896"},{"id":"1109022012","district_id":"110902","name":"Lalla Bahagia","postal_code":"23896"},{"id":"1109022013","district_id":"110902","name":"Suak Manang","postal_code":"23896"},{"id":"1109022014","district_id":"110902","name":"Ganang Pusako","postal_code":"23896"},{"id":"1109022015","district_id":"110902","name":"Kenangan Jaya","postal_code":"23896"},{"id":"1109022016","district_id":"110902","name":"Bunga","postal_code":"23896"}]