[{"id":"1111172001","district_id":"111117","name":"Paloh Dama","postal_code":"24358"},{"id":"1111172002","district_id":"111117","name":"Paya Rangkuluh","postal_code":"24358"},{"id":"1111172003","district_id":"111117","name":"Paloh Raya","postal_code":"24358"},{"id":"1111172004","district_id":"111117","name":"Crueng Kumbang","postal_code":"24358"},{"id":"1111172005","district_id":"111117","name":"Tanjong Siron","postal_code":"24358"},{"id":"1111172006","district_id":"111117","name":"Balee Mee","postal_code":"24358"},{"id":"1111172007","district_id":"111117","name":"Buket Dalam","postal_code":"24358"},{"id":"1111172008","district_id":"111117","name":"Parang Sikureung","postal_code":"24358"},{"id":"1111172009","district_id":"111117","name":"Cot Baroh","postal_code":"24358"},{"id":"1111172010","district_id":"111117","name":"Paloh Peuradi","postal_code":"24358"},{"id":"1111172011","district_id":"111117","name":"Cot Mee","postal_code":"24358"},{"id":"1111172012","district_id":"111117","name":"Blang Mee","postal_code":"24358"},{"id":"1111172013","district_id":"111117","name":"Glee Putoh","postal_code":"24358"},{"id":"1111172014","district_id":"111117","name":"Tingkeum Baro","postal_code":"24358"},{"id":"1111172015","district_id":"111117","name":"Tingkeum Manyang","postal_code":"24358"},{"id":"1111172016","district_id":"111117","name":"Kulu","postal_code":"24358"},{"id":"1111172017","district_id":"111117","name":"Babah Suak","postal_code":"24358"},{"id":"1111172018","district_id":"111117","name":"Ulee Pusong","postal_code":"24358"},{"id":"1111172019","district_id":"111117","name":"Pulo Nga","postal_code":"24358"},{"id":"1111172020","district_id":"111117","name":"Meusee","postal_code":"24358"},{"id":"1111172021","district_id":"111117","name":"Blang Panjo","postal_code":"24358"},{"id":"1111172022","district_id":"111117","name":"Babah Jurong","postal_code":"24358"},{"id":"1111172023","district_id":"111117","name":"Dayah Panjoe","postal_code":"24358"},{"id":"1111172024","district_id":"111117","name":"Pulo Blang","postal_code":"24358"},{"id":"1111172025","district_id":"111117","name":"Imbudee","postal_code":"24358"},{"id":"1111172026","district_id":"111117","name":"Pulo Siren","postal_code":"24358"},{"id":"1111172027","district_id":"111117","name":"Jarommah Me","postal_code":"24358"},{"id":"1111172028","district_id":"111117","name":"Jaromah Baroh","postal_code":"24358"},{"id":"1111172029","district_id":"111117","name":"Lhok Nga","postal_code":"24358"},{"id":"1111172030","district_id":"111117","name":"Pulo Reudeup","postal_code":"24358"},{"id":"1111172031","district_id":"111117","name":"Geulanggang Meunjee","postal_code":"24358"},{"id":"1111172032","district_id":"111117","name":"Geulanggang Panah","postal_code":"24358"},{"id":"1111172033","district_id":"111117","name":"Ujong Blang","postal_code":"24358"},{"id":"1111172034","district_id":"111117","name":"Geulanggang Rayeuk","postal_code":"24358"},{"id":"1111172035","district_id":"111117","name":"Dayah Mesjid","postal_code":"24358"},{"id":"1111172036","district_id":"111117","name":"Keurumbok","postal_code":"24358"},{"id":"1111172037","district_id":"111117","name":"Cot Ara","postal_code":"24358"},{"id":"1111172038","district_id":"111117","name":"Rancong","postal_code":"24358"},{"id":"1111172039","district_id":"111117","name":"Jambo Kajeung","postal_code":"24358"},{"id":"1111172040","district_id":"111117","name":"Kulu Kuta","postal_code":"24358"},{"id":"1111172041","district_id":"111117","name":"Pulo Awe","postal_code":"24358"}]