[{"id":"1111152001","district_id":"111115","name":"Lueng Daneun","postal_code":"24269"},{"id":"1111152002","district_id":"111115","name":"Rambong Payong","postal_code":"24269"},{"id":"1111152003","district_id":"111115","name":"Alue Kupula","postal_code":"24269"},{"id":"1111152004","district_id":"111115","name":"Blang Cirih","postal_code":"24269"},{"id":"1111152005","district_id":"111115","name":"Kubu","postal_code":"24269"},{"id":"1111152006","district_id":"111115","name":"Teupin Raya","postal_code":"24269"},{"id":"1111152007","district_id":"111115","name":"Cot Aneuk Batee","postal_code":"24269"},{"id":"1111152008","district_id":"111115","name":"Kubu Raya","postal_code":"24269"},{"id":"1111152009","district_id":"111115","name":"Pante Baro Gle Siblah","postal_code":"24269"},{"id":"1111152010","district_id":"111115","name":"Pante Baro Kumbang","postal_code":"24269"},{"id":"1111152011","district_id":"111115","name":"Pante Baro Buket Panyang","postal_code":"24269"},{"id":"1111152012","district_id":"111115","name":"Alue Krueb","postal_code":"24269"},{"id":"1111152013","district_id":"111115","name":"Alue Iet","postal_code":"24269"},{"id":"1111152014","district_id":"111115","name":"Paloh Mampre","postal_code":"24269"},{"id":"1111152015","district_id":"111115","name":"Buket Sudan","postal_code":"24269"},{"id":"1111152016","district_id":"111115","name":"Awe Geutah","postal_code":"24269"},{"id":"1111152017","district_id":"111115","name":"Cot Saleuet","postal_code":"24269"},{"id":"1111152018","district_id":"111115","name":"Alue Glumpang","postal_code":"24269"},{"id":"1111152019","district_id":"111115","name":"Pante Karya","postal_code":"24269"},{"id":"1111152020","district_id":"111115","name":"Awe Geutah Paya","postal_code":"24269"},{"id":"1111152021","district_id":"111115","name":"Dayah Baro","postal_code":"24269"}]