[{"id":"1111092001","district_id":"111109","name":"Juli Cot Mesjid","postal_code":"24250"},{"id":"1111092002","district_id":"111109","name":"Juli Seutuy ","postal_code":"24250"},{"id":"1111092003","district_id":"111109","name":"Juli Tambo Tanjong","postal_code":"24250"},{"id":"1111092004","district_id":"111109","name":"Juli Keude dua ","postal_code":"24250"},{"id":"1111092005","district_id":"111109","name":"Juli Teungku Dilampoh","postal_code":"24250"},{"id":"1111092006","district_id":"111109","name":"Glumpang Meu Jim Jim ","postal_code":"24250"},{"id":"1111092007","district_id":"111109","name":"Alue Unou\/Unoe","postal_code":"24250"},{"id":"1111092008","district_id":"111109","name":"Batee Raya","postal_code":"24250"},{"id":"1111092009","district_id":"111109","name":"Seuneubok Peureraden ","postal_code":"24250"},{"id":"1111092010","district_id":"111109","name":"Juli Mee Teungoh","postal_code":"24250"},{"id":"1111092011","district_id":"111109","name":"Seuneubok Gunci","postal_code":"24250"},{"id":"1111092012","district_id":"111109","name":"Mane Meujingki","postal_code":"24250"},{"id":"1111092013","district_id":"111109","name":"Abeuk Budi","postal_code":"24250"},{"id":"1111092014","district_id":"111109","name":"Blang Keutumba ","postal_code":"24250"},{"id":"1111092015","district_id":"111109","name":"Pante Baro","postal_code":"24250"},{"id":"1111092016","district_id":"111109","name":"Bunyot ","postal_code":"24250"},{"id":"1111092017","district_id":"111109","name":"Paya Cut","postal_code":"24250"},{"id":"1111092018","district_id":"111109","name":"Teupin Mane ","postal_code":"24250"},{"id":"1111092019","district_id":"111109","name":"Simpang Jaya","postal_code":"24250"},{"id":"1111092020","district_id":"111109","name":"Krueng Simpo","postal_code":"24250"},{"id":"1111092021","district_id":"111109","name":"Suka Tani","postal_code":"24250"},{"id":"1111092022","district_id":"111109","name":"Juli Seupeng\/Lampoh","postal_code":"24250"},{"id":"1111092023","district_id":"111109","name":"Bukit Mulia ","postal_code":"24250"},{"id":"1111092024","district_id":"111109","name":"Juli Meunasah Tambo","postal_code":"24250"},{"id":"1111092025","district_id":"111109","name":"Alue Rambong ","postal_code":"24250"},{"id":"1111092026","district_id":"111109","name":"Juli Meunasah Teungoh","postal_code":"24250"},{"id":"1111092027","district_id":"111109","name":"Juli Payaru ","postal_code":"24250"},{"id":"1111092028","district_id":"111109","name":"Paseh","postal_code":"24250"},{"id":"1111092029","district_id":"111109","name":"Juli Cot Meurak","postal_code":"24250"},{"id":"1111092030","district_id":"111109","name":"Pante Peusangan","postal_code":"24250"},{"id":"1111092031","district_id":"111109","name":"Bale Panah ","postal_code":"24250"},{"id":"1111092032","district_id":"111109","name":"Ranto Panyang","postal_code":"24250"},{"id":"1111092033","district_id":"111109","name":"Simpang Mulia","postal_code":"24250"},{"id":"1111092034","district_id":"111109","name":"Seuneubok Dalam","postal_code":"24250"},{"id":"1111092035","district_id":"111109","name":"Juli Meunasah Jok","postal_code":"24250"},{"id":"1111092036","district_id":"111109","name":"Juli Uruek Anoe","postal_code":"24250"}]