[{"id":"1111082001","district_id":"111108","name":"Lancok Ulim","postal_code":"24265"},{"id":"1111082002","district_id":"111108","name":"Nase Mee","postal_code":"24265"},{"id":"1111082003","district_id":"111108","name":"Pandrah Kandeh","postal_code":"24265"},{"id":"1111082004","district_id":"111108","name":"Panton","postal_code":"24265"},{"id":"1111082005","district_id":"111108","name":"Lhok Dagang","postal_code":"24265"},{"id":"1111082006","district_id":"111108","name":"Pandrah Janeng","postal_code":"24265"},{"id":"1111082007","district_id":"111108","name":"Garot","postal_code":"24265"},{"id":"1111082008","district_id":"111108","name":"Gampong Blang","postal_code":"24265"},{"id":"1111082009","district_id":"111108","name":"Kuta Rusep","postal_code":"24265"},{"id":"1111082010","district_id":"111108","name":"Blang Sama Gadeng","postal_code":"24265"},{"id":"1111082011","district_id":"111108","name":"Panton Bili","postal_code":"24265"},{"id":"1111082012","district_id":"111108","name":"Alue Igeuh","postal_code":"24265"},{"id":"1111082013","district_id":"111108","name":"Meunasah Reudeup","postal_code":"24265"},{"id":"1111082014","district_id":"111108","name":"Meunasah Teungoh","postal_code":"24265"},{"id":"1111082015","district_id":"111108","name":"Bantayan","postal_code":"24265"},{"id":"1111082016","district_id":"111108","name":"Cot Leubeng","postal_code":"24265"},{"id":"1111082017","district_id":"111108","name":"Seunebok Baro","postal_code":"24265"},{"id":"1111082018","district_id":"111108","name":"Uteuen Kruet","postal_code":"24265"},{"id":"1111082019","district_id":"111108","name":"Nase Barat","postal_code":"24265"}]