[{"id":"1112012006","district_id":"111201","name":"Guhang","postal_code":"23764"},{"id":"1112012007","district_id":"111201","name":"Seunaloh","postal_code":"23764"},{"id":"1112012008","district_id":"111201","name":"Lhung Asan","postal_code":"23764"},{"id":"1112012010","district_id":"111201","name":"Lhung Tarok","postal_code":"23764"},{"id":"1112012014","district_id":"111201","name":"Cot Jeurat","postal_code":"23764"},{"id":"1112012015","district_id":"111201","name":"Meudang Ara","postal_code":"23764"},{"id":"1112012016","district_id":"111201","name":"Keude Siblah","postal_code":"23764"},{"id":"1112012017","district_id":"111201","name":"Kuta Bahagia","postal_code":"23764"},{"id":"1112012018","district_id":"111201","name":"Kuta Tinggi","postal_code":"23764"},{"id":"1112012019","district_id":"111201","name":"Mata Ie","postal_code":"23764"},{"id":"1112012020","district_id":"111201","name":"Geulumpang Payong","postal_code":"23764"},{"id":"1112012021","district_id":"111201","name":"Panton Raya","postal_code":"23764"},{"id":"1112012022","district_id":"111201","name":"Alue Manggota","postal_code":"23764"},{"id":"1112012023","district_id":"111201","name":"Lam Kuta ","postal_code":"23764"},{"id":"1112012024","district_id":"111201","name":"Baharu","postal_code":"23764"},{"id":"1112012025","district_id":"111201","name":"Keude Paya","postal_code":"23764"},{"id":"1112012026","district_id":"111201","name":"Pasar Blangpidie","postal_code":"23764"},{"id":"1112012028","district_id":"111201","name":"Kuta Tuha","postal_code":"23764"},{"id":"1112012029","district_id":"111201","name":"Gudang","postal_code":"23764"},{"id":"1112012030","district_id":"111201","name":"Babah Lhueng","postal_code":"23764"}]