[{"id":"1113062001","district_id":"111306","name":"Gantung Geluni","postal_code":"24653"},{"id":"1113062002","district_id":"111306","name":"Kutebukit ","postal_code":"24653"},{"id":"1113062003","district_id":"111306","name":"Bener Baru","postal_code":"24653"},{"id":"1113062004","district_id":"111306","name":"Blang Bengkik ","postal_code":"24653"},{"id":"1113062005","district_id":"111306","name":"Kong","postal_code":"24653"},{"id":"1113062006","district_id":"111306","name":"Ume Lah","postal_code":"24653"},{"id":"1113062007","district_id":"111306","name":"Cinta Maju","postal_code":"24653"},{"id":"1113062008","district_id":"111306","name":"Porang Ayu","postal_code":"24653"},{"id":"1113062009","district_id":"111306","name":"Tetingi","postal_code":"24653"},{"id":"1113062010","district_id":"111306","name":"Anak Reje","postal_code":"24653"},{"id":"1113062011","district_id":"111306","name":"Rak Lintang","postal_code":"24653"},{"id":"1113062012","district_id":"111306","name":"Akang Siwah","postal_code":"24653"}]