[{"id":"1113022002","district_id":"111302","name":"Tampeng","postal_code":"24650"},{"id":"1113022004","district_id":"111302","name":"Bener","postal_code":"24650"},{"id":"1113022005","district_id":"111302","name":"Ulun Tanoh ","postal_code":"24650"},{"id":"1113022006","district_id":"111302","name":"Kuta Ujung","postal_code":"24650"},{"id":"1113022008","district_id":"111302","name":"Beranang","postal_code":"24650"},{"id":"1113022010","district_id":"111302","name":"Rikit Dekat","postal_code":"24650"},{"id":"1113022011","district_id":"111302","name":"Rema","postal_code":"24650"},{"id":"1113022014","district_id":"111302","name":"Rema Baru","postal_code":"24650"},{"id":"1113022015","district_id":"111302","name":"Cike","postal_code":"24650"},{"id":"1113022016","district_id":"111302","name":"Kerukunan Kota ","postal_code":"24650"},{"id":"1113022020","district_id":"111302","name":"Tampeng Musara","postal_code":"24650"},{"id":"1113022021","district_id":"111302","name":"Kong Paluh","postal_code":"24650"}]