[{"id":"1113032001","district_id":"111303","name":"Ampa Kolak","postal_code":"24651"},{"id":"1113032002","district_id":"111303","name":"Cane Toa","postal_code":"24651"},{"id":"1113032003","district_id":"111303","name":"Padang Pasir","postal_code":"24651"},{"id":"1113032005","district_id":"111303","name":"Pinang Rugub","postal_code":"24651"},{"id":"1113032006","district_id":"111303","name":"Kuning","postal_code":"24651"},{"id":"1113032008","district_id":"111303","name":"Mangang","postal_code":"24651"},{"id":"1113032011","district_id":"111303","name":"Rempelam","postal_code":"24651"},{"id":"1113032012","district_id":"111303","name":"Cane Uken","postal_code":"24651"},{"id":"1113032013","district_id":"111303","name":"Tungel","postal_code":"24651"},{"id":"1113032014","district_id":"111303","name":"Kota Rikit Gaib","postal_code":"24651"},{"id":"1113032016","district_id":"111303","name":"Lukup Baru","postal_code":"24651"},{"id":"1113032017","district_id":"111303","name":"Penomon Jaya","postal_code":"24651"},{"id":"1113032018","district_id":"111303","name":"Tungel Baru","postal_code":"24651"}]