[{"id":"1114022001","district_id":"111402","name":"Bahagia","postal_code":"23654"},{"id":"1114022002","district_id":"111402","name":"Sentosa","postal_code":"23654"},{"id":"1114022003","district_id":"111402","name":"Dayah Baro","postal_code":"23654"},{"id":"1114022004","district_id":"111402","name":"Gampong Blang","postal_code":"23654"},{"id":"1114022005","district_id":"111402","name":"Keutapang","postal_code":"23654"},{"id":"1114022006","district_id":"111402","name":"Panton Makmur","postal_code":"23654"},{"id":"1114022007","district_id":"111402","name":"Keude Krueng Sabee","postal_code":"23654"},{"id":"1114022008","district_id":"111402","name":"Kabong","postal_code":"23654"},{"id":"1114022009","district_id":"111402","name":"Padang Datar","postal_code":"23654"},{"id":"1114022010","district_id":"111402","name":"Datar Luas","postal_code":"23654"},{"id":"1114022011","district_id":"111402","name":"Ranto Panyang","postal_code":"23654"},{"id":"1114022012","district_id":"111402","name":"Buntha","postal_code":"23654"},{"id":"1114022013","district_id":"111402","name":"Panggong","postal_code":"23654"},{"id":"1114022014","district_id":"111402","name":"Curek","postal_code":"23654"},{"id":"1114022015","district_id":"111402","name":"Alue Tho","postal_code":"23654"},{"id":"1114022016","district_id":"111402","name":"Mon Mata","postal_code":"23654"},{"id":"1114022017","district_id":"111402","name":"Paya Seumantok","postal_code":"23654"}]