[{"id":"1114032001","district_id":"111403","name":"Sawang","postal_code":"23655"},{"id":"1114032002","district_id":"111403","name":"Lhok Geulumpang","postal_code":"23655"},{"id":"1114032003","district_id":"111403","name":"Padang","postal_code":"23655"},{"id":"1114032004","district_id":"111403","name":"Gunong Meunasah","postal_code":"23655"},{"id":"1114032005","district_id":"111403","name":"Sapek","postal_code":"23655"},{"id":"1114032006","district_id":"111403","name":"Pante Kuyun","postal_code":"23655"},{"id":"1114032007","district_id":"111403","name":"Glee Seubak ","postal_code":"23655"},{"id":"1114032008","district_id":"111403","name":"Gampong Baroh","postal_code":"23655"},{"id":"1114032009","district_id":"111403","name":"Lhok Timon","postal_code":"23655"},{"id":"1114032010","district_id":"111403","name":"Gampong Baro","postal_code":"23655"},{"id":"1114032011","district_id":"111403","name":"Lhok Buya","postal_code":"23655"},{"id":"1114032012","district_id":"111403","name":"Lhok Bot","postal_code":"23655"},{"id":"1114032013","district_id":"111403","name":"Paya Laot ","postal_code":"23655"}]