[{"id":"1115032001","district_id":"111503","name":"Blang Panyang ","postal_code":"23670"},{"id":"1115032002","district_id":"111503","name":"Meugat Meh","postal_code":"23670"},{"id":"1115032003","district_id":"111503","name":"Lhok Pange","postal_code":"23670"},{"id":"1115032004","district_id":"111503","name":"Blang Lango","postal_code":"23670"},{"id":"1115032005","district_id":"111503","name":"Tuwi Meuleusong","postal_code":"23670"},{"id":"1115032006","district_id":"111503","name":"Blang Geudong","postal_code":"23670"},{"id":"1115032007","district_id":"111503","name":"Blang Teungku","postal_code":"23670"},{"id":"1115032008","district_id":"111503","name":"Sawang Mane","postal_code":"23670"},{"id":"1115032009","district_id":"111503","name":"Keude Neulop","postal_code":"23670"},{"id":"1115032010","district_id":"111503","name":"Kila","postal_code":"23670"},{"id":"1115032011","district_id":"111503","name":"Kandeh","postal_code":"23670"},{"id":"1115032012","district_id":"111503","name":"Cot Gud","postal_code":"23670"},{"id":"1115032013","district_id":"111503","name":"Kabu Baroh","postal_code":"23670"},{"id":"1115032014","district_id":"111503","name":"Kabu Tunong","postal_code":"23670"},{"id":"1115032015","district_id":"111503","name":"Keude Linteung","postal_code":"23670"},{"id":"1115032016","district_id":"111503","name":"Meurandeh Suak","postal_code":"23670"},{"id":"1115032017","district_id":"111503","name":"Uteun Pulo","postal_code":"23670"},{"id":"1115032018","district_id":"111503","name":"Cot Manyang","postal_code":"23670"},{"id":"1115032019","district_id":"111503","name":"Pulo Teungoh","postal_code":"23670"},{"id":"1115032020","district_id":"111503","name":"Cot Dirui","postal_code":"23670"},{"id":"1115032021","district_id":"111503","name":"Cot Teuku Dek","postal_code":"23670"},{"id":"1115032022","district_id":"111503","name":"Sapeng","postal_code":"23670"},{"id":"1115032023","district_id":"111503","name":"Peuleukung","postal_code":"23670"},{"id":"1115032024","district_id":"111503","name":"Paya","postal_code":"23670"},{"id":"1115032025","district_id":"111503","name":"Blang Preh","postal_code":"23670"},{"id":"1115032026","district_id":"111503","name":"Blang Ara Keude","postal_code":"23670"},{"id":"1115032027","district_id":"111503","name":"Blang Ara Gampong","postal_code":"23670"},{"id":"1115032028","district_id":"111503","name":"Ie Beudoh","postal_code":"23670"},{"id":"1115032029","district_id":"111503","name":"Blang Bayu","postal_code":"23670"},{"id":"1115032030","district_id":"111503","name":"Mon Bateung","postal_code":"23670"},{"id":"1115032031","district_id":"111503","name":"Suak Peureubong","postal_code":"23670"},{"id":"1115032032","district_id":"111503","name":"Krueng Kulu","postal_code":"23670"},{"id":"1115032033","district_id":"111503","name":"Cot Punti","postal_code":"23670"},{"id":"1115032034","district_id":"111503","name":"Lhok Mesjid","postal_code":"23670"}]