[{"id":"1116042002","district_id":"111604","name":"Pekan Seruway ","postal_code":"24473"},{"id":"1116042003","district_id":"111604","name":"Binjai","postal_code":"24473"},{"id":"1116042004","district_id":"111604","name":"Pantai Balai","postal_code":"24473"},{"id":"1116042005","district_id":"111604","name":"Padang Langgis","postal_code":"24473"},{"id":"1116042006","district_id":"111604","name":"Suka Ramai Satu ","postal_code":"24473"},{"id":"1116042007","district_id":"111604","name":"Suka Ramai Dua ","postal_code":"24473"},{"id":"1116042008","district_id":"111604","name":"Perkebunan Seruway","postal_code":"24473"},{"id":"1116042009","district_id":"111604","name":"Gedung Biara","postal_code":"24473"},{"id":"1116042010","district_id":"111604","name":"Alur Alim","postal_code":"24473"},{"id":"1116042011","district_id":"111604","name":"Tualang","postal_code":"24473"},{"id":"1116042012","district_id":"111604","name":"Matang Sentang","postal_code":"24473"},{"id":"1116042013","district_id":"111604","name":"Air Masin","postal_code":"24473"},{"id":"1116042014","district_id":"111604","name":"Sidodadi","postal_code":"24473"},{"id":"1116042015","district_id":"111604","name":"Perk. Gedung Biara ","postal_code":"24473"},{"id":"1116042016","district_id":"111604","name":"Muka Sungai Kuruk ","postal_code":"24473"},{"id":"1116042017","district_id":"111604","name":"Paya Udang","postal_code":"24473"},{"id":"1116042018","district_id":"111604","name":"Gelung","postal_code":"24473"},{"id":"1116042019","district_id":"111604","name":"Kampung Baru","postal_code":"24473"},{"id":"1116042020","district_id":"111604","name":"Kuala Pusung Kapal ","postal_code":"24473"},{"id":"1116042021","district_id":"111604","name":"Sungai Kuruk I ","postal_code":"24473"},{"id":"1116042022","district_id":"111604","name":"Sungai Kuruk II ","postal_code":"24473"},{"id":"1116042023","district_id":"111604","name":"Sungai Kuruk III ","postal_code":"24473"},{"id":"1116042024","district_id":"111604","name":"Tangsi Lama","postal_code":"24473"},{"id":"1116042025","district_id":"111604","name":"Lubuk Damar","postal_code":"24473"}]