[{"id":"1117082001","district_id":"111708","name":"Bandar Jaya ","postal_code":"24583"},{"id":"1117082002","district_id":"111708","name":"Jongok Meluem","postal_code":"24583"},{"id":"1117082003","district_id":"111708","name":"Suku Bener","postal_code":"24583"},{"id":"1117082004","district_id":"111708","name":"Bener Lukup II","postal_code":"24583"},{"id":"1117082005","district_id":"111708","name":"Gunung Musara","postal_code":"24583"},{"id":"1117082006","district_id":"111708","name":"Bener Kelipah Selatan","postal_code":"24583"},{"id":"1117082007","district_id":"111708","name":"Bener Bintang Musara ","postal_code":"24583"},{"id":"1117082008","district_id":"111708","name":"Kala Tenang","postal_code":"24583"},{"id":"1117082009","district_id":"111708","name":"Bener Kelipah Utara","postal_code":"24583"},{"id":"1117082010","district_id":"111708","name":"Lot Bener Kelipah","postal_code":"24583"},{"id":"1117082011","district_id":"111708","name":"Nosar Tawar Jaya","postal_code":"24583"},{"id":"1117082012","district_id":"111708","name":"Nosar Baru","postal_code":"24583"}]