[{"id":"1174052001","district_id":"117405","name":"Timbang Langsa","postal_code":"24415"},{"id":"1174052002","district_id":"117405","name":"Alue Dua","postal_code":"24415"},{"id":"1174052003","district_id":"117405","name":"Birem Puntong","postal_code":"24415"},{"id":"1174052004","district_id":"117405","name":"Paya Bujok Seuleumak","postal_code":"24415"},{"id":"1174052005","district_id":"117405","name":"Pondok Kelapa","postal_code":"24415"},{"id":"1174052006","district_id":"117405","name":"Karang Anyar","postal_code":"24415"},{"id":"1174052007","district_id":"117405","name":"Paya Bujok Tunong","postal_code":"24415"},{"id":"1174052008","district_id":"117405","name":"Geudubang Jawa","postal_code":"24415"},{"id":"1174052009","district_id":"117405","name":"Geudubang Aceh","postal_code":"24415"},{"id":"1174052010","district_id":"117405","name":"Alue Dua Bakaran Batee","postal_code":"24415"},{"id":"1174052011","district_id":"117405","name":"Lengkong","postal_code":"24415"},{"id":"1174052012","district_id":"117405","name":"Sukajadi Makmur","postal_code":"24415"}]