[{"id":"1203051001","district_id":"120305","name":"Pasar Sipagimbar","postal_code":"22759"},{"id":"1203051080","district_id":"120305","name":"Aek Simotung","postal_code":"22759"},{"id":"1203052018","district_id":"120305","name":"Simangambat","postal_code":"22759"},{"id":"1203052069","district_id":"120305","name":"Sidapdap Simanosor","postal_code":"22759"},{"id":"1203052070","district_id":"120305","name":"Saut Banua Simanosor","postal_code":"22759"},{"id":"1203052071","district_id":"120305","name":"Damparan Haunatas","postal_code":"22759"},{"id":"1203052072","district_id":"120305","name":"Somba Debata Purba","postal_code":"22759"},{"id":"1203052073","district_id":"120305","name":"Padang Mandailing Garugur","postal_code":"22759"},{"id":"1203052074","district_id":"120305","name":"Ulu Mamis Situnggaling","postal_code":"22759"},{"id":"1203052075","district_id":"120305","name":"Parau Sorat Sitabo Tabo","postal_code":"22759"},{"id":"1203052076","district_id":"120305","name":"Pintu Padang Mandalasena","postal_code":"22759"},{"id":"1203052077","district_id":"120305","name":"Sunge Sigiring Giring","postal_code":"22759"},{"id":"1203052078","district_id":"120305","name":"Silangkitang Tambiski","postal_code":"22759"},{"id":"1203052079","district_id":"120305","name":"Batang Parsuluman","postal_code":"22759"}]