[{"id":"1204212001","district_id":"120421","name":"Hiligodu Botomuzoi","postal_code":"22815"},{"id":"1204212002","district_id":"120421","name":"Lasara Botomuzoi","postal_code":"22815"},{"id":"1204212003","district_id":"120421","name":"Hiliwa'ele I","postal_code":"22815"},{"id":"1204212004","district_id":"120421","name":"Hilimbowo Botomuzoi","postal_code":"22815"},{"id":"1204212005","district_id":"120421","name":"Simanaere Botomuzoi","postal_code":"22815"},{"id":"1204212006","district_id":"120421","name":"Hiliwa'ele II","postal_code":"22815"},{"id":"1204212007","district_id":"120421","name":"Tuhegafoa I","postal_code":"22815"},{"id":"1204212008","district_id":"120421","name":"Balohili Botomuzoi","postal_code":"22815"},{"id":"1204212009","district_id":"120421","name":"Hilihambawa Botomuzoi","postal_code":"22815"},{"id":"1204212010","district_id":"120421","name":"Fulolo Botomuzoi","postal_code":"22815"},{"id":"1204212011","district_id":"120421","name":"Loloana'a","postal_code":"22815"},{"id":"1204212012","district_id":"120421","name":"Ononamolo Talafu","postal_code":"22815"},{"id":"1204212013","district_id":"120421","name":"Sisobahili Dola","postal_code":"22815"},{"id":"1204212014","district_id":"120421","name":"Banua Sibohou Botomuzoi","postal_code":"22815"},{"id":"1204212015","district_id":"120421","name":"Mohili Berua Botomuzoi","postal_code":"22815"},{"id":"1204212016","district_id":"120421","name":"Tetehosi Botomuzoi","postal_code":"22815"},{"id":"1204212017","district_id":"120421","name":"Talafu","postal_code":"22815"},{"id":"1204212018","district_id":"120421","name":"Ola Nori","postal_code":"22815"}]