[{"id":"1204272001","district_id":"120427","name":"Orahili","postal_code":"22861"},{"id":"1204272002","district_id":"120427","name":"Hiliweto Gela","postal_code":"22861"},{"id":"1204272003","district_id":"120427","name":"Lawa-lawa Luo","postal_code":"22861"},{"id":"1204272004","district_id":"120427","name":"Hilimbowo","postal_code":"22861"},{"id":"1204272005","district_id":"120427","name":"Hilibadalu","postal_code":"22861"},{"id":"1204272006","district_id":"120427","name":"Fatodano","postal_code":"22861"},{"id":"1204272007","district_id":"120427","name":"Fahandrona","postal_code":"22861"},{"id":"1204272008","district_id":"120427","name":"Onodalinga","postal_code":"22861"},{"id":"1204272009","district_id":"120427","name":"Holi","postal_code":"22861"},{"id":"1204272010","district_id":"120427","name":"Sisobahili Ulugawo","postal_code":"22861"},{"id":"1204272011","district_id":"120427","name":"Sifaoroasi Ulugawo","postal_code":"22861"},{"id":"1204272012","district_id":"120427","name":"Mohili","postal_code":"22861"},{"id":"1204272013","district_id":"120427","name":"Hiligafoa","postal_code":"22861"},{"id":"1204272014","district_id":"120427","name":"Sisarahili Soroma'asi","postal_code":"22861"}]