[{"id":"1204062006","district_id":"120406","name":"Hiliotalua","postal_code":"22871"},{"id":"1204062008","district_id":"120406","name":"Akhelauwe","postal_code":"22871"},{"id":"1204062016","district_id":"120406","name":"Hilisebua","postal_code":"22871"},{"id":"1204062017","district_id":"120406","name":"Somi","postal_code":"22871"},{"id":"1204062018","district_id":"120406","name":"Sirete","postal_code":"22871"},{"id":"1204062019","district_id":"120406","name":"Hiliweto Gido","postal_code":"22871"},{"id":"1204062020","district_id":"120406","name":"Loloana'a Gido","postal_code":"22871"},{"id":"1204062022","district_id":"120406","name":"Sisobahili","postal_code":"22871"},{"id":"1204062023","district_id":"120406","name":"Lahemo","postal_code":"22871"},{"id":"1204062024","district_id":"120406","name":"Ladea","postal_code":"22871"},{"id":"1204062027","district_id":"120406","name":"Umbu","postal_code":"22871"},{"id":"1204062028","district_id":"120406","name":"Soewe","postal_code":"22871"},{"id":"1204062029","district_id":"120406","name":"Lolozasai","postal_code":"22871"},{"id":"1204062030","district_id":"120406","name":"Lasara Idanoi","postal_code":"22871"},{"id":"1204062050","district_id":"120406","name":"Lasela","postal_code":"22871"},{"id":"1204062051","district_id":"120406","name":"Ladea Orahua","postal_code":"22871"},{"id":"1204062052","district_id":"120406","name":"Tulumbaho Salo'o","postal_code":"22871"},{"id":"1204062053","district_id":"120406","name":"Nifalo'olauru","postal_code":"22871"},{"id":"1204062054","district_id":"120406","name":"Hilizoi","postal_code":"22871"},{"id":"1204062055","district_id":"120406","name":"Somi Botogo'o","postal_code":"22871"},{"id":"1204062056","district_id":"120406","name":"Olindrawa Sisarahili","postal_code":"22871"}]