[{"id":"1205081001","district_id":"120508","name":"Bingai","postal_code":"20851"},{"id":"1205082002","district_id":"120508","name":"Gohor Lama","postal_code":"20851"},{"id":"1205082003","district_id":"120508","name":"Stabat Lama","postal_code":"20851"},{"id":"1205082004","district_id":"120508","name":"Besilam Bukit Lembasa","postal_code":"20851"},{"id":"1205082005","district_id":"120508","name":"Kebun Balok","postal_code":"20851"},{"id":"1205082006","district_id":"120508","name":"Bukit Melintang","postal_code":"20851"},{"id":"1205082007","district_id":"120508","name":"Gergas","postal_code":"20851"},{"id":"1205082008","district_id":"120508","name":"Stabat Lama Barat","postal_code":"20851"},{"id":"1205082009","district_id":"120508","name":"Sumber Mulyo","postal_code":"20851"},{"id":"1205082010","district_id":"120508","name":"Pertumbukan","postal_code":"20851"},{"id":"1205082011","district_id":"120508","name":"Paya Tusam","postal_code":"20851"},{"id":"1205082012","district_id":"120508","name":"Mekar Jaya","postal_code":"20851"},{"id":"1205082013","district_id":"120508","name":"Jentera Stabat","postal_code":"20851"},{"id":"1205082014","district_id":"120508","name":"Stungkit","postal_code":"20851"}]