[{"id":"1205041005","district_id":"120504","name":"Namu Ukur Selatan","postal_code":"20771"},{"id":"1205042001","district_id":"120504","name":"Telagah","postal_code":"20771"},{"id":"1205042002","district_id":"120504","name":"Rumah Galuh","postal_code":"20771"},{"id":"1205042003","district_id":"120504","name":"Simpang Kuta Buluh","postal_code":"20771"},{"id":"1205042004","district_id":"120504","name":"Gunung Ambat","postal_code":"20771"},{"id":"1205042006","district_id":"120504","name":"Belinteng","postal_code":"20771"},{"id":"1205042007","district_id":"120504","name":"Namu Ukur Utara","postal_code":"20771"},{"id":"1205042008","district_id":"120504","name":"Pasar VI Kwala Mencirim","postal_code":"20771"},{"id":"1205042009","district_id":"120504","name":"Emplasmen Kwala Mencirim","postal_code":"20771"},{"id":"1205042010","district_id":"120504","name":"Purwobinangun","postal_code":"20771"},{"id":"1205042011","district_id":"120504","name":"Pasar IV.Namo Terasi","postal_code":"20771"},{"id":"1205042012","district_id":"120504","name":"Pasar VIII.Namo Terasi","postal_code":"20771"},{"id":"1205042013","district_id":"120504","name":"Durian Lingga","postal_code":"20771"},{"id":"1205042014","district_id":"120504","name":"Pekan Sawah","postal_code":"20771"},{"id":"1205042015","district_id":"120504","name":"Tanjung Gunung","postal_code":"20771"},{"id":"1205042016","district_id":"120504","name":"Mekar Jaya","postal_code":"20771"}]