[{"id":"1206062001","district_id":"120606","name":"Nageri","postal_code":"22161"},{"id":"1206062002","district_id":"120606","name":"Munte ","postal_code":"22161"},{"id":"1206062003","district_id":"120606","name":"Kineppen","postal_code":"22161"},{"id":"1206062004","district_id":"120606","name":"Bandar Meriah","postal_code":"22161"},{"id":"1206062005","district_id":"120606","name":"Barung Kersap","postal_code":"22161"},{"id":"1206062006","district_id":"120606","name":"Kutambaru","postal_code":"22161"},{"id":"1206062007","district_id":"120606","name":"Buluhnaman ","postal_code":"22161"},{"id":"1206062008","district_id":"120606","name":"Singgamanik","postal_code":"22161"},{"id":"1206062009","district_id":"120606","name":"Kuta Gerat ","postal_code":"22161"},{"id":"1206062010","district_id":"120606","name":"Pertumbungen","postal_code":"22161"},{"id":"1206062011","district_id":"120606","name":"Sarimunte","postal_code":"22161"},{"id":"1206062012","district_id":"120606","name":"Kaban Tua ","postal_code":"22161"},{"id":"1206062013","district_id":"120606","name":"Gunung Manumpak","postal_code":"22161"},{"id":"1206062014","district_id":"120606","name":"Tanjung Beringin","postal_code":"22161"},{"id":"1206062015","district_id":"120606","name":"Kuta Suah ","postal_code":"22161"},{"id":"1206062016","district_id":"120606","name":"Sarinembah","postal_code":"22161"},{"id":"1206062017","district_id":"120606","name":"Selakkar","postal_code":"22161"},{"id":"1206062018","district_id":"120606","name":"Parimbalang","postal_code":"22161"},{"id":"1206062019","district_id":"120606","name":"Gunung Saribu","postal_code":"22161"},{"id":"1206062020","district_id":"120606","name":"Sukarame","postal_code":"22161"},{"id":"1206062021","district_id":"120606","name":"Gurubenua","postal_code":"22161"},{"id":"1206062022","district_id":"120606","name":"Biaknampe ","postal_code":"22161"}]