[{"id":"1206172001","district_id":"120617","name":"Sukatendel","postal_code":"22156"},{"id":"1206172002","district_id":"120617","name":"Mardingding","postal_code":"22156"},{"id":"1206172003","district_id":"120617","name":"Kutagaluh","postal_code":"22156"},{"id":"1206172004","district_id":"120617","name":"Kutambaru","postal_code":"22156"},{"id":"1206172005","district_id":"120617","name":"Jandimeriah","postal_code":"22156"},{"id":"1206172006","district_id":"120617","name":"Tiganderket","postal_code":"22156"},{"id":"1206172007","district_id":"120617","name":"Tanjung Pulo","postal_code":"22156"},{"id":"1206172008","district_id":"120617","name":"Tanjung Merawa","postal_code":"22156"},{"id":"1206172009","district_id":"120617","name":"Perbaji","postal_code":"22156"},{"id":"1206172010","district_id":"120617","name":"Temburun","postal_code":"22156"},{"id":"1206172011","district_id":"120617","name":"Kutakepar","postal_code":"22156"},{"id":"1206172012","district_id":"120617","name":"Penampen","postal_code":"22156"},{"id":"1206172013","district_id":"120617","name":"Tanjung Mbelang","postal_code":"22156"},{"id":"1206172014","district_id":"120617","name":"Narigunung I","postal_code":"22156"},{"id":"1206172015","district_id":"120617","name":"Narigunung II","postal_code":"22156"},{"id":"1206172016","district_id":"120617","name":"Gunung Merlawan","postal_code":"22156"},{"id":"1206172017","district_id":"120617","name":"Susuk","postal_code":"22156"}]