[{"id":"1206132001","district_id":"120613","name":"Negeri Jahe","postal_code":"22155"},{"id":"1206132002","district_id":"120613","name":"Kutabuluh Gugung","postal_code":"22155"},{"id":"1206132003","district_id":"120613","name":"Siabang-abang","postal_code":"22155"},{"id":"1206132004","district_id":"120613","name":"Lau Buluh","postal_code":"22155"},{"id":"1206132005","district_id":"120613","name":"Bintang Meriah","postal_code":"22155"},{"id":"1206132006","district_id":"120613","name":"Jinabun","postal_code":"22155"},{"id":"1206132007","district_id":"120613","name":"Kuta Male","postal_code":"22155"},{"id":"1206132008","district_id":"120613","name":"Ujung Deleng","postal_code":"22155"},{"id":"1206132009","district_id":"120613","name":"Gunung Meriah","postal_code":"22155"},{"id":"1206132010","district_id":"120613","name":"Buah Raya","postal_code":"22155"},{"id":"1206132011","district_id":"120613","name":"Tanjung Merahe","postal_code":"22155"},{"id":"1206132012","district_id":"120613","name":"Rih Tengah","postal_code":"22155"},{"id":"1206132013","district_id":"120613","name":"Kutabuluh","postal_code":"22155"},{"id":"1206132014","district_id":"120613","name":"Liang Merdeka","postal_code":"22155"},{"id":"1206132015","district_id":"120613","name":"Pola Tebu","postal_code":"22155"},{"id":"1206132016","district_id":"120613","name":"Mburidi","postal_code":"22155"}]