[{"id":"1206092001","district_id":"120609","name":"Martelu","postal_code":"22164"},{"id":"1206092002","district_id":"120609","name":"Mbal-Mbal Petarum","postal_code":"22164"},{"id":"1206092003","district_id":"120609","name":"Lau Peranggunen","postal_code":"22164"},{"id":"1206092004","district_id":"120609","name":"Tanjung Gunung","postal_code":"22164"},{"id":"1206092005","district_id":"120609","name":"Lau Baleng","postal_code":"22164"},{"id":"1206092006","district_id":"120609","name":"Durin Rugun","postal_code":"22164"},{"id":"1206092007","district_id":"120609","name":"Perbulan","postal_code":"22164"},{"id":"1206092008","district_id":"120609","name":"Kutambelin","postal_code":"22164"},{"id":"1206092009","district_id":"120609","name":"Lingga Muda","postal_code":"22164"},{"id":"1206092010","district_id":"120609","name":"Kinangkong","postal_code":"22164"},{"id":"1206092011","district_id":"120609","name":"Rambah Tampu","postal_code":"22164"},{"id":"1206092012","district_id":"120609","name":"Lau Peradep","postal_code":"22164"},{"id":"1206092013","district_id":"120609","name":"Buluh Pancur","postal_code":"22164"},{"id":"1206092014","district_id":"120609","name":"Batu Rongkam","postal_code":"22164"},{"id":"1206092015","district_id":"120609","name":"Pintu Angin","postal_code":"22164"}]