[{"id":"1207042001","district_id":"120704","name":"Suka Makmur","postal_code":"20354"},{"id":"1207042002","district_id":"120704","name":"Namo Mirik","postal_code":"20354"},{"id":"1207042003","district_id":"120704","name":"Suka Dame","postal_code":"20354"},{"id":"1207042004","district_id":"120704","name":"Pasar X","postal_code":"20354"},{"id":"1207042005","district_id":"120704","name":"Perpanden","postal_code":"20354"},{"id":"1207042006","district_id":"120704","name":"Kutalimbaru","postal_code":"20354"},{"id":"1207042007","district_id":"120704","name":"Sampe Cita","postal_code":"20354"},{"id":"1207042008","district_id":"120704","name":"Suka Rende","postal_code":"20354"},{"id":"1207042009","district_id":"120704","name":"Kwala Lau Bicik","postal_code":"20354"},{"id":"1207042010","district_id":"120704","name":"Lau Bekeri","postal_code":"20354"},{"id":"1207042011","district_id":"120704","name":"Silebo-Lebo","postal_code":"20354"},{"id":"1207042012","district_id":"120704","name":"Sawit Rejo","postal_code":"20354"},{"id":"1207042013","district_id":"120704","name":"Namo Rube Julu","postal_code":"20354"},{"id":"1207042014","district_id":"120704","name":"Sei Mencirim","postal_code":"20354"}]