[{"id":"1207082001","district_id":"120708","name":"Talun Kenas ","postal_code":"20363"},{"id":"1207082002","district_id":"120708","name":"Gunung Rintih ","postal_code":"20363"},{"id":"1207082003","district_id":"120708","name":"Sumbul","postal_code":"20363"},{"id":"1207082004","district_id":"120708","name":"Tandukan Raga ","postal_code":"20363"},{"id":"1207082005","district_id":"120708","name":"Limau Mungkur","postal_code":"20363"},{"id":"1207082006","district_id":"120708","name":"Negara Beringin\/Bringin","postal_code":"20363"},{"id":"1207082007","district_id":"120708","name":"Lau Barus Baru","postal_code":"20363"},{"id":"1207082008","district_id":"120708","name":"Juma\/Jumma Tombak","postal_code":"20363"},{"id":"1207082009","district_id":"120708","name":"Siguci","postal_code":"20363"},{"id":"1207082010","district_id":"120708","name":"Kuta Jurung","postal_code":"20363"},{"id":"1207082011","district_id":"120708","name":"Tala Peta","postal_code":"20363"},{"id":"1207082012","district_id":"120708","name":"Lau Rakit","postal_code":"20363"},{"id":"1207082013","district_id":"120708","name":"Penungkiren","postal_code":"20363"},{"id":"1207082014","district_id":"120708","name":"Rambai","postal_code":"20363"},{"id":"1207082015","district_id":"120708","name":"Lau Rempak ","postal_code":"20363"}]