[{"id":"1207242001","district_id":"120724","name":"Hamparan Perak","postal_code":"20374"},{"id":"1207242002","district_id":"120724","name":"Sei\/Sungai Baharu","postal_code":"20374"},{"id":"1207242003","district_id":"120724","name":"Klumpang Kebun ","postal_code":"20374"},{"id":"1207242004","district_id":"120724","name":"Klumpang Kampung","postal_code":"20374"},{"id":"1207242005","district_id":"120724","name":"Klambir Lima Kampung","postal_code":"20374"},{"id":"1207242006","district_id":"120724","name":"Tandem Hulu II ","postal_code":"20374"},{"id":"1207242007","district_id":"120724","name":"Klambir","postal_code":"20374"},{"id":"1207242008","district_id":"120724","name":"Selemak","postal_code":"20374"},{"id":"1207242009","district_id":"120724","name":"Kelambir Lima Kebun ","postal_code":"20374"},{"id":"1207242010","district_id":"120724","name":"Sialang Muda","postal_code":"20374"},{"id":"1207242011","district_id":"120724","name":"Paya Bakung","postal_code":"20374"},{"id":"1207242012","district_id":"120724","name":"Tandem Hulu I ","postal_code":"20374"},{"id":"1207242013","district_id":"120724","name":"Tandem Hilir I ","postal_code":"20374"},{"id":"1207242014","district_id":"120724","name":"Tandem Hilir II ","postal_code":"20374"},{"id":"1207242015","district_id":"120724","name":"Kota Datar","postal_code":"20374"},{"id":"1207242016","district_id":"120724","name":"Bulu Cina","postal_code":"20374"},{"id":"1207242017","district_id":"120724","name":"Kota Pantang ","postal_code":"20374"},{"id":"1207242018","district_id":"120724","name":"Paluh Manan","postal_code":"20374"},{"id":"1207242019","district_id":"120724","name":"Lama ","postal_code":"20374"},{"id":"1207242020","district_id":"120724","name":"Paluh Kurau","postal_code":"20374"}]