[{"id":"1208301001","district_id":"120830","name":"Ujung Padang","postal_code":"21187"},{"id":"1208302002","district_id":"120830","name":"Huta Parik","postal_code":"21187"},{"id":"1208302003","district_id":"120830","name":"Dusun Ulu","postal_code":"21187"},{"id":"1208302004","district_id":"120830","name":"Tinjoan","postal_code":"21187"},{"id":"1208302005","district_id":"120830","name":"Sayur Matinggi","postal_code":"21187"},{"id":"1208302006","district_id":"120830","name":"Taratak Nagodang","postal_code":"21187"},{"id":"1208302007","district_id":"120830","name":"Sordang Bolon","postal_code":"21187"},{"id":"1208302008","district_id":"120830","name":"Teluk Lapian ","postal_code":"21187"},{"id":"1208302009","district_id":"120830","name":"Tanjung Rapuan","postal_code":"21187"},{"id":"1208302010","district_id":"120830","name":"Pagar Bosi","postal_code":"21187"},{"id":"1208302011","district_id":"120830","name":"Bangun Sordang","postal_code":"21187"},{"id":"1208302012","district_id":"120830","name":"Aek Gerger Sidodadi","postal_code":"21187"},{"id":"1208302013","district_id":"120830","name":"Pulo Pitu Marihat","postal_code":"21187"},{"id":"1208302014","district_id":"120830","name":"Siringan Ringan","postal_code":"21187"},{"id":"1208302015","district_id":"120830","name":"Riah Na Poso","postal_code":"21187"},{"id":"1208302016","district_id":"120830","name":"Sei Merbau","postal_code":"21187"},{"id":"1208302017","district_id":"120830","name":"Kampung Lalang","postal_code":"21187"},{"id":"1208302018","district_id":"120830","name":"Sordang Baru","postal_code":"21187"},{"id":"1208302019","district_id":"120830","name":"Banjar Hulu","postal_code":"21187"},{"id":"1208302020","district_id":"120830","name":"Rawa Masin","postal_code":"21187"}]