[{"id":"1208262001","district_id":"120826","name":"Cingkes","postal_code":"21168"},{"id":"1208262002","district_id":"120826","name":"Panribuan","postal_code":"21168"},{"id":"1208262003","district_id":"120826","name":"Saran Padang","postal_code":"21168"},{"id":"1208262004","district_id":"120826","name":"Mariah Dolok","postal_code":"21168"},{"id":"1208262005","district_id":"120826","name":"Marubun Lokkung","postal_code":"21168"},{"id":"1208262006","district_id":"120826","name":"Dolok Mariah","postal_code":"21168"},{"id":"1208262007","district_id":"120826","name":"Bawang","postal_code":"21168"},{"id":"1208262008","district_id":"120826","name":"Huta Saing","postal_code":"21168"},{"id":"1208262009","district_id":"120826","name":"Togur","postal_code":"21168"},{"id":"1208262010","district_id":"120826","name":"Perasmian","postal_code":"21168"},{"id":"1208262011","district_id":"120826","name":"Tanjung Purba","postal_code":"21168"},{"id":"1208262012","district_id":"120826","name":"Silau Marawan","postal_code":"21168"},{"id":"1208262013","district_id":"120826","name":"Bosi Sinombah","postal_code":"21168"},{"id":"1208262014","district_id":"120826","name":"Ujung Bawang","postal_code":"21168"}]