[{"id":"1208022001","district_id":"120802","name":"Dolog Malela","postal_code":"21175"},{"id":"1208022002","district_id":"120802","name":"Senio","postal_code":"21175"},{"id":"1208022003","district_id":"120802","name":"Pamatang Asilom","postal_code":"21175"},{"id":"1208022004","district_id":"120802","name":"Serapuh","postal_code":"21175"},{"id":"1208022005","district_id":"120802","name":"Margo Mulyo","postal_code":"21175"},{"id":"1208022006","district_id":"120802","name":"Silulu","postal_code":"21175"},{"id":"1208022007","district_id":"120802","name":"Silau Malela","postal_code":"21175"},{"id":"1208022008","district_id":"120802","name":"Bandar Siantar","postal_code":"21175"},{"id":"1208022009","district_id":"120802","name":"Pamatang Gajing","postal_code":"21175"},{"id":"1208022010","district_id":"120802","name":"Bangun","postal_code":"21175"},{"id":"1208022011","district_id":"120802","name":"Malela","postal_code":"21175"},{"id":"1208022012","district_id":"120802","name":"Bukit Maraja","postal_code":"21175"},{"id":"1208022013","district_id":"120802","name":"Pamatang Sahkuda","postal_code":"21175"},{"id":"1208022014","district_id":"120802","name":"Marihat Bukit","postal_code":"21175"},{"id":"1208022015","district_id":"120802","name":"Sahkuda Bayu","postal_code":"21175"},{"id":"1208022016","district_id":"120802","name":"Lingga","postal_code":"21175"}]