[{"id":"1208041011","district_id":"120804","name":"Panei Tongah","postal_code":"21161"},{"id":"1208042001","district_id":"120804","name":"Janggir Leto","postal_code":"21161"},{"id":"1208042002","district_id":"120804","name":"Simpang Pane Raya","postal_code":"21161"},{"id":"1208042003","district_id":"120804","name":"Siborna","postal_code":"21161"},{"id":"1208042004","district_id":"120804","name":"Sipoldas","postal_code":"21161"},{"id":"1208042005","district_id":"120804","name":"Bangun Rakyat","postal_code":"21161"},{"id":"1208042006","district_id":"120804","name":"Sigodang","postal_code":"21161"},{"id":"1208042007","district_id":"120804","name":"Sigodang Barat","postal_code":"21161"},{"id":"1208042008","district_id":"120804","name":"Bah Bolon Tonga ","postal_code":"21161"},{"id":"1208042009","district_id":"120804","name":"Mekar Sari Raya","postal_code":"21161"},{"id":"1208042010","district_id":"120804","name":"Simantin Pane Dame","postal_code":"21161"},{"id":"1208042012","district_id":"120804","name":"Simpang Raya Dasma","postal_code":"21161"},{"id":"1208042013","district_id":"120804","name":"Bangun Das Mariah","postal_code":"21161"},{"id":"1208042014","district_id":"120804","name":"Bangun Sitolu Bah","postal_code":"21161"},{"id":"1208042015","district_id":"120804","name":"Bah Liran Siborna","postal_code":"21161"},{"id":"1208042016","district_id":"120804","name":"Nauli Baru","postal_code":"21161"},{"id":"1208042017","district_id":"120804","name":"Rawang Pardomuan Nauli","postal_code":"21161"}]