[{"id":"1212202001","district_id":"121220","name":"Narumonda I","postal_code":"22384"},{"id":"1212202002","district_id":"121220","name":"Narumonda II","postal_code":"22384"},{"id":"1212202003","district_id":"121220","name":"Narumonda III","postal_code":"22384"},{"id":"1212202004","district_id":"121220","name":"Narumonda IV","postal_code":"22384"},{"id":"1212202005","district_id":"121220","name":"Narumonda V","postal_code":"22384"},{"id":"1212202006","district_id":"121220","name":"Narumonda VI","postal_code":"22384"},{"id":"1212202007","district_id":"121220","name":"Narumonda VII","postal_code":"22384"},{"id":"1212202008","district_id":"121220","name":"Narumonda VIII","postal_code":"22384"},{"id":"1212202009","district_id":"121220","name":"Siantar Sitio Tio ","postal_code":"22384"},{"id":"1212202010","district_id":"121220","name":"Siantar Dangsina","postal_code":"22384"},{"id":"1212202011","district_id":"121220","name":"Siantar Tonga Tonga I","postal_code":"22384"},{"id":"1212202012","district_id":"121220","name":"Siantar Tonga Tonga II","postal_code":"22384"},{"id":"1212202013","district_id":"121220","name":"Siantar Sigordang","postal_code":"22384"},{"id":"1212202014","district_id":"121220","name":"Siantar Tonga-Tonga III","postal_code":"22384"}]