[{"id":"1213192001","district_id":"121319","name":"Bangun Sejati","postal_code":"22978"},{"id":"1213192002","district_id":"121319","name":"Hutarimbaru","postal_code":"22978"},{"id":"1213192003","district_id":"121319","name":"Pasar Huta Bargot","postal_code":"22978"},{"id":"1213192004","district_id":"121319","name":"Huta Bargot Lombang","postal_code":"22978"},{"id":"1213192005","district_id":"121319","name":"Huta Bargot Dolok","postal_code":"22978"},{"id":"1213192006","district_id":"121319","name":"Huta Bargot Setia","postal_code":"22978"},{"id":"1213192007","district_id":"121319","name":"Huta Bargot Nauli","postal_code":"22978"},{"id":"1213192008","district_id":"121319","name":"Mondan","postal_code":"22978"},{"id":"1213192009","district_id":"121319","name":"Sayur Maincat","postal_code":"22978"},{"id":"1213192010","district_id":"121319","name":"Kumpulan Setia","postal_code":"22978"},{"id":"1213192011","district_id":"121319","name":"Simalagi","postal_code":"22978"},{"id":"1213192012","district_id":"121319","name":"Saba Padang","postal_code":"22978"},{"id":"1213192013","district_id":"121319","name":"Binanga","postal_code":"22979"},{"id":"1213192014","district_id":"121319","name":"Huta Naingkan","postal_code":"22979"}]