[{"id":"1213011011","district_id":"121301","name":"Kota Siantar","postal_code":"22919"},{"id":"1213011014","district_id":"121301","name":"Kayu Jati","postal_code":"22919"},{"id":"1213011022","district_id":"121301","name":"Pasar Hilir","postal_code":"22916"},{"id":"1213011023","district_id":"121301","name":"Pidoli Dolok","postal_code":"22915"},{"id":"1213011031","district_id":"121301","name":"Panyabungan II","postal_code":"22913"},{"id":"1213011032","district_id":"121301","name":"Panyabungan III","postal_code":"22911"},{"id":"1213011033","district_id":"121301","name":"Panyabungan I","postal_code":"22912"},{"id":"1213011035","district_id":"121301","name":"Sipolu-Polu","postal_code":"22912"},{"id":"1213011036","district_id":"121301","name":"Dalan Lidang","postal_code":"22912"},{"id":"1213012001","district_id":"121301","name":"Adian Jior","postal_code":"22912"},{"id":"1213012002","district_id":"121301","name":"Aek Banir","postal_code":"22912"},{"id":"1213012003","district_id":"121301","name":"Aek Mata","postal_code":"22912"},{"id":"1213012004","district_id":"121301","name":"Darussalam","postal_code":"22912"},{"id":"1213012005","district_id":"121301","name":"Gunung Barani","postal_code":"22912"},{"id":"1213012006","district_id":"121301","name":"Gunung Manaon","postal_code":"22912"},{"id":"1213012007","district_id":"121301","name":"Gunung Tua Jae","postal_code":"22918"},{"id":"1213012008","district_id":"121301","name":"Gunung Tua Julu","postal_code":"22918"},{"id":"1213012009","district_id":"121301","name":"Gunung Tua Tonga","postal_code":"22918"},{"id":"1213012010","district_id":"121301","name":"Huta Lombang Lubis","postal_code":"22912"},{"id":"1213012012","district_id":"121301","name":"Ipar Bondar","postal_code":"22918"},{"id":"1213012013","district_id":"121301","name":"Kampung Padang","postal_code":"22912"},{"id":"1213012015","district_id":"121301","name":"Lumban Pasir","postal_code":"22912"},{"id":"1213012016","district_id":"121301","name":"Manyabar","postal_code":"22912"},{"id":"1213012017","district_id":"121301","name":"Pagaran Tonga","postal_code":"22912"},{"id":"1213012018","district_id":"121301","name":"Panyabungan Jae","postal_code":"22917"},{"id":"1213012019","district_id":"121301","name":"Panyabungan Julu","postal_code":"22916"},{"id":"1213012020","district_id":"121301","name":"Panyabungan Tonga","postal_code":"22916"},{"id":"1213012021","district_id":"121301","name":"Perbangunan","postal_code":"22912"},{"id":"1213012024","district_id":"121301","name":"Pidoli Lombang","postal_code":"22915"},{"id":"1213012025","district_id":"121301","name":"Salam Bue","postal_code":"22912"},{"id":"1213012026","district_id":"121301","name":"Sarak Matua","postal_code":"22912"},{"id":"1213012027","district_id":"121301","name":"Sigalapang Julu","postal_code":"22912"},{"id":"1213012028","district_id":"121301","name":"Siobon Julu","postal_code":"22912"},{"id":"1213012029","district_id":"121301","name":"Sipapaga","postal_code":"22912"},{"id":"1213012030","district_id":"121301","name":"Sopobatu","postal_code":"22912"},{"id":"1213012037","district_id":"121301","name":"Siobon Jae","postal_code":"22912"},{"id":"1213012038","district_id":"121301","name":"Panggorengan","postal_code":"22912"},{"id":"1213012039","district_id":"121301","name":"Saba Jambu","postal_code":"22912"},{"id":"1213012040","district_id":"121301","name":"Manyabar Jae","postal_code":"22912"}]