[{"id":"1213101010","district_id":"121310","name":"Laru Lombang","postal_code":"22996"},{"id":"1213102001","district_id":"121310","name":"Angin Barat","postal_code":"22996"},{"id":"1213102006","district_id":"121310","name":"Huta Tonga AB","postal_code":"22996"},{"id":"1213102007","district_id":"121310","name":"Laru Baringin","postal_code":"22996"},{"id":"1213102008","district_id":"121310","name":"Laru Bolak","postal_code":"22996"},{"id":"1213102009","district_id":"121310","name":"Laru Dolok","postal_code":"22996"},{"id":"1213102011","district_id":"121310","name":"Lumban Pasir","postal_code":"22996"},{"id":"1213102012","district_id":"121310","name":"Muara Mais","postal_code":"22996"},{"id":"1213102013","district_id":"121310","name":"Muara Mais Jambur","postal_code":"22996"},{"id":"1213102014","district_id":"121310","name":"Padang Sanggar","postal_code":"22996"},{"id":"1213102015","district_id":"121310","name":"Panjaringan","postal_code":"22996"},{"id":"1213102016","district_id":"121310","name":"Pasar Laru","postal_code":"22996"},{"id":"1213102017","district_id":"121310","name":"Pastap","postal_code":"22996"},{"id":"1213102018","district_id":"121310","name":"Pastap Julu","postal_code":"22996"},{"id":"1213102020","district_id":"121310","name":"Rao Rao Dolok","postal_code":"22996"},{"id":"1213102021","district_id":"121310","name":"Rao Rao Lombang","postal_code":"22996"},{"id":"1213102025","district_id":"121310","name":"Simangambat TB","postal_code":"22996"},{"id":"1213102026","district_id":"121310","name":"Tambangan Jae","postal_code":"22996"},{"id":"1213102027","district_id":"121310","name":"Tambangan Pasoman","postal_code":"22996"},{"id":"1213102028","district_id":"121310","name":"Tambangan Tonga","postal_code":"22996"}]