[{"id":"1214182001","district_id":"121418","name":"Bawomataluo","postal_code":"22865"},{"id":"1214182002","district_id":"121418","name":"Orahili Fau","postal_code":"22865"},{"id":"1214182003","district_id":"121418","name":"Bawonahono","postal_code":"22865"},{"id":"1214182005","district_id":"121418","name":"Siwalawa","postal_code":"22865"},{"id":"1214182006","district_id":"121418","name":"Onohondro ","postal_code":"22865"},{"id":"1214182007","district_id":"121418","name":"Hilinawalo Fau ","postal_code":"22865"},{"id":"1214182008","district_id":"121418","name":"Lahusa Fau","postal_code":"22865"},{"id":"1214182011","district_id":"121418","name":"Hilizihono","postal_code":"22865"},{"id":"1214182012","district_id":"121418","name":"Hiliofonaluo","postal_code":"22865"},{"id":"1214182015","district_id":"121418","name":"Bawofanayama","postal_code":"22865"},{"id":"1214182017","district_id":"121418","name":"Hilikara Maha","postal_code":"22865"},{"id":"1214182018","district_id":"121418","name":"Hilisalawa","postal_code":"22865"},{"id":"1214182019","district_id":"121418","name":"Hiligito","postal_code":"22865"},{"id":"1214182020","district_id":"121418","name":"Siliwulawa","postal_code":"22865"},{"id":"1214182021","district_id":"121418","name":"Hilifarokha Lawa ","postal_code":"22865"},{"id":"1214182022","district_id":"121418","name":"Eho Orahili","postal_code":"22865"},{"id":"1214182023","district_id":"121418","name":"Ete Batu","postal_code":"22865"}]