[{"id":"1214061008","district_id":"121406","name":"Pasar Teluk Dalam","postal_code":"22865"},{"id":"1214062006","district_id":"121406","name":"Hiligeho","postal_code":"22865"},{"id":"1214062007","district_id":"121406","name":"Hilitobara","postal_code":"22865"},{"id":"1214062009","district_id":"121406","name":"Bawonifaoso","postal_code":"22865"},{"id":"1214062010","district_id":"121406","name":"Bawozaua","postal_code":"22865"},{"id":"1214062011","district_id":"121406","name":"Hiliganowo","postal_code":"22865"},{"id":"1214062023","district_id":"121406","name":"Bawodobara","postal_code":"22865"},{"id":"1214062024","district_id":"121406","name":"Bawolowalani","postal_code":"22865"},{"id":"1214062025","district_id":"121406","name":"Hilisao'otoniha","postal_code":"22865"},{"id":"1214062026","district_id":"121406","name":"Hilisondrekha","postal_code":"22865"},{"id":"1214062040","district_id":"121406","name":"Hiliamuri","postal_code":"22865"},{"id":"1214062042","district_id":"121406","name":"Hiliana'a","postal_code":"22865"},{"id":"1214062043","district_id":"121406","name":"Hiliganowo Salo'o","postal_code":"22865"},{"id":"1214062044","district_id":"121406","name":"Ganowo Saua","postal_code":"22865"},{"id":"1214062045","district_id":"121406","name":"Nanowa","postal_code":"22865"},{"id":"1214062046","district_id":"121406","name":"Hililaza","postal_code":"22865"}]