[{"id":"1214202001","district_id":"121420","name":"Ehosakhozi","postal_code":"22867"},{"id":"1214202002","district_id":"121420","name":"Bawohosi ","postal_code":"22867"},{"id":"1214202003","district_id":"121420","name":"Hilizoliga","postal_code":"22867"},{"id":"1214202004","district_id":"121420","name":"Olayama","postal_code":"22867"},{"id":"1214202005","district_id":"121420","name":"Sifaoroasi ","postal_code":"22867"},{"id":"1214202006","district_id":"121420","name":"Sifalago","postal_code":"22867"},{"id":"1214202007","district_id":"121420","name":"Lalimanawa","postal_code":"22867"},{"id":"1214202008","district_id":"121420","name":"Tundrumbaho ","postal_code":"22867"},{"id":"1214202009","district_id":"121420","name":"Hiliuso","postal_code":"22867"},{"id":"1214202010","district_id":"121420","name":"Sisarahili Huruna","postal_code":"22867"},{"id":"1214202011","district_id":"121420","name":"Tarewe","postal_code":"22867"},{"id":"1214202012","district_id":"121420","name":"Fadoro Tuhemberua","postal_code":"22867"},{"id":"1214202013","district_id":"121420","name":"Hilifalawu","postal_code":"22867"},{"id":"1214202014","district_id":"121420","name":"Luahamofakhe","postal_code":"22867"},{"id":"1214202015","district_id":"121420","name":"Sifaoroasi Huruna","postal_code":"22867"},{"id":"1214202016","district_id":"121420","name":"Hilimanawa","postal_code":"22867"},{"id":"1214202017","district_id":"121420","name":"Mombawa Oladano","postal_code":"22867"}]