[{"id":"1216022001","district_id":"121602","name":"Parsingguran I","postal_code":"22457"},{"id":"1216022002","district_id":"121602","name":"Hutapaung","postal_code":"22457"},{"id":"1216022003","district_id":"121602","name":"Pollung","postal_code":"22457"},{"id":"1216022004","district_id":"121602","name":"Hutajulu","postal_code":"22457"},{"id":"1216022005","district_id":"121602","name":"Ria Ria","postal_code":"22457"},{"id":"1216022006","district_id":"121602","name":"Parsingguran II","postal_code":"22457"},{"id":"1216022007","district_id":"121602","name":"Pansurbatu","postal_code":"22457"},{"id":"1216022008","district_id":"121602","name":"Aek Nauli I","postal_code":"22457"},{"id":"1216022009","district_id":"121602","name":"Aek Nauli II","postal_code":"22457"},{"id":"1216022010","district_id":"121602","name":"Pandumaan","postal_code":"22457"},{"id":"1216022011","district_id":"121602","name":"Sipituhuta","postal_code":"22457"},{"id":"1216022012","district_id":"121602","name":"Pardomuan","postal_code":"22457"},{"id":"1216022013","district_id":"121602","name":"Hutapaung Utara","postal_code":"22457"}]