[{"id":"1217062001","district_id":"121706","name":"Huta Ginjang","postal_code":"22396"},{"id":"1217062002","district_id":"121706","name":"Singkam","postal_code":"22396"},{"id":"1217062003","district_id":"121706","name":"Hasinggaan","postal_code":"22396"},{"id":"1217062004","district_id":"121706","name":"Aek Sipitudai","postal_code":"22396"},{"id":"1217062005","district_id":"121706","name":"Huta Gurgur","postal_code":"22396"},{"id":"1217062006","district_id":"121706","name":"Sianjur Mula Mula","postal_code":"22396"},{"id":"1217062007","district_id":"121706","name":"Boho","postal_code":"22396"},{"id":"1217062008","district_id":"121706","name":"Siboro","postal_code":"22396"},{"id":"1217062009","district_id":"121706","name":"Simarihit","postal_code":"22396"},{"id":"1217062010","district_id":"121706","name":"Ginolat","postal_code":"22396"},{"id":"1217062011","district_id":"121706","name":"Bonan Dolok","postal_code":"22396"},{"id":"1217062012","district_id":"121706","name":"Habeahan Naburahan","postal_code":"22396"}]