[{"id":"1218021038","district_id":"121802","name":"Melati I ","postal_code":"20985"},{"id":"1218021039","district_id":"121802","name":"Simpang Tiga Pekan","postal_code":"20985"},{"id":"1218021040","district_id":"121802","name":"Batang Terap","postal_code":"20985"},{"id":"1218021041","district_id":"121802","name":"Tualang","postal_code":"20985"},{"id":"1218022001","district_id":"121802","name":"Adolina","postal_code":"20985"},{"id":"1218022003","district_id":"121802","name":"Bengkel","postal_code":"20985"},{"id":"1218022005","district_id":"121802","name":"Cinta Air","postal_code":"20985"},{"id":"1218022006","district_id":"121802","name":"Citaman Jernih","postal_code":"20985"},{"id":"1218022007","district_id":"121802","name":"Deli Muda Hulu ","postal_code":"20985"},{"id":"1218022008","district_id":"121802","name":"Deli Muda Hilir ","postal_code":"20985"},{"id":"1218022009","district_id":"121802","name":"Jambur Pulau","postal_code":"20985"},{"id":"1218022012","district_id":"121802","name":"Kesatuan","postal_code":"20985"},{"id":"1218022013","district_id":"121802","name":"Kota Galuh","postal_code":"20985"},{"id":"1218022015","district_id":"121802","name":"Lidah Tanah","postal_code":"20985"},{"id":"1218022016","district_id":"121802","name":"Lubuk Bayas","postal_code":"20985"},{"id":"1218022017","district_id":"121802","name":"Lubuk Cemara","postal_code":"20985"},{"id":"1218022018","district_id":"121802","name":"Lubuk Dendang","postal_code":"20985"},{"id":"1218022019","district_id":"121802","name":"Lubuk Rotan","postal_code":"20985"},{"id":"1218022020","district_id":"121802","name":"Melati II ","postal_code":"20985"},{"id":"1218022024","district_id":"121802","name":"Pematang Sijonam","postal_code":"20985"},{"id":"1218022025","district_id":"121802","name":"Pematang Tatal","postal_code":"20985"},{"id":"1218022028","district_id":"121802","name":"Suka Beras","postal_code":"20985"},{"id":"1218022029","district_id":"121802","name":"Sukajadi ","postal_code":"20985"},{"id":"1218022031","district_id":"121802","name":"Sei\/Sungai Buluh","postal_code":"20985"},{"id":"1218022032","district_id":"121802","name":"Sei Nagalawan ","postal_code":"20985"},{"id":"1218022033","district_id":"121802","name":"Sei\/Sungai Sijenggi","postal_code":"20985"},{"id":"1218022034","district_id":"121802","name":"Tanah Merah","postal_code":"20985"},{"id":"1218022035","district_id":"121802","name":"Tanjung Buluh","postal_code":"20985"}]