[{"id":"1218132001","district_id":"121813","name":"Bah Sumbu","postal_code":"20999"},{"id":"1218132002","district_id":"121813","name":"Naga Kesiangan","postal_code":"20999"},{"id":"1218132003","district_id":"121813","name":"Jambu","postal_code":"20999"},{"id":"1218132004","district_id":"121813","name":"Mariah Padang","postal_code":"20999"},{"id":"1218132005","district_id":"121813","name":"Pertapaan","postal_code":"20999"},{"id":"1218132006","district_id":"121813","name":"Paya Lombang","postal_code":"20999"},{"id":"1218132007","district_id":"121813","name":"Sei Serimah","postal_code":"20999"},{"id":"1218132008","district_id":"121813","name":"Paya Bagas","postal_code":"20999"},{"id":"1218132009","district_id":"121813","name":"Paya Mabar","postal_code":"20999"},{"id":"1218132010","district_id":"121813","name":"Sei Priok ","postal_code":"20999"},{"id":"1218132011","district_id":"121813","name":"Kuta Baru","postal_code":"20999"},{"id":"1218132018","district_id":"121813","name":"Kedai Damar","postal_code":"20999"},{"id":"1218132019","district_id":"121813","name":"Penonggol","postal_code":"20999"},{"id":"1218132020","district_id":"121813","name":"Gunung Kataran","postal_code":"20999"}]