[{"id":"1219031001","district_id":"121903","name":"Indrapura","postal_code":"21256"},{"id":"1219031019","district_id":"121903","name":"Indrasakti","postal_code":"21256"},{"id":"1219032002","district_id":"121903","name":"Limau Sundai","postal_code":"21256"},{"id":"1219032003","district_id":"121903","name":"Pematang Panjang","postal_code":"21256"},{"id":"1219032004","district_id":"121903","name":"Sukaraja","postal_code":"21256"},{"id":"1219032005","district_id":"121903","name":"Tanah Tinggi","postal_code":"21256"},{"id":"1219032006","district_id":"121903","name":"Tanjungmuda","postal_code":"21256"},{"id":"1219032007","district_id":"121903","name":"Tanah Merah","postal_code":"21256"},{"id":"1219032008","district_id":"121903","name":"Aras","postal_code":"21256"},{"id":"1219032009","district_id":"121903","name":"Pasar Lapan","postal_code":"21256"},{"id":"1219032010","district_id":"121903","name":"Sipare-Pare","postal_code":"21256"},{"id":"1219032011","district_id":"121903","name":"Tanjungkubah","postal_code":"21256"},{"id":"1219032012","district_id":"121903","name":"Tanjungharapan","postal_code":"21256"},{"id":"1219032013","district_id":"121903","name":"Suka Ramai","postal_code":"21256"},{"id":"1219032014","district_id":"121903","name":"Tanah Rendah","postal_code":"21256"},{"id":"1219032015","district_id":"121903","name":"Tanjungmulya","postal_code":"21256"},{"id":"1219032016","district_id":"121903","name":"Titi Payung","postal_code":"21256"},{"id":"1219032017","district_id":"121903","name":"Perkotaan","postal_code":"21256"},{"id":"1219032018","district_id":"121903","name":"Kampung Kelapa","postal_code":"21256"}]