[{"id":"1219122001","district_id":"121912","name":"Sentang","postal_code":"21253"},{"id":"1219122002","district_id":"121912","name":"Tanjung Mulia","postal_code":"21253"},{"id":"1219122003","district_id":"121912","name":"Jati Mulia","postal_code":"21253"},{"id":"1219122004","district_id":"121912","name":"Lima Laras","postal_code":"21253"},{"id":"1219122005","district_id":"121912","name":"Mekar Laras","postal_code":"21253"},{"id":"1219122006","district_id":"121912","name":"Bandar Sono","postal_code":"21253"},{"id":"1219122007","district_id":"121912","name":"Ujung Kubu","postal_code":"21253"},{"id":"1219122008","district_id":"121912","name":"Sei Mentaram","postal_code":"21253"},{"id":"1219122009","district_id":"121912","name":"Pematang Rambe","postal_code":"21253"},{"id":"1219122010","district_id":"121912","name":"Tali Air Permai","postal_code":"21253"},{"id":"1219122011","district_id":"121912","name":"Bagan Baru","postal_code":"21253"},{"id":"1219122012","district_id":"121912","name":"Kapal Merah","postal_code":"21253"}]