[{"id":"1220112001","district_id":"122011","name":"Siancimun","postal_code":"22752"},{"id":"1220112002","district_id":"122011","name":"Bolatan","postal_code":"22752"},{"id":"1220112003","district_id":"122011","name":"Pasir Bara","postal_code":"22752"},{"id":"1220112004","district_id":"122011","name":"Gunung Intan","postal_code":"22752"},{"id":"1220112005","district_id":"122011","name":"Mompang I","postal_code":"22752"},{"id":"1220112006","district_id":"122011","name":"Gunung Manaon III","postal_code":"22752"},{"id":"1220112007","district_id":"122011","name":"Sihopuk Baru","postal_code":"22752"},{"id":"1220112008","district_id":"122011","name":"Sihopuk Lama","postal_code":"22752"},{"id":"1220112009","district_id":"122011","name":"Rondaman","postal_code":"22752"},{"id":"1220112010","district_id":"122011","name":"Hutabaru Nangka","postal_code":"22752"},{"id":"1220112011","district_id":"122011","name":"Situmbaga","postal_code":"22752"},{"id":"1220112012","district_id":"122011","name":"Batang Pane I","postal_code":"22752"},{"id":"1220112013","district_id":"122011","name":"Batang Pane II","postal_code":"22752"},{"id":"1220112014","district_id":"122011","name":"Batang Pane III","postal_code":"22752"}]