[{"id":"1221092001","district_id":"122109","name":"Tanjung Baru","postal_code":"22742"},{"id":"1221092002","district_id":"122109","name":"Tamiang","postal_code":"22742"},{"id":"1221092003","district_id":"122109","name":"Tanjung Barani","postal_code":"22742"},{"id":"1221092004","district_id":"122109","name":"Manggis","postal_code":"22742"},{"id":"1221092005","district_id":"122109","name":"Pagaran Tayas","postal_code":"22742"},{"id":"1221092006","district_id":"122109","name":"Hatongga","postal_code":"22742"},{"id":"1221092007","district_id":"122109","name":"Botung","postal_code":"22742"},{"id":"1221092008","district_id":"122109","name":"Siadam","postal_code":"22742"},{"id":"1221092009","district_id":"122109","name":"Siojo","postal_code":"22742"},{"id":"1221092010","district_id":"122109","name":"Pagaran Manggis","postal_code":"22742"},{"id":"1221092011","district_id":"122109","name":"Muara Malinto Lama","postal_code":"22742"},{"id":"1221092012","district_id":"122109","name":"Hutabaru ","postal_code":"22742"},{"id":"1221092013","district_id":"122109","name":"Huta Nopan ","postal_code":"22742"},{"id":"1221092014","district_id":"122109","name":"Tandolan ","postal_code":"22742"},{"id":"1221092015","district_id":"122109","name":"Tangga Batu","postal_code":"22742"},{"id":"1221092016","district_id":"122109","name":"Pagaran Dolok Pinarik","postal_code":"22742"},{"id":"1221092017","district_id":"122109","name":"Muara Malinto Baru","postal_code":"22742"},{"id":"1221092018","district_id":"122109","name":"Aek Sorik","postal_code":"22742"},{"id":"1221092019","district_id":"122109","name":"Tanjung Botung ","postal_code":"22742"},{"id":"1221092020","district_id":"122109","name":"Pinarik","postal_code":"22742"}]