[{"id":"1221071001","district_id":"122107","name":"Pasar Sibuhuan","postal_code":"22763"},{"id":"1221072002","district_id":"122107","name":"Sibuhuan Julu","postal_code":"22763"},{"id":"1221072003","district_id":"122107","name":"Bangun Raya","postal_code":"22763"},{"id":"1221072004","district_id":"122107","name":"Purba Tua ","postal_code":"22763"},{"id":"1221072005","district_id":"122107","name":"Handis Julu","postal_code":"22763"},{"id":"1221072006","district_id":"122107","name":"Sialambue ","postal_code":"22763"},{"id":"1221072007","district_id":"122107","name":"Sibuhuan Jae","postal_code":"22763"},{"id":"1221072008","district_id":"122107","name":"Janjilobi ","postal_code":"22763"},{"id":"1221072021","district_id":"122107","name":"Tanjung Durian","postal_code":"22763"},{"id":"1221072022","district_id":"122107","name":"Tanjung Botung","postal_code":"22763"},{"id":"1221072023","district_id":"122107","name":"Tanobato ","postal_code":"22763"},{"id":"1221072024","district_id":"122107","name":"Hutarimbaru","postal_code":"22763"},{"id":"1221072025","district_id":"122107","name":"Sayur Matua","postal_code":"22763"},{"id":"1221072037","district_id":"122107","name":"Bulusonik ","postal_code":"22763"},{"id":"1221072038","district_id":"122107","name":"Arsesimatorkis ","postal_code":"22763"},{"id":"1221072039","district_id":"122107","name":"Pancaukan","postal_code":"22763"},{"id":"1221072040","district_id":"122107","name":"Pagaran Baringin","postal_code":"22763"}]