[{"id":"1221132001","district_id":"122113","name":"Hasahatan Julu","postal_code":"22763"},{"id":"1221132002","district_id":"122113","name":"Hasahatan Jae","postal_code":"22763"},{"id":"1221132003","district_id":"122113","name":"Sabahotang","postal_code":"22763"},{"id":"1221132004","district_id":"122113","name":"Sigorbus Julu","postal_code":"22763"},{"id":"1221132005","district_id":"122113","name":"Sigorbus Jae","postal_code":"22763"},{"id":"1221132006","district_id":"122113","name":"Mompang","postal_code":"22763"},{"id":"1221132007","district_id":"122113","name":"Sitarolo Julu","postal_code":"22763"},{"id":"1221132008","district_id":"122113","name":"Siolip","postal_code":"22763"},{"id":"1221132009","district_id":"122113","name":"Saba Rimba\/Riba","postal_code":"22763"},{"id":"1221132010","district_id":"122113","name":"Limbong","postal_code":"22763"},{"id":"1221132011","district_id":"122113","name":"Simaninggir","postal_code":"22763"},{"id":"1221132012","district_id":"122113","name":"Binabo Julu","postal_code":"22763"},{"id":"1221132013","district_id":"122113","name":"Binabo Jae","postal_code":"22763"}]