[{"id":"1221022001","district_id":"122102","name":"Gunung Baringin","postal_code":"22755"},{"id":"1221022002","district_id":"122102","name":"Pasar Binanga","postal_code":"22755"},{"id":"1221022003","district_id":"122102","name":"Sihaborgoan Dalan","postal_code":"22755"},{"id":"1221022004","district_id":"122102","name":"Aek Tanduk","postal_code":"22755"},{"id":"1221022005","district_id":"122102","name":"PP. Makmur","postal_code":"22755"},{"id":"1221022006","district_id":"122102","name":"Siboris Bahal","postal_code":"22755"},{"id":"1221022007","district_id":"122102","name":"Bangkudu","postal_code":"22755"},{"id":"1221022008","district_id":"122102","name":"Siolip","postal_code":"22755"},{"id":"1221022009","district_id":"122102","name":"Aek Tunjang","postal_code":"22755"},{"id":"1221022010","district_id":"122102","name":"Binanga","postal_code":"22755"},{"id":"1221022011","district_id":"122102","name":"Manombo","postal_code":"22755"},{"id":"1221022012","district_id":"122102","name":"Janji Raja","postal_code":"22755"},{"id":"1221022013","district_id":"122102","name":"Pangirkiran Dolok","postal_code":"22755"},{"id":"1221022014","district_id":"122102","name":"Sihaborgoan Barumun","postal_code":"22755"},{"id":"1221022015","district_id":"122102","name":"Siboris Dolok","postal_code":"22755"},{"id":"1221022016","district_id":"122102","name":"Padang Matinggi","postal_code":"22755"},{"id":"1221022017","district_id":"122102","name":"Tandihat","postal_code":"22755"},{"id":"1221022018","district_id":"122102","name":"Bara Batu","postal_code":"22755"},{"id":"1221022019","district_id":"122102","name":"Bahal Batu","postal_code":"22755"},{"id":"1221022020","district_id":"122102","name":"Ginduang Batu","postal_code":"22755"},{"id":"1221022021","district_id":"122102","name":"Padang Garugur","postal_code":"22755"},{"id":"1221022022","district_id":"122102","name":"Gunung Manaon","postal_code":"22755"},{"id":"1221022023","district_id":"122102","name":"Siboris Lombang","postal_code":"22755"},{"id":"1221022024","district_id":"122102","name":"Janji Matogu","postal_code":"22755"},{"id":"1221022025","district_id":"122102","name":"Gunung Malintang","postal_code":"22755"},{"id":"1221022026","district_id":"122102","name":"Sibatu Loting","postal_code":"22755"},{"id":"1221022028","district_id":"122102","name":"Janji Manahan","postal_code":"22755"},{"id":"1221022029","district_id":"122102","name":"Siparau","postal_code":"22755"},{"id":"1221022030","district_id":"122102","name":"Unterudang","postal_code":"22755"}]