[{"id":"1224012001","district_id":"122401","name":"Hilidundra","postal_code":"22856"},{"id":"1224012002","district_id":"122401","name":"Lawira Satua","postal_code":"22856"},{"id":"1224012003","district_id":"122401","name":"Fadoro Fulolo","postal_code":"22856"},{"id":"1224012004","district_id":"122401","name":"Lawira I","postal_code":"22856"},{"id":"1224012005","district_id":"122401","name":"Hiligodu","postal_code":"22856"},{"id":"1224012006","district_id":"122401","name":"Lombuza'ua ","postal_code":"22856"},{"id":"1224012007","district_id":"122401","name":"Maziaya","postal_code":"22856"},{"id":"1224012008","district_id":"122401","name":"Baho","postal_code":"22856"},{"id":"1224012009","district_id":"122401","name":"Lolofaoso","postal_code":"22856"},{"id":"1224012010","district_id":"122401","name":"Lawira II","postal_code":"22856"},{"id":"1224012011","district_id":"122401","name":"Dahadano","postal_code":"22856"},{"id":"1224012012","district_id":"122401","name":"Lolomboli","postal_code":"22856"},{"id":"1224012013","district_id":"122401","name":"Hiligeo Afia","postal_code":"22856"}]