[{"id":"1301072001","district_id":"130107","name":"Siguntur","postal_code":"25654"},{"id":"1301072002","district_id":"130107","name":"Sungai Pinang","postal_code":"25654"},{"id":"1301072003","district_id":"130107","name":"Duku","postal_code":"25654"},{"id":"1301072004","district_id":"130107","name":"Batu Hampa","postal_code":"25654"},{"id":"1301072005","district_id":"130107","name":"Nanggalo","postal_code":"25654"},{"id":"1301072006","district_id":"130107","name":"Ampang Pulai","postal_code":"25654"},{"id":"1301072007","district_id":"130107","name":"Kapuh","postal_code":"25654"},{"id":"1301072008","district_id":"130107","name":"Barung-Barung Balantai","postal_code":"25654"},{"id":"1301072009","district_id":"130107","name":"Barung Barung Balantai Selatan","postal_code":"25654"},{"id":"1301072010","district_id":"130107","name":"Mandeh","postal_code":"25654"},{"id":"1301072011","district_id":"130107","name":"Kapuah Utara ","postal_code":"25654"},{"id":"1301072012","district_id":"130107","name":"Taratak Sungai Lundang ","postal_code":"25654"},{"id":"1301072013","district_id":"130107","name":"Siguntur Tua","postal_code":"25654"},{"id":"1301072014","district_id":"130107","name":"Kampung Baru Korong Nan Ampek","postal_code":"25654"},{"id":"1301072015","district_id":"130107","name":"Duku Utara","postal_code":"25654"},{"id":"1301072016","district_id":"130107","name":"Pulau Karam Ampang Pulai ","postal_code":"25654"},{"id":"1301072017","district_id":"130107","name":"Jinang Kampung Pansur Ampang Pulai","postal_code":"25654"},{"id":"1301072018","district_id":"130107","name":"Cerocok Anau Ampang Pulai","postal_code":"25654"},{"id":"1301072019","district_id":"130107","name":"Sungai Nyalo Mudiak Aia ","postal_code":"25654"},{"id":"1301072020","district_id":"130107","name":"Batu Hampar Selatan ","postal_code":"25654"},{"id":"1301072021","district_id":"130107","name":"Barung-Barung Balantai Timur","postal_code":"25654"},{"id":"1301072022","district_id":"130107","name":"Barung-Barung Balantai Tengah","postal_code":"25654"},{"id":"1301072023","district_id":"130107","name":"Setara Nanggalo","postal_code":"25654"}]