[{"id":"1402041007","district_id":"140204","name":"Air Molek ","postal_code":"29358"},{"id":"1402041020","district_id":"140204","name":"Kembang Harum Beras Hilir ","postal_code":"29358"},{"id":"1402041031","district_id":"140204","name":"Tanjung Gading","postal_code":"29358"},{"id":"1402041032","district_id":"140204","name":"Sekar Mawar","postal_code":"29358"},{"id":"1402041033","district_id":"140204","name":"Tanah Merah","postal_code":"29358"},{"id":"1402042006","district_id":"140204","name":"Petalongan","postal_code":"29358"},{"id":"1402042008","district_id":"140204","name":"Air Molek II","postal_code":"29358"},{"id":"1402042009","district_id":"140204","name":"Pasir Keranji","postal_code":"29358"},{"id":"1402042016","district_id":"140204","name":"Jati Rejo ","postal_code":"29358"},{"id":"1402042017","district_id":"140204","name":"Batu Gajah","postal_code":"29358"},{"id":"1402042018","district_id":"140204","name":"Candi Rejo","postal_code":"29358"},{"id":"1402042019","district_id":"140204","name":"Lembah Dusun Gading","postal_code":"29358"},{"id":"1402042030","district_id":"140204","name":"Serumpun Jaya","postal_code":"29358"}]