[{"id":"1402011004","district_id":"140201","name":"Kampung Dagang","postal_code":"29313"},{"id":"1402011006","district_id":"140201","name":"Pasar Kota","postal_code":"29311"},{"id":"1402011007","district_id":"140201","name":"Kampung Besar Kota","postal_code":"29312"},{"id":"1402011008","district_id":"140201","name":"Sekip Hulu","postal_code":"29319"},{"id":"1402011011","district_id":"140201","name":"Kampung Besar Seberang","postal_code":"29312"},{"id":"1402011018","district_id":"140201","name":"Sekip Hilir","postal_code":"29318"},{"id":"1402012001","district_id":"140201","name":"Sungai Guntung Tengah","postal_code":"29319"},{"id":"1402012002","district_id":"140201","name":"Sungai Guntung Hilir","postal_code":"29319"},{"id":"1402012003","district_id":"140201","name":"Kuantan Babu","postal_code":"29314"},{"id":"1402012005","district_id":"140201","name":"Kampung Pulau","postal_code":"29314"},{"id":"1402012009","district_id":"140201","name":"Sungai Beringin","postal_code":"29317"},{"id":"1402012010","district_id":"140201","name":"Pasir Kemilu","postal_code":"29316"},{"id":"1402012012","district_id":"140201","name":"Rantau Mapesai","postal_code":"29319"},{"id":"1402012013","district_id":"140201","name":"Pulau Gajah","postal_code":"29313"},{"id":"1402012014","district_id":"140201","name":"Sungai Raya","postal_code":"29319"},{"id":"1402012023","district_id":"140201","name":"Rawa Bangun","postal_code":"29319"}]