[{"id":"1404011001","district_id":"140401","name":"Pulaukijang","postal_code":"29273"},{"id":"1404011017","district_id":"140401","name":"Metro","postal_code":"29273"},{"id":"1404011018","district_id":"140401","name":"Madani","postal_code":"29273"},{"id":"1404012002","district_id":"140401","name":"Sanglar","postal_code":"29273"},{"id":"1404012003","district_id":"140401","name":"Pulaukecil","postal_code":"29273"},{"id":"1404012004","district_id":"140401","name":"Sungaiterap","postal_code":"29273"},{"id":"1404012009","district_id":"140401","name":"Sungaiundan","postal_code":"29273"},{"id":"1404012010","district_id":"140401","name":"Seberang Sanglar","postal_code":"29273"},{"id":"1404012011","district_id":"140401","name":"Mekar Sari","postal_code":"29273"},{"id":"1404012012","district_id":"140401","name":"Seberang Pulau Kijang","postal_code":"29273"},{"id":"1404012013","district_id":"140401","name":"Sungaiasam","postal_code":"29273"},{"id":"1404012014","district_id":"140401","name":"Pulauruku","postal_code":"29273"},{"id":"1404012019","district_id":"140401","name":"Tanjunglabuh","postal_code":"29273"},{"id":"1404012020","district_id":"140401","name":"Sungaimahang","postal_code":"29273"}]