[{"id":"1404061004","district_id":"140406","name":"Sungaiempat ","postal_code":"29253"},{"id":"1404061005","district_id":"140406","name":"Telukpinang ","postal_code":"29253"},{"id":"1404061009","district_id":"140406","name":"Tanjungharapan ","postal_code":"29253"},{"id":"1404062001","district_id":"140406","name":"Kuala Gaung","postal_code":"29253"},{"id":"1404062002","district_id":"140406","name":"Telukpantaian ","postal_code":"29253"},{"id":"1404062003","district_id":"140406","name":"Teluksungka ","postal_code":"29253"},{"id":"1404062006","district_id":"140406","name":"Sungaiiliran ","postal_code":"29253"},{"id":"1404062007","district_id":"140406","name":"Teluktuasan ","postal_code":"29253"},{"id":"1404062008","district_id":"140406","name":"Rambaian","postal_code":"29253"},{"id":"1404062010","district_id":"140406","name":"Harapan Makmur","postal_code":"29253"},{"id":"1404062011","district_id":"140406","name":"Kelumpang","postal_code":"29253"},{"id":"1404062012","district_id":"140406","name":"Idaman","postal_code":"29253"}]