[{"id":"1404172001","district_id":"140417","name":"Pulauburung ","postal_code":"29256"},{"id":"1404172002","district_id":"140417","name":"Teluknibung ","postal_code":"29256"},{"id":"1404172003","district_id":"140417","name":"Sungaidanai ","postal_code":"29256"},{"id":"1404172004","district_id":"140417","name":"Mayang Sari Jaya","postal_code":"29256"},{"id":"1404172005","district_id":"140417","name":"Bukit Sari Intan Jaya","postal_code":"29256"},{"id":"1404172006","district_id":"140417","name":"Manunggal Jaya","postal_code":"29256"},{"id":"1404172007","district_id":"140417","name":"Bangun Harjo Jaya","postal_code":"29256"},{"id":"1404172008","district_id":"140417","name":"Ringin Jaya ","postal_code":"29256"},{"id":"1404172009","district_id":"140417","name":"Sri Damai","postal_code":"29256"},{"id":"1404172010","district_id":"140417","name":"Sapta Jaya","postal_code":"29256"},{"id":"1404172011","district_id":"140417","name":"Keramat Jaya","postal_code":"29256"},{"id":"1404172012","district_id":"140417","name":"Binagun Jaya","postal_code":"29256"},{"id":"1404172013","district_id":"140417","name":"Suka Jaya","postal_code":"29256"},{"id":"1404172014","district_id":"140417","name":"Sukaharjo Jaya ","postal_code":"29256"}]