[{"id":"1407051018","district_id":"140705","name":"Bagan Batu Kota","postal_code":"28992"},{"id":"1407051019","district_id":"140705","name":"Bahtera Makmur Kota","postal_code":"28992"},{"id":"1407052002","district_id":"140705","name":"Bagan Batu","postal_code":"28992"},{"id":"1407052003","district_id":"140705","name":"Bahtera Makmur","postal_code":"28992"},{"id":"1407052007","district_id":"140705","name":"Pelita","postal_code":"28992"},{"id":"1407052008","district_id":"140705","name":"Gelora","postal_code":"28992"},{"id":"1407052015","district_id":"140705","name":"Suka Maju","postal_code":"28992"},{"id":"1407052016","district_id":"140705","name":"Bagan Manunggal","postal_code":"28992"},{"id":"1407052017","district_id":"140705","name":"Bagan Sapta Permai","postal_code":"28992"},{"id":"1407052025","district_id":"140705","name":"Bakti Makmur","postal_code":"28992"},{"id":"1407052028","district_id":"140705","name":"Jaya Agung","postal_code":"28992"},{"id":"1407052030","district_id":"140705","name":"Meranti Makmur","postal_code":"28992"},{"id":"1407052031","district_id":"140705","name":"Bhayangkara Jaya","postal_code":"28992"}]