[{"id":"1409051001","district_id":"140905","name":"Pasar Cerenti","postal_code":"29555"},{"id":"1409051002","district_id":"140905","name":"Koto Peraku","postal_code":"29555"},{"id":"1409052003","district_id":"140905","name":"Kompe Berangin","postal_code":"29555"},{"id":"1409052004","district_id":"140905","name":"Sikakak","postal_code":"29555"},{"id":"1409052005","district_id":"140905","name":"Kampung Baru","postal_code":"29555"},{"id":"1409052006","district_id":"140905","name":"Pulaujambu ","postal_code":"29555"},{"id":"1409052007","district_id":"140905","name":"Koto Cerenti","postal_code":"29555"},{"id":"1409052008","district_id":"140905","name":"Pulaubayur ","postal_code":"29555"},{"id":"1409052009","district_id":"140905","name":"Pulau Panjang Cerenti","postal_code":"29555"},{"id":"1409052010","district_id":"140905","name":"Pesikaian\/Pasikaian","postal_code":"29555"},{"id":"1409052011","district_id":"140905","name":"Telukpauh ","postal_code":"29555"},{"id":"1409052012","district_id":"140905","name":"Tanjungmedan ","postal_code":"29555"},{"id":"1409052013","district_id":"140905","name":"Kampung Baru Timur","postal_code":"29555"}]