[{"id":"1409021016","district_id":"140902","name":"Pasar Teluk","postal_code":"29511"},{"id":"1409021018","district_id":"140902","name":"Simpang Tiga","postal_code":"29511"},{"id":"1409021025","district_id":"140902","name":"Sungaijering","postal_code":"29513"},{"id":"1409022001","district_id":"140902","name":"Bandar Alai","postal_code":"29511"},{"id":"1409022002","district_id":"140902","name":"Pulaukedundung","postal_code":"29514"},{"id":"1409022003","district_id":"140902","name":"Pulauaro","postal_code":"29511"},{"id":"1409022004","district_id":"140902","name":"Seberang Taluk","postal_code":"29511"},{"id":"1409022005","district_id":"140902","name":"Pulau Baru","postal_code":"29511"},{"id":"1409022006","district_id":"140902","name":"Koto Tuo","postal_code":"29511"},{"id":"1409022007","district_id":"140902","name":"Kopah","postal_code":"29511"},{"id":"1409022008","district_id":"140902","name":"Munsalo","postal_code":"29511"},{"id":"1409022014","district_id":"140902","name":"Sawah","postal_code":"29511"},{"id":"1409022015","district_id":"140902","name":"Koto Taluk","postal_code":"29515"},{"id":"1409022017","district_id":"140902","name":"Koto Kari","postal_code":"29511"},{"id":"1409022019","district_id":"140902","name":"Pintu Gobang","postal_code":"29511"},{"id":"1409022020","district_id":"140902","name":"Jake","postal_code":"29511"},{"id":"1409022021","district_id":"140902","name":"Pulau Godang Kari","postal_code":"29511"},{"id":"1409022022","district_id":"140902","name":"Jaya","postal_code":"29511"},{"id":"1409022023","district_id":"140902","name":"Beringin Taluk","postal_code":"29511"},{"id":"1409022024","district_id":"140902","name":"Sitorajo","postal_code":"29511"},{"id":"1409022026","district_id":"140902","name":"Seberang Taluk Hilir","postal_code":"29511"},{"id":"1409022027","district_id":"140902","name":"Titian Modang Kopah","postal_code":"29512"},{"id":"1409022028","district_id":"140902","name":"Pulaubanjar Kari","postal_code":"29511"}]