[{"id":"1501092010","district_id":"150109","name":"Koto Tuo","postal_code":"37164"},{"id":"1501092011","district_id":"150109","name":"Sungaitanduk","postal_code":"37164"},{"id":"1501092012","district_id":"150109","name":"Kersik Tuo","postal_code":"37164"},{"id":"1501092013","district_id":"150109","name":"Sangir","postal_code":"37164"},{"id":"1501092014","district_id":"150109","name":"Koto Baru","postal_code":"37164"},{"id":"1501092015","district_id":"150109","name":"Koto Panjang","postal_code":"37164"},{"id":"1501092016","district_id":"150109","name":"Koto Tengah","postal_code":"37164"},{"id":"1501092017","district_id":"150109","name":"Sungaibendung Air","postal_code":"37164"},{"id":"1501092022","district_id":"150109","name":"Sungaisampun","postal_code":"37164"},{"id":"1501092024","district_id":"150109","name":"Bedeng Baru","postal_code":"37164"},{"id":"1501092025","district_id":"150109","name":"Batang Sangir","postal_code":"37164"},{"id":"1501092030","district_id":"150109","name":"Sungaidalam","postal_code":"37164"},{"id":"1501092038","district_id":"150109","name":"Koto Periang","postal_code":"37164"},{"id":"1501092039","district_id":"150109","name":"Lindung Jaya","postal_code":"37164"},{"id":"1501092041","district_id":"150109","name":"Renah Kasah","postal_code":"37164"},{"id":"1501092042","district_id":"150109","name":"Pasar Sungai Tanduk","postal_code":"37164"},{"id":"1501092043","district_id":"150109","name":"Mekar Sari","postal_code":"37164"},{"id":"1501092045","district_id":"150109","name":"Mekar Jaya","postal_code":"37164"},{"id":"1501092047","district_id":"150109","name":"Sangir Tengah","postal_code":"37164"},{"id":"1501092048","district_id":"150109","name":"Tanjungbungo","postal_code":"37164"},{"id":"1501092049","district_id":"150109","name":"Bendung Air Timur","postal_code":"37164"}]