[{"id":"1501042008","district_id":"150104","name":"Hiang Tinggi","postal_code":"37171"},{"id":"1501042009","district_id":"150104","name":"Ambai Atas","postal_code":"37171"},{"id":"1501042010","district_id":"150104","name":"Tanjungmudo","postal_code":"37171"},{"id":"1501042011","district_id":"150104","name":"Pendung Tengah","postal_code":"37171"},{"id":"1501042012","district_id":"150104","name":"Pendung Hilir","postal_code":"37171"},{"id":"1501042013","district_id":"150104","name":"Koto Baru Hiang","postal_code":"37171"},{"id":"1501042014","district_id":"150104","name":"Betung Kuning","postal_code":"37171"},{"id":"1501042026","district_id":"150104","name":"Ambai Bawah","postal_code":"37171"},{"id":"1501042028","district_id":"150104","name":"Hiang Karya","postal_code":"37171"},{"id":"1501042029","district_id":"150104","name":"Hiang Lestari","postal_code":"37171"},{"id":"1501042030","district_id":"150104","name":"Angkasa Pura","postal_code":"37171"},{"id":"1501042031","district_id":"150104","name":"Hiang Sakti","postal_code":"37171"},{"id":"1501042033","district_id":"150104","name":"Koto Sekilan Ambai","postal_code":"37171"},{"id":"1501042034","district_id":"150104","name":"Penawar Tinggi","postal_code":"37171"}]