[{"id":"1502061008","district_id":"150206","name":"Pamenang","postal_code":"37352"},{"id":"1502062004","district_id":"150206","name":"Jelatang","postal_code":"37352"},{"id":"1502062005","district_id":"150206","name":"Tanjung Gedang","postal_code":"37352"},{"id":"1502062006","district_id":"150206","name":"Empang Benao","postal_code":"37352"},{"id":"1502062007","district_id":"150206","name":"Rejo Sari ","postal_code":"37352"},{"id":"1502062009","district_id":"150206","name":"Keroya","postal_code":"37352"},{"id":"1502062010","district_id":"150206","name":"Muara\/Muaro Belengo","postal_code":"37352"},{"id":"1502062011","district_id":"150206","name":"Karang Berahi\/Birahi","postal_code":"37352"},{"id":"1502062012","district_id":"150206","name":"Pauh Menang","postal_code":"37352"},{"id":"1502062013","district_id":"150206","name":"Pematang Kancil","postal_code":"37352"},{"id":"1502062014","district_id":"150206","name":"Tanah Abang","postal_code":"37352"},{"id":"1502062015","district_id":"150206","name":"Sialang","postal_code":"37352"},{"id":"1502062026","district_id":"150206","name":"Sungai Udang","postal_code":"37352"},{"id":"1502062027","district_id":"150206","name":"Pelakar Jaya","postal_code":"37352"}]