[{"id":"1503041005","district_id":"150304","name":"Pauh","postal_code":"37491"},{"id":"1503042001","district_id":"150304","name":"Pangidaran ","postal_code":"37491"},{"id":"1503042002","district_id":"150304","name":"Karang Mendapo","postal_code":"37491"},{"id":"1503042003","district_id":"150304","name":"Batu Ampar","postal_code":"37491"},{"id":"1503042004","district_id":"150304","name":"Batu Kucing","postal_code":"37491"},{"id":"1503042006","district_id":"150304","name":"Semaran","postal_code":"37491"},{"id":"1503042007","district_id":"150304","name":"Kasang Melintang","postal_code":"37491"},{"id":"1503042008","district_id":"150304","name":"Pangkal Bulian","postal_code":"37491"},{"id":"1503042009","district_id":"150304","name":"Lubuk Napal","postal_code":"37491"},{"id":"1503042010","district_id":"150304","name":"Sepintun","postal_code":"37491"},{"id":"1503042011","district_id":"150304","name":"Lamban Sigatal","postal_code":"37491"},{"id":"1503042020","district_id":"150304","name":"Seko Besar","postal_code":"37491"},{"id":"1503042021","district_id":"150304","name":"Taman Bandung","postal_code":"37491"},{"id":"1503042022","district_id":"150304","name":"Danau Serdang","postal_code":"37491"}]