[{"id":"1504031001","district_id":"150403","name":"Muara Bulian","postal_code":"36613"},{"id":"1504031002","district_id":"150403","name":"Teratai","postal_code":"36612"},{"id":"1504031003","district_id":"150403","name":"Sridadi","postal_code":"36614"},{"id":"1504031004","district_id":"150403","name":"Pasar Baru","postal_code":"36611"},{"id":"1504031005","district_id":"150403","name":"Rengas Condong","postal_code":"36611"},{"id":"1504032006","district_id":"150403","name":"Pasar Terusan","postal_code":"36611"},{"id":"1504032007","district_id":"150403","name":"Simpang Terusan","postal_code":"36611"},{"id":"1504032008","district_id":"150403","name":"Malapari","postal_code":"36611"},{"id":"1504032009","district_id":"150403","name":"Napal Sisik","postal_code":"36611"},{"id":"1504032010","district_id":"150403","name":"Rambahan","postal_code":"36612"},{"id":"1504032011","district_id":"150403","name":"Olak","postal_code":"36611"},{"id":"1504032012","district_id":"150403","name":"Muaro Singoan","postal_code":"36611"},{"id":"1504032013","district_id":"150403","name":"Aro","postal_code":"36611"},{"id":"1504032014","district_id":"150403","name":"Rantau Puri","postal_code":"36611"},{"id":"1504032015","district_id":"150403","name":"Sungai Baung","postal_code":"36611"},{"id":"1504032016","district_id":"150403","name":"Bajubang Laut","postal_code":"36611"},{"id":"1504032017","district_id":"150403","name":"Singkawang","postal_code":"36611"},{"id":"1504032018","district_id":"150403","name":"Tenam","postal_code":"36611"},{"id":"1504032019","district_id":"150403","name":"Sungai Buluh","postal_code":"36611"},{"id":"1504032020","district_id":"150403","name":"Kilangan","postal_code":"36611"},{"id":"1504032021","district_id":"150403","name":"Pelayangan","postal_code":"36611"}]