[{"id":"1506031001","district_id":"150603","name":"Teluknilau ","postal_code":"36553"},{"id":"1506032006","district_id":"150603","name":"Parit Pudin","postal_code":"36553"},{"id":"1506032007","district_id":"150603","name":"Sungaiserindit ","postal_code":"36553"},{"id":"1506032008","district_id":"150603","name":"Mekar Jati","postal_code":"36553"},{"id":"1506032012","district_id":"150603","name":"Sungaipampang ","postal_code":"36553"},{"id":"1506032013","district_id":"150603","name":"Parit Sidang","postal_code":"36553"},{"id":"1506032014","district_id":"150603","name":"Sungaijering ","postal_code":"36553"},{"id":"1506032015","district_id":"150603","name":"Parit Bilal","postal_code":"36553"},{"id":"1506032016","district_id":"150603","name":"SuakSamin ","postal_code":"36553"},{"id":"1506032017","district_id":"150603","name":"Sungaibaung ","postal_code":"36553"},{"id":"1506032018","district_id":"150603","name":"Karya Maju","postal_code":"36553"},{"id":"1506032019","district_id":"150603","name":"Sungairaya ","postal_code":"36553"},{"id":"1506032020","district_id":"150603","name":"Pasar Senin","postal_code":"36553"}]