[{"id":"1602021011","district_id":"160202","name":"Tanjung Lubuk","postal_code":"30671"},{"id":"1602022001","district_id":"160202","name":"Ulak Kapal","postal_code":"30671"},{"id":"1602022002","district_id":"160202","name":"Tanjung Merindu","postal_code":"30671"},{"id":"1602022003","district_id":"160202","name":"Tanjung Baru","postal_code":"30671"},{"id":"1602022004","district_id":"160202","name":"Seritanjung","postal_code":"30671"},{"id":"1602022005","district_id":"160202","name":"Pengaraian","postal_code":"30671"},{"id":"1602022006","district_id":"160202","name":"Sukarami","postal_code":"30671"},{"id":"1602022008","district_id":"160202","name":"Sukamulya","postal_code":"30671"},{"id":"1602022010","district_id":"160202","name":"Pulau Gemantung","postal_code":"30671"},{"id":"1602022012","district_id":"160202","name":"Bumiagung","postal_code":"30671"},{"id":"1602022013","district_id":"160202","name":"Kotabumi","postal_code":"30671"},{"id":"1602022014","district_id":"160202","name":"Tanjung Beringin","postal_code":"30671"},{"id":"1602022015","district_id":"160202","name":"Tanjung Laga","postal_code":"30671"},{"id":"1602022016","district_id":"160202","name":"Tanjung Laut","postal_code":"30671"},{"id":"1602022017","district_id":"160202","name":"Ulak Balam","postal_code":"30671"},{"id":"1602022018","district_id":"160202","name":"Jambu Ilir","postal_code":"30671"},{"id":"1602022031","district_id":"160202","name":"Jukdadak","postal_code":"30671"},{"id":"1602022032","district_id":"160202","name":"Atar Balam","postal_code":"30671"},{"id":"1602022033","district_id":"160202","name":"Tanjung Harapan","postal_code":"30671"},{"id":"1602022034","district_id":"160202","name":"Pulau Gemantung Ilir","postal_code":"30671"},{"id":"1602022035","district_id":"160202","name":"Pulau Gemantung Ulu","postal_code":"30671"},{"id":"1602022036","district_id":"160202","name":"Pulau Gemantung Darat","postal_code":"30671"}]