[{"id":"1603042001","district_id":"160304","name":"Penanggiran","postal_code":"31353"},{"id":"1603042002","district_id":"160304","name":"Gunung Megang Luar","postal_code":"31353"},{"id":"1603042003","district_id":"160304","name":"Gunung Megang Dalam","postal_code":"31353"},{"id":"1603042004","district_id":"160304","name":"Lubuk Mumpo","postal_code":"31353"},{"id":"1603042005","district_id":"160304","name":"Perjito","postal_code":"31353"},{"id":"1603042006","district_id":"160304","name":"Tanjung Muning","postal_code":"31353"},{"id":"1603042007","district_id":"160304","name":"Tanjung Terang","postal_code":"31353"},{"id":"1603042016","district_id":"160304","name":"Bangun Sari","postal_code":"31353"},{"id":"1603042017","district_id":"160304","name":"Sumaja Makmur","postal_code":"31353"},{"id":"1603042018","district_id":"160304","name":"Sidomulyo","postal_code":"31353"},{"id":"1603042019","district_id":"160304","name":"Pajar Indah","postal_code":"31353"},{"id":"1603042020","district_id":"160304","name":"Kayu Ara Sakti","postal_code":"31353"},{"id":"1603042021","district_id":"160304","name":"Panang Jaya","postal_code":"31353"}]