[{"id":"1603021006","district_id":"160302","name":"Tungkal","postal_code":"31313"},{"id":"1603021007","district_id":"160302","name":"Pasar II Muara Enim","postal_code":"31315"},{"id":"1603021008","district_id":"160302","name":"Pasar III Muara Enim","postal_code":"31314"},{"id":"1603021009","district_id":"160302","name":"Pasar I Muara Enim","postal_code":"31311"},{"id":"1603021010","district_id":"160302","name":"Muara Enim","postal_code":"31312"},{"id":"1603021016","district_id":"160302","name":"Air Lintang","postal_code":"31311"},{"id":"1603022001","district_id":"160302","name":"Tanjung Raja","postal_code":"31311"},{"id":"1603022002","district_id":"160302","name":"Karang Raja","postal_code":"31311"},{"id":"1603022003","district_id":"160302","name":"Muara Lawai","postal_code":"31311"},{"id":"1603022004","district_id":"160302","name":"Tanjung Jati","postal_code":"31311"},{"id":"1603022005","district_id":"160302","name":"Lubuk Emplas","postal_code":"31311"},{"id":"1603022011","district_id":"160302","name":"Kepur","postal_code":"31311"},{"id":"1603022012","district_id":"160302","name":"Tanjung Serian","postal_code":"31311"},{"id":"1603022013","district_id":"160302","name":"Muara Harapan","postal_code":"31311"},{"id":"1603022014","district_id":"160302","name":"Saka Jaya","postal_code":"31311"},{"id":"1603022015","district_id":"160302","name":"Harapan Jaya","postal_code":"31311"}]