[{"id":"1604192001","district_id":"160419","name":"Saung Naga","postal_code":"31452"},{"id":"1604192002","district_id":"160419","name":"Penantian","postal_code":"31452"},{"id":"1604192003","district_id":"160419","name":"Suka Merindu","postal_code":"31452"},{"id":"1604192004","district_id":"160419","name":"Jajaran Baru","postal_code":"31452"},{"id":"1604192005","district_id":"160419","name":"Wonorejo","postal_code":"31452"},{"id":"1604192006","district_id":"160419","name":"Babatan Baru ","postal_code":"31452"},{"id":"1604192007","district_id":"160419","name":"Jajaran Lama","postal_code":"31452"},{"id":"1604192008","district_id":"160419","name":"Lubuk Seketi","postal_code":"31452"},{"id":"1604192009","district_id":"160419","name":"Sukarami","postal_code":"31452"},{"id":"1604192010","district_id":"160419","name":"Singapura","postal_code":"31452"},{"id":"1604192011","district_id":"160419","name":"Ulak Bandung","postal_code":"31452"},{"id":"1604192012","district_id":"160419","name":"Bandar Jaya ","postal_code":"31452"},{"id":"1604192013","district_id":"160419","name":"Purnama Sari ","postal_code":"31452"},{"id":"1604192014","district_id":"160419","name":"Wanaraya","postal_code":"31452"},{"id":"1604192015","district_id":"160419","name":"Purworejo ","postal_code":"31452"},{"id":"1604192016","district_id":"160419","name":"Suka Bakti","postal_code":"31452"},{"id":"1604192017","district_id":"160419","name":"Mekar Jaya","postal_code":"31452"},{"id":"1604192018","district_id":"160419","name":"Darma Raharja","postal_code":"31452"},{"id":"1604192019","district_id":"160419","name":"Sido Makmur ","postal_code":"31452"}]