[{"id":"1604101031","district_id":"160410","name":"Lahat Tengah","postal_code":"31419"},{"id":"1604101032","district_id":"160410","name":"Gunung Gajah","postal_code":"31418"},{"id":"1604101033","district_id":"160410","name":"Pagar Agung","postal_code":"31417"},{"id":"1604101037","district_id":"160410","name":"Talang Jawa ","postal_code":"31416"},{"id":"1604101038","district_id":"160410","name":"Pasar Baru","postal_code":"31411"},{"id":"1604101040","district_id":"160410","name":"Kota Baru","postal_code":"31415"},{"id":"1604101041","district_id":"160410","name":"Pasar Lama","postal_code":"31413"},{"id":"1604101042","district_id":"160410","name":"Pasar Bawah","postal_code":"31412"},{"id":"1604101043","district_id":"160410","name":"RD. PJKA","postal_code":"31419"},{"id":"1604101046","district_id":"160410","name":"Bandar Agung","postal_code":"31414"},{"id":"1604101051","district_id":"160410","name":"Kota Negara","postal_code":"31414"},{"id":"1604101052","district_id":"160410","name":"Kota Jaya","postal_code":"31412"},{"id":"1604101054","district_id":"160410","name":"RD. PJKA Bandar Agung","postal_code":"31419"},{"id":"1604101058","district_id":"160410","name":"Sari Bunga Mas","postal_code":"31419"},{"id":"1604101059","district_id":"160410","name":"Bandar Jaya","postal_code":"31419"},{"id":"1604101060","district_id":"160410","name":"Talang Jawa Selatan","postal_code":"31416"},{"id":"1604101061","district_id":"160410","name":"Talang Jawa Utara","postal_code":"31416"},{"id":"1604102012","district_id":"160410","name":"Padang Lengkuas","postal_code":"31419"},{"id":"1604102027","district_id":"160410","name":"Selawi","postal_code":"31419"},{"id":"1604102030","district_id":"160410","name":"Sukanegara","postal_code":"31419"},{"id":"1604102034","district_id":"160410","name":"Kota Raya","postal_code":"31419"},{"id":"1604102035","district_id":"160410","name":"Keban","postal_code":"31419"},{"id":"1604102036","district_id":"160410","name":"Pagar Sari","postal_code":"31419"},{"id":"1604102039","district_id":"160410","name":"Pagar Negara","postal_code":"31419"},{"id":"1604102049","district_id":"160410","name":"Senabing","postal_code":"31419"},{"id":"1604102050","district_id":"160410","name":"Manggul","postal_code":"31419"},{"id":"1604102053","district_id":"160410","name":"Ulak Lebar","postal_code":"31419"},{"id":"1604102055","district_id":"160410","name":"Giri Mulya","postal_code":"31419"},{"id":"1604102056","district_id":"160410","name":"Makarti Tama","postal_code":"31419"},{"id":"1604102057","district_id":"160410","name":"Ulak Mas","postal_code":"31419"}]