[{"id":"1604172001","district_id":"160417","name":"Bunga Mas","postal_code":"31458"},{"id":"1604172002","district_id":"160417","name":"Gunung Kembang","postal_code":"31458"},{"id":"1604172003","district_id":"160417","name":"Tanjung Bindu","postal_code":"31458"},{"id":"1604172004","district_id":"160417","name":"Lubuk Tapang","postal_code":"31458"},{"id":"1604172005","district_id":"160417","name":"Lubuk Nambulan","postal_code":"31458"},{"id":"1604172006","district_id":"160417","name":"Gelumbang","postal_code":"31458"},{"id":"1604172007","district_id":"160417","name":"Gunung Aji","postal_code":"31458"},{"id":"1604172008","district_id":"160417","name":"Gunung Karto","postal_code":"31458"},{"id":"1604172009","district_id":"160417","name":"Karang Endah","postal_code":"31458"},{"id":"1604172010","district_id":"160417","name":"Padu Raksa","postal_code":"31458"},{"id":"1604172011","district_id":"160417","name":"Seronggo","postal_code":"31458"},{"id":"1604172012","district_id":"160417","name":"Datar Serdang","postal_code":"31458"},{"id":"1604172013","district_id":"160417","name":"Batu Urip","postal_code":"31458"},{"id":"1604172014","district_id":"160417","name":"Cecar","postal_code":"31458"},{"id":"1604172015","district_id":"160417","name":"Patikal Lama","postal_code":"31458"},{"id":"1604172016","district_id":"160417","name":"Muara Empayang","postal_code":"31458"},{"id":"1604172017","district_id":"160417","name":"Lubuk Kute","postal_code":"31458"},{"id":"1604172018","district_id":"160417","name":"Patikal Baru","postal_code":"31458"},{"id":"1604172019","district_id":"160417","name":"Gedung Agung","postal_code":"31458"},{"id":"1604172020","district_id":"160417","name":"Babat Lama","postal_code":"31458"},{"id":"1604172021","district_id":"160417","name":"Tanda Raja","postal_code":"31458"},{"id":"1604172022","district_id":"160417","name":"Muara Danau","postal_code":"31458"},{"id":"1604172023","district_id":"160417","name":"Sendawar","postal_code":"31458"},{"id":"1604172024","district_id":"160417","name":"Lubuk Layang Ilir","postal_code":"31458"},{"id":"1604172025","district_id":"160417","name":"Binjai","postal_code":"31458"},{"id":"1604172026","district_id":"160417","name":"Lubuk Layang Ulu","postal_code":"31458"},{"id":"1604172027","district_id":"160417","name":"Cempaka Sakti","postal_code":"31458"},{"id":"1604172028","district_id":"160417","name":"Suka Harjo","postal_code":"31458"},{"id":"1604172029","district_id":"160417","name":"Marga Mulya","postal_code":"31458"},{"id":"1604172030","district_id":"160417","name":"Kencana Sari","postal_code":"31458"},{"id":"1604172031","district_id":"160417","name":"Linggar Jaya","postal_code":"31458"},{"id":"1604172032","district_id":"160417","name":"Purwaraja","postal_code":"31458"}]