[{"id":"1606061038","district_id":"160606","name":"Babat","postal_code":"30752"},{"id":"1606061039","district_id":"160606","name":"Mangun Jaya","postal_code":"30752"},{"id":"1606062001","district_id":"160606","name":"Sereka","postal_code":"30752"},{"id":"1606062002","district_id":"160606","name":"Sugi Raya","postal_code":"30752"},{"id":"1606062003","district_id":"160606","name":"Sugi Waras","postal_code":"30752"},{"id":"1606062004","district_id":"160606","name":"Beruge","postal_code":"30752"},{"id":"1606062005","district_id":"160606","name":"Muara Punjung","postal_code":"30752"},{"id":"1606062007","district_id":"160606","name":"Bangun Sari","postal_code":"30752"},{"id":"1606062008","district_id":"160606","name":"Toman","postal_code":"30752"},{"id":"1606062009","district_id":"160606","name":"Kasmaran","postal_code":"30752"},{"id":"1606062022","district_id":"160606","name":"Sungai Angit","postal_code":"30752"},{"id":"1606062023","district_id":"160606","name":"Srimulyo","postal_code":"30752"},{"id":"1606062042","district_id":"160606","name":"Pangkalan Jaya","postal_code":"30752"},{"id":"1606062043","district_id":"160606","name":"Toman Baru","postal_code":"30752"}]