[{"id":"1607132001","district_id":"160713","name":"Margo Mulyo 16","postal_code":"30976"},{"id":"1607132002","district_id":"160713","name":"Rejo Sari ","postal_code":"30976"},{"id":"1607132003","district_id":"160713","name":"Daya Murni","postal_code":"30976"},{"id":"1607132004","district_id":"160713","name":"Daya Bangun Harjo","postal_code":"30976"},{"id":"1607132005","district_id":"160713","name":"Sumber Mulyo","postal_code":"30976"},{"id":"1607132006","district_id":"160713","name":"Sugih Waras","postal_code":"30976"},{"id":"1607132007","district_id":"160713","name":"Indrapura","postal_code":"30976"},{"id":"1607132008","district_id":"160713","name":"Cendana","postal_code":"30976"},{"id":"1607132009","district_id":"160713","name":"Argo Mulyo","postal_code":"30976"},{"id":"1607132010","district_id":"160713","name":"Tirta Harjo ","postal_code":"30976"},{"id":"1607132011","district_id":"160713","name":"Tirta\/Tirto Mulyo","postal_code":"30976"},{"id":"1607132012","district_id":"160713","name":"Daya Kusuma\/Kesuma","postal_code":"30976"},{"id":"1607132013","district_id":"160713","name":"Marega Rukun ","postal_code":"30976"},{"id":"1607132014","district_id":"160713","name":"Genesa Mukti ","postal_code":"30976"},{"id":"1607132015","district_id":"160713","name":"Timbul Jaya","postal_code":"30976"},{"id":"1607132016","district_id":"160713","name":"Jalur Mulya","postal_code":"30976"},{"id":"1607132017","district_id":"160713","name":"Gilirang","postal_code":"30976"},{"id":"1607132018","district_id":"160713","name":"Juru Taro ","postal_code":"30976"},{"id":"1607132019","district_id":"160713","name":"Kuala\/Kualo Sugihan","postal_code":"30976"},{"id":"1607132020","district_id":"160713","name":"Beringin Agung","postal_code":"30976"},{"id":"1607132021","district_id":"160713","name":"Mekar Jaya","postal_code":"30976"},{"id":"1607132022","district_id":"160713","name":"Sido Makmur","postal_code":"30976"}]