[{"id":"1607212001","district_id":"160721","name":"Penuguan","postal_code":"30959"},{"id":"1607212002","district_id":"160721","name":"Sumber Rejo","postal_code":"30959"},{"id":"1607212003","district_id":"160721","name":"Sumber Mukti","postal_code":"30959"},{"id":"1607212004","district_id":"160721","name":"Sumber Agung","postal_code":"30959"},{"id":"1607212005","district_id":"160721","name":"Wonodadi","postal_code":"30959"},{"id":"1607212006","district_id":"160721","name":"Mekar Sari","postal_code":"30959"},{"id":"1607212007","district_id":"160721","name":"Songo Makmur","postal_code":"30959"},{"id":"1607212008","district_id":"160721","name":"Karang Manunggal","postal_code":"30959"},{"id":"1607212009","district_id":"160721","name":"Purwodadi","postal_code":"30959"},{"id":"1607212010","district_id":"160721","name":"Ringin Harjo","postal_code":"30959"},{"id":"1607212011","district_id":"160721","name":"Bumi Rejo","postal_code":"30959"},{"id":"1607212012","district_id":"160721","name":"Kelapa Dua","postal_code":"30959"}]