[{"id":"1607091012","district_id":"160709","name":"Makarti Jaya","postal_code":"30972"},{"id":"1607092002","district_id":"160709","name":"Delta Upang","postal_code":"30972"},{"id":"1607092006","district_id":"160709","name":"Pendowo Harjo","postal_code":"30972"},{"id":"1607092007","district_id":"160709","name":"Pangestu","postal_code":"30972"},{"id":"1607092008","district_id":"160709","name":"Tirta Kencana","postal_code":"30972"},{"id":"1607092010","district_id":"160709","name":"Upang Makmur","postal_code":"30972"},{"id":"1607092013","district_id":"160709","name":"Upang Mulya","postal_code":"30972"},{"id":"1607092017","district_id":"160709","name":"Purwosari","postal_code":"30972"},{"id":"1607092019","district_id":"160709","name":"Tanjung Mas","postal_code":"30972"},{"id":"1607092020","district_id":"160709","name":"Tanjung Baru","postal_code":"30972"},{"id":"1607092021","district_id":"160709","name":"Sungai Semut","postal_code":"30972"},{"id":"1607092022","district_id":"160709","name":"Muara Baru","postal_code":"30972"}]