[{"id":"1608052001","district_id":"160805","name":"Negeri Pakuan","postal_code":"32367"},{"id":"1608052002","district_id":"160805","name":"Negeri Agung","postal_code":"32367"},{"id":"1608052003","district_id":"160805","name":"Banu Mas ","postal_code":"32367"},{"id":"1608052004","district_id":"160805","name":"Banu Ayu ","postal_code":"32367"},{"id":"1608052005","district_id":"160805","name":"Pulau Negara","postal_code":"32367"},{"id":"1608052006","district_id":"160805","name":"Saung Dadi","postal_code":"32367"},{"id":"1608052007","district_id":"160805","name":"Terantang\/Trantang Sakti","postal_code":"32367"},{"id":"1608052008","district_id":"160805","name":"Pemetung Besuki ","postal_code":"32367"},{"id":"1608052009","district_id":"160805","name":"Pahang Asri","postal_code":"32367"},{"id":"1608052010","district_id":"160805","name":"Bantan","postal_code":"32367"},{"id":"1608052011","district_id":"160805","name":"Bandar Jaya","postal_code":"32367"},{"id":"1608052012","district_id":"160805","name":"Negeri Agung Jaya","postal_code":"32367"},{"id":"1608052013","district_id":"160805","name":"Bantan Pelita","postal_code":"32367"}]