[{"id":"1608172001","district_id":"160817","name":"Rejosari","postal_code":"32380"},{"id":"1608172002","district_id":"160817","name":"Sido Rejo ","postal_code":"32380"},{"id":"1608172003","district_id":"160817","name":"Banjar Rejo","postal_code":"32380"},{"id":"1608172004","district_id":"160817","name":"Panca Tunggal","postal_code":"32380"},{"id":"1608172005","district_id":"160817","name":"Margo Koyo","postal_code":"32380"},{"id":"1608172006","district_id":"160817","name":"Sumber Agung","postal_code":"32380"},{"id":"1608172007","district_id":"160817","name":"Karsa Jaya","postal_code":"32380"},{"id":"1608172008","district_id":"160817","name":"Windusari","postal_code":"32380"},{"id":"1608172009","district_id":"160817","name":"Karya Makmur","postal_code":"32380"},{"id":"1608172010","district_id":"160817","name":"Giri Mulyo","postal_code":"32380"},{"id":"1608172011","district_id":"160817","name":"Magugondo ","postal_code":"32380"},{"id":"1608172012","district_id":"160817","name":"Argomulyo ","postal_code":"32380"},{"id":"1608172013","district_id":"160817","name":"Rejosari Jaya","postal_code":"32380"}]