[{"id":"1609102001","district_id":"160910","name":"Balayan","postal_code":"32279"},{"id":"1609102002","district_id":"160910","name":"Berasang","postal_code":"32279"},{"id":"1609102003","district_id":"160910","name":"Tebat Gabus","postal_code":"32279"},{"id":"1609102004","district_id":"160910","name":"Padang Lay","postal_code":"32279"},{"id":"1609102005","district_id":"160910","name":"Danau Rata","postal_code":"32279"},{"id":"1609102006","district_id":"160910","name":"Pajar Bulan","postal_code":"32279"},{"id":"1609102007","district_id":"160910","name":"Bandar Alam Lama","postal_code":"32279"},{"id":"1609102008","district_id":"160910","name":"Muara Payang","postal_code":"32279"},{"id":"1609102009","district_id":"160910","name":"Siring Agung","postal_code":"32279"},{"id":"1609102010","district_id":"160910","name":"Kota Padang","postal_code":"32279"},{"id":"1609102011","district_id":"160910","name":"Padang Bindu","postal_code":"32279"},{"id":"1609102012","district_id":"160910","name":"Tenang","postal_code":"32279"},{"id":"1609102013","district_id":"160910","name":"Gunung Megang","postal_code":"32279"},{"id":"1609102014","district_id":"160910","name":"Ulak Pandan","postal_code":"32279"},{"id":"1609102015","district_id":"160910","name":"Pulau Panggung","postal_code":"32279"},{"id":"1609102016","district_id":"160910","name":"Simpang Tiga","postal_code":"32279"},{"id":"1609102017","district_id":"160910","name":"Simpang Empat","postal_code":"32279"},{"id":"1609102018","district_id":"160910","name":"Singa Laga","postal_code":"32279"},{"id":"1609102019","district_id":"160910","name":"Air Alun","postal_code":"32279"}]