[{"id":"1612032001","district_id":"161203","name":"Purun","postal_code":"31316"},{"id":"1612032002","district_id":"161203","name":"Gunung Menang","postal_code":"31316"},{"id":"1612032003","district_id":"161203","name":"Mangkunegara","postal_code":"31316"},{"id":"1612032004","district_id":"161203","name":"Raja Jaya","postal_code":"31316"},{"id":"1612032005","district_id":"161203","name":"Air Itam","postal_code":"31316"},{"id":"1612032006","district_id":"161203","name":"Gunung Raja","postal_code":"31316"},{"id":"1612032007","district_id":"161203","name":"Air Itam Timur","postal_code":"31316"},{"id":"1612032008","district_id":"161203","name":"Sungai Langan","postal_code":"31316"},{"id":"1612032009","district_id":"161203","name":"Spantan Jaya","postal_code":"31316"},{"id":"1612032010","district_id":"161203","name":"Babat","postal_code":"31316"},{"id":"1612032011","district_id":"161203","name":"Suka Raja","postal_code":"31316"},{"id":"1612032012","district_id":"161203","name":"Purun Timur","postal_code":"31316"},{"id":"1612032013","district_id":"161203","name":"Mangkunegara Timur","postal_code":"31316"}]