[{"id":"1613061009","district_id":"161306","name":"Karang Jaya","postal_code":"31654"},{"id":"1613062001","district_id":"161306","name":"Bukit Ulu","postal_code":"31654"},{"id":"1613062002","district_id":"161306","name":"Sukaraja","postal_code":"31654"},{"id":"1613062003","district_id":"161306","name":"Lubuk Kumbung","postal_code":"31654"},{"id":"1613062004","district_id":"161306","name":"Muara Batang Empu","postal_code":"31654"},{"id":"1613062005","district_id":"161306","name":"Tanjung Agung","postal_code":"31654"},{"id":"1613062006","district_id":"161306","name":"Rantau Telang","postal_code":"31654"},{"id":"1613062007","district_id":"161306","name":"Suka Menang","postal_code":"31654"},{"id":"1613062008","district_id":"161306","name":"Terusan","postal_code":"31654"},{"id":"1613062010","district_id":"161306","name":"Muara Tiku","postal_code":"31654"},{"id":"1613062011","district_id":"161306","name":"Embacang Baru","postal_code":"31654"},{"id":"1613062012","district_id":"161306","name":"Embacang Lama","postal_code":"31654"},{"id":"1613062013","district_id":"161306","name":"Rantau Jaya","postal_code":"31654"},{"id":"1613062014","district_id":"161306","name":"Bukit Langkap","postal_code":"31654"},{"id":"1613062015","district_id":"161306","name":"Embacang Baru Ilir","postal_code":"31654"}]