[{"id":"1703061009","district_id":"170306","name":"Lubuk Durian","postal_code":"38379"},{"id":"1703062001","district_id":"170306","name":"Talang Jambu","postal_code":"38379"},{"id":"1703062002","district_id":"170306","name":"Tebat Pacur","postal_code":"38379"},{"id":"1703062003","district_id":"170306","name":"Talang Curup","postal_code":"38379"},{"id":"1703062004","district_id":"170306","name":"Banyumas","postal_code":"38379"},{"id":"1703062005","district_id":"170306","name":"Salam Harjo","postal_code":"38379"},{"id":"1703062006","district_id":"170306","name":"Yogja Baru ","postal_code":"38379"},{"id":"1703062007","district_id":"170306","name":"Talang Pasak","postal_code":"38379"},{"id":"1703062008","district_id":"170306","name":"Perbo","postal_code":"38379"},{"id":"1703062010","district_id":"170306","name":"Lubuk Jale","postal_code":"38379"},{"id":"1703062011","district_id":"170306","name":"Simpang Ketenong","postal_code":"38379"},{"id":"1703062012","district_id":"170306","name":"Aur Gading","postal_code":"38379"},{"id":"1703062024","district_id":"170306","name":"Kedu Baru","postal_code":"38379"},{"id":"1703062026","district_id":"170306","name":"Serumbung","postal_code":"38379"},{"id":"1703062027","district_id":"170306","name":"Magelang","postal_code":"38379"},{"id":"1703062028","district_id":"170306","name":"Tanjung Putus","postal_code":"38379"},{"id":"1703062029","district_id":"170306","name":"Penyangkak","postal_code":"38379"},{"id":"1703062031","district_id":"170306","name":"Banyumas Baru","postal_code":"38379"}]