[{"id":"1703162001","district_id":"170316","name":"Pasar Bembah","postal_code":"38373"},{"id":"1703162002","district_id":"170316","name":"Tepi Laut","postal_code":"38373"},{"id":"1703162003","district_id":"170316","name":"Pasar Kerkap","postal_code":"38373"},{"id":"1703162005","district_id":"170316","name":"Air Napal","postal_code":"38373"},{"id":"1703162006","district_id":"170316","name":"Talang Kering","postal_code":"38373"},{"id":"1703162007","district_id":"170316","name":"Selubuk","postal_code":"38373"},{"id":"1703162008","district_id":"170316","name":"Pasar Tebat","postal_code":"38373"},{"id":"1703162009","district_id":"170316","name":"Lubuk Tanjung","postal_code":"38373"},{"id":"1703162011","district_id":"170316","name":"Pukur","postal_code":"38373"},{"id":"1703162014","district_id":"170316","name":"Pasar Palik","postal_code":"38373"},{"id":"1703162015","district_id":"170316","name":"Tebing Kandang","postal_code":"38373"},{"id":"1703162016","district_id":"170316","name":"Talang Jarang","postal_code":"38373"}]