[{"id":"1703152003","district_id":"170315","name":"Genting Perangkap","postal_code":"38575"},{"id":"1703152004","district_id":"170315","name":"Lubuk Balam","postal_code":"38575"},{"id":"1703152005","district_id":"170315","name":"Datar Mancang ","postal_code":"38575"},{"id":"1703152006","district_id":"170315","name":"Tanjung Genting","postal_code":"38575"},{"id":"1703152007","district_id":"170315","name":"Talang Renah","postal_code":"38575"},{"id":"1703152008","district_id":"170315","name":"Kota Agung","postal_code":"38575"},{"id":"1703152009","district_id":"170315","name":"Talang Lembak","postal_code":"38575"},{"id":"1703152010","district_id":"170315","name":"Kertapati","postal_code":"38575"},{"id":"1703152011","district_id":"170315","name":"Talang Pungguk","postal_code":"38575"},{"id":"1703152012","district_id":"170315","name":"Teluk Baru Ginting ","postal_code":"38575"},{"id":"1703152013","district_id":"170315","name":"Tanjung Karet","postal_code":"38575"},{"id":"1703152014","district_id":"170315","name":"Talang Ginting","postal_code":"38575"},{"id":"1703152015","district_id":"170315","name":"Sungai Pura","postal_code":"38575"},{"id":"1703152016","district_id":"170315","name":"Curup ","postal_code":"38575"},{"id":"1703152017","district_id":"170315","name":"Penyangkak","postal_code":"38575"}]