[{"id":"1705011001","district_id":"170501","name":"Babatan","postal_code":"38877"},{"id":"1705011025","district_id":"170501","name":"Sukaraja","postal_code":"38877"},{"id":"1705012002","district_id":"170501","name":"Niur","postal_code":"38877"},{"id":"1705012003","district_id":"170501","name":"Lubuk Sahung","postal_code":"38877"},{"id":"1705012011","district_id":"170501","name":"Bukit Peninjauan I","postal_code":"38877"},{"id":"1705012026","district_id":"170501","name":"Padang Pelawi","postal_code":"38877"},{"id":"1705012027","district_id":"170501","name":"Kayu Arang","postal_code":"38877"},{"id":"1705012028","district_id":"170501","name":"Jenggalu","postal_code":"38877"},{"id":"1705012029","district_id":"170501","name":"Cahaya Negeri","postal_code":"38877"},{"id":"1705012030","district_id":"170501","name":"Bukit Peninjauan II","postal_code":"38877"},{"id":"1705012032","district_id":"170501","name":"Riak Siabun","postal_code":"38877"},{"id":"1705012033","district_id":"170501","name":"Padang Kuas","postal_code":"38877"},{"id":"1705012034","district_id":"170501","name":"Kuti Agung","postal_code":"38877"},{"id":"1705012035","district_id":"170501","name":"Riak Siabun I","postal_code":"38877"},{"id":"1705012036","district_id":"170501","name":"Sido Luhur","postal_code":"38877"},{"id":"1705012037","district_id":"170501","name":"Sumber Arung","postal_code":"38877"},{"id":"1705012038","district_id":"170501","name":"Sido Sari","postal_code":"38877"},{"id":"1705012039","district_id":"170501","name":"Sari Mulyo","postal_code":"38877"},{"id":"1705012043","district_id":"170501","name":"Air Kemuning","postal_code":"38877"},{"id":"1705012044","district_id":"170501","name":"Sumber Makmur","postal_code":"38877"},{"id":"1705012045","district_id":"170501","name":"Air Petai","postal_code":"38877"}]