[{"id":"1708072001","district_id":"170807","name":"Benuang Galing","postal_code":"39377"},{"id":"1708072002","district_id":"170807","name":"Air Selimang","postal_code":"39377"},{"id":"1708072003","district_id":"170807","name":"Tebat Laut","postal_code":"39377"},{"id":"1708072004","district_id":"170807","name":"Temdak","postal_code":"39377"},{"id":"1708072005","district_id":"170807","name":"Taba Padang","postal_code":"39377"},{"id":"1708072006","district_id":"170807","name":"Lubuk Saung","postal_code":"39377"},{"id":"1708072007","district_id":"170807","name":"Kandang","postal_code":"39377"},{"id":"1708072008","district_id":"170807","name":"Cirebon Baru","postal_code":"39377"},{"id":"1708072009","district_id":"170807","name":"Talang Gelompok","postal_code":"39377"},{"id":"1708072010","district_id":"170807","name":"Air Pesi","postal_code":"39377"},{"id":"1708072011","district_id":"170807","name":"Talang Babatan","postal_code":"39377"},{"id":"1708072012","district_id":"170807","name":"Bayung","postal_code":"39377"},{"id":"1708072013","district_id":"170807","name":"Sungai Jernih","postal_code":"39377"}]