[{"id":"1801061006","district_id":"180106","name":"Bumi Agung","postal_code":"35551"},{"id":"1801061007","district_id":"180106","name":"Kalianda","postal_code":"35551"},{"id":"1801061008","district_id":"180106","name":"Way Urang","postal_code":"35551"},{"id":"1801061028","district_id":"180106","name":"Wai Lubuk","postal_code":"35551"},{"id":"1801062001","district_id":"180106","name":"Jondong","postal_code":"35551"},{"id":"1801062002","district_id":"180106","name":"Tengkujuh","postal_code":"35551"},{"id":"1801062003","district_id":"180106","name":"Pauh Tanjung Iman","postal_code":"35551"},{"id":"1801062004","district_id":"180106","name":"Sumur Kumbang","postal_code":"35551"},{"id":"1801062005","district_id":"180106","name":"Maja","postal_code":"35551"},{"id":"1801062009","district_id":"180106","name":"Buah Berak","postal_code":"35551"},{"id":"1801062010","district_id":"180106","name":"Kesugihan","postal_code":"35551"},{"id":"1801062011","district_id":"180106","name":"Pematang","postal_code":"35551"},{"id":"1801062012","district_id":"180106","name":"Kecapi","postal_code":"35551"},{"id":"1801062013","district_id":"180106","name":"Babulang","postal_code":"35551"},{"id":"1801062014","district_id":"180106","name":"Sukaratu","postal_code":"35551"},{"id":"1801062015","district_id":"180106","name":"Palembapang","postal_code":"35551"},{"id":"1801062016","district_id":"180106","name":"Tajimalela","postal_code":"35551"},{"id":"1801062017","district_id":"180106","name":"Canggu","postal_code":"35551"},{"id":"1801062018","district_id":"180106","name":"Kedaton","postal_code":"35551"},{"id":"1801062019","district_id":"180106","name":"Merak Belatung","postal_code":"35551"},{"id":"1801062020","district_id":"180106","name":"Bulok","postal_code":"35551"},{"id":"1801062021","district_id":"180106","name":"Munjuk Sampurna","postal_code":"35551"},{"id":"1801062022","district_id":"180106","name":"Gunung Terang","postal_code":"35551"},{"id":"1801062023","district_id":"180106","name":"Margacatur","postal_code":"35551"},{"id":"1801062024","district_id":"180106","name":"Sukatani","postal_code":"35551"},{"id":"1801062025","district_id":"180106","name":"Agom","postal_code":"35551"},{"id":"1801062026","district_id":"180106","name":"Negeri Pandan","postal_code":"35551"},{"id":"1801062027","district_id":"180106","name":"Taman Agung","postal_code":"35551"},{"id":"1801062029","district_id":"180106","name":"Hara Banjar Manis","postal_code":"35551"}]