[{"id":"1801082001","district_id":"180108","name":"Tarahan","postal_code":"35452"},{"id":"1801082002","district_id":"180108","name":"Babatan","postal_code":"35452"},{"id":"1801082003","district_id":"180108","name":"Pardasuka","postal_code":"35452"},{"id":"1801082004","district_id":"180108","name":"Sukajaya","postal_code":"35452"},{"id":"1801082005","district_id":"180108","name":"Tanjung Ratu ","postal_code":"35452"},{"id":"1801082006","district_id":"180108","name":"Tanjung Agung ","postal_code":"35452"},{"id":"1801082007","district_id":"180108","name":"Tanjungan","postal_code":"35452"},{"id":"1801082008","district_id":"180108","name":"Trans Tanjungan","postal_code":"35452"},{"id":"1801082009","district_id":"180108","name":"Neglasari","postal_code":"35452"},{"id":"1801082018","district_id":"180108","name":"Karya Tunggal","postal_code":"35452"},{"id":"1801082019","district_id":"180108","name":"Rangai Tri Tunggal","postal_code":"35452"},{"id":"1801082020","district_id":"180108","name":"Sidomekar","postal_code":"35452"}]