[{"id":"1805132001","district_id":"180513","name":"Tri Rejo Mulyo","postal_code":"34593"},{"id":"1805132002","district_id":"180513","name":"Tri Jaya","postal_code":"34593"},{"id":"1805132005","district_id":"180513","name":"Sidoharjo","postal_code":"34593"},{"id":"1805132006","district_id":"180513","name":"Sidomulyo","postal_code":"34593"},{"id":"1805132010","district_id":"180513","name":"Bogatama ","postal_code":"34593"},{"id":"1805132011","district_id":"180513","name":"Wiratama","postal_code":"34593"},{"id":"1805132013","district_id":"180513","name":"Tri Tunggal Jaya","postal_code":"34593"},{"id":"1805132019","district_id":"180513","name":"Pulo Gadung","postal_code":"34593"},{"id":"1805132020","district_id":"180513","name":"Sidodadi","postal_code":"34593"},{"id":"1805132021","district_id":"180513","name":"Dwimulyo ","postal_code":"34593"},{"id":"1805132022","district_id":"180513","name":"Rejo Sari ","postal_code":"34593"},{"id":"1805132023","district_id":"180513","name":"Wira Agung Sari ","postal_code":"34593"},{"id":"1805132024","district_id":"180513","name":"Sidomakmur","postal_code":"34593"},{"id":"1805132025","district_id":"180513","name":"Trikarya ","postal_code":"34593"}]