[{"id":"1806032001","district_id":"180603","name":"Karang Anyar","postal_code":"35685"},{"id":"1806032002","district_id":"180603","name":"Kalirejo","postal_code":"35685"},{"id":"1806032003","district_id":"180603","name":"Dadirejo","postal_code":"35685"},{"id":"1806032004","district_id":"180603","name":"Banyu Urip","postal_code":"35685"},{"id":"1806032005","district_id":"180603","name":"Wonosobo","postal_code":"35685"},{"id":"1806032006","district_id":"180603","name":"Soponyono","postal_code":"35685"},{"id":"1806032007","district_id":"180603","name":"Bandar Kejadian","postal_code":"35685"},{"id":"1806032008","district_id":"180603","name":"Way Panas","postal_code":"35685"},{"id":"1806032009","district_id":"180603","name":"Sinar Saudara","postal_code":"35685"},{"id":"1806032010","district_id":"180603","name":"Sridadi","postal_code":"35685"},{"id":"1806032011","district_id":"180603","name":"Lakaran","postal_code":"35685"},{"id":"1806032012","district_id":"180603","name":"Padang Ratu","postal_code":"35685"},{"id":"1806032013","district_id":"180603","name":"Pardasuka","postal_code":"35685"},{"id":"1806032014","district_id":"180603","name":"Tanjung Kurung","postal_code":"35685"},{"id":"1806032015","district_id":"180603","name":"Padang Manis","postal_code":"35685"},{"id":"1806032016","district_id":"180603","name":"Kejadian","postal_code":"35685"},{"id":"1806032017","district_id":"180603","name":"Dadisari","postal_code":"35685"},{"id":"1806032018","district_id":"180603","name":"Kalisari","postal_code":"35685"},{"id":"1806032019","district_id":"180603","name":"Banjar Negoro","postal_code":"35685"},{"id":"1806032020","district_id":"180603","name":"Pekon Balak","postal_code":"35685"},{"id":"1806032021","district_id":"180603","name":"Kunyayan","postal_code":"35685"},{"id":"1806032022","district_id":"180603","name":"Banjar Sari","postal_code":"35685"},{"id":"1806032023","district_id":"180603","name":"Negeri Ngarip","postal_code":"35685"},{"id":"1806032034","district_id":"180603","name":"Dadimulyo","postal_code":"35685"},{"id":"1806032035","district_id":"180603","name":"Sampang Turus","postal_code":"35685"},{"id":"1806032036","district_id":"180603","name":"Sri Melati","postal_code":"35685"},{"id":"1806032037","district_id":"180603","name":"Way Liwok","postal_code":"35685"},{"id":"1806032038","district_id":"180603","name":"Sumur Tujuh","postal_code":"35685"}]