[{"id":"1806022012","district_id":"180602","name":"Kalibening","postal_code":"35377"},{"id":"1806022015","district_id":"180602","name":"Kejayaan","postal_code":"35377"},{"id":"1806022016","district_id":"180602","name":"Suka Bumi","postal_code":"35377"},{"id":"1806022017","district_id":"180602","name":"Suka Negeri Jaya","postal_code":"35377"},{"id":"1806022018","district_id":"180602","name":"Banjar Sari","postal_code":"35377"},{"id":"1806022019","district_id":"180602","name":"Singosari","postal_code":"35377"},{"id":"1806022020","district_id":"180602","name":"Sinar Banten","postal_code":"35377"},{"id":"1806022021","district_id":"180602","name":"Sukarame","postal_code":"35377"},{"id":"1806022022","district_id":"180602","name":"Banding Agung","postal_code":"35377"},{"id":"1806022023","district_id":"180602","name":"Talang Padang","postal_code":"35377"},{"id":"1806022024","district_id":"180602","name":"Suka Negeri","postal_code":"35377"},{"id":"1806022025","district_id":"180602","name":"Suka Bandung","postal_code":"35377"},{"id":"1806022026","district_id":"180602","name":"Suka Merindu","postal_code":"35377"},{"id":"1806022027","district_id":"180602","name":"Sinar Semendo","postal_code":"35377"},{"id":"1806022028","district_id":"180602","name":"Negeri Agung","postal_code":"35377"},{"id":"1806022029","district_id":"180602","name":"Sinar Petir","postal_code":"35377"},{"id":"1806022030","district_id":"180602","name":"Way Halom","postal_code":"35377"},{"id":"1806022031","district_id":"180602","name":"Talang Sepuh","postal_code":"35377"},{"id":"1806022032","district_id":"180602","name":"Sinar Harapan","postal_code":"35377"},{"id":"1806022033","district_id":"180602","name":"Sinar Betung","postal_code":"35377"}]