[{"id":"1806152001","district_id":"180615","name":"Datarajan","postal_code":"35387"},{"id":"1806152002","district_id":"180615","name":"Gunung Tiga ","postal_code":"35387"},{"id":"1806152003","district_id":"180615","name":"Karang Rejo ","postal_code":"35387"},{"id":"1806152004","district_id":"180615","name":"Pagar Alam Ulu Belu ","postal_code":"35387"},{"id":"1806152005","district_id":"180615","name":"Muara Dua Ulu Belu","postal_code":"35387"},{"id":"1806152006","district_id":"180615","name":"Ngarip","postal_code":"35387"},{"id":"1806152007","district_id":"180615","name":"Penantian Ulubelu","postal_code":"35387"},{"id":"1806152008","district_id":"180615","name":"Gunung Sari","postal_code":"35387"},{"id":"1806152009","district_id":"180615","name":"Ulu Semong","postal_code":"35387"},{"id":"1806152010","district_id":"180615","name":"Sirna Galih ","postal_code":"35387"},{"id":"1806152011","district_id":"180615","name":"Rejo Sari ","postal_code":"35387"},{"id":"1806152012","district_id":"180615","name":"Suka Maju","postal_code":"35387"},{"id":"1806152013","district_id":"180615","name":"Tanjung Baru","postal_code":"35387"},{"id":"1806152014","district_id":"180615","name":"Sinar Banten","postal_code":"35387"},{"id":"1806152015","district_id":"180615","name":"Air Abang","postal_code":"35387"},{"id":"1806152016","district_id":"180615","name":"Petay Kayu","postal_code":"35387"}]