[{"id":"1807042001","district_id":"180704","name":"Pekalongan","postal_code":"34391"},{"id":"1807042002","district_id":"180704","name":"Adirejo","postal_code":"34391"},{"id":"1807042003","district_id":"180704","name":"Sidodadi","postal_code":"34391"},{"id":"1807042004","district_id":"180704","name":"Gondangrejo","postal_code":"34391"},{"id":"1807042005","district_id":"180704","name":"Siraman","postal_code":"34391"},{"id":"1807042006","district_id":"180704","name":"Tulusrejo","postal_code":"34391"},{"id":"1807042007","district_id":"180704","name":"Jojog","postal_code":"34391"},{"id":"1807042008","district_id":"180704","name":"Ganti Warno","postal_code":"34391"},{"id":"1807042009","district_id":"180704","name":"Kalibening","postal_code":"34391"},{"id":"1807042010","district_id":"180704","name":"Wonosari","postal_code":"34391"},{"id":"1807042011","district_id":"180704","name":"Gantimulyo","postal_code":"34391"},{"id":"1807042012","district_id":"180704","name":"Adijaya","postal_code":"34391"}]