[{"id":"1808031006","district_id":"180803","name":"Pasar Banjit ","postal_code":"34766"},{"id":"1808032001","district_id":"180803","name":"Bonglai ","postal_code":"34766"},{"id":"1808032002","district_id":"180803","name":"Campang Lapan ","postal_code":"34766"},{"id":"1808032003","district_id":"180803","name":"Sumber Baru","postal_code":"34766"},{"id":"1808032004","district_id":"180803","name":"Rantau Temiang","postal_code":"34766"},{"id":"1808032005","district_id":"180803","name":"Juku Batu","postal_code":"34766"},{"id":"1808032007","district_id":"180803","name":"Bali Sadhar Tengah","postal_code":"34766"},{"id":"1808032008","district_id":"180803","name":"Donomulyo","postal_code":"34766"},{"id":"1808032009","district_id":"180803","name":"Bali Sadhar Utara","postal_code":"34766"},{"id":"1808032010","district_id":"180803","name":"Bali Sadhar Selatan","postal_code":"34766"},{"id":"1808032011","district_id":"180803","name":"Menanga Jaya","postal_code":"34766"},{"id":"1808032012","district_id":"180803","name":"Argomulyo ","postal_code":"34766"},{"id":"1808032013","district_id":"180803","name":"Rantau Jaya","postal_code":"34766"},{"id":"1808032014","district_id":"180803","name":"Rebang Tinggi","postal_code":"34766"},{"id":"1808032015","district_id":"180803","name":"Simpang Asam","postal_code":"34766"},{"id":"1808032016","district_id":"180803","name":"Bandar Agung","postal_code":"34766"},{"id":"1808032017","district_id":"180803","name":"Kemu","postal_code":"34766"},{"id":"1808032018","district_id":"180803","name":"Menanga Siamang","postal_code":"34766"},{"id":"1808032019","district_id":"180803","name":"Neki","postal_code":"34766"},{"id":"1808032020","district_id":"180803","name":"Sumber Sari","postal_code":"34766"}]