[{"id":"1808011005","district_id":"180801","name":"Blambangan Umpu","postal_code":"34764"},{"id":"1808012006","district_id":"180801","name":"Lembasung","postal_code":"34764"},{"id":"1808012009","district_id":"180801","name":"Gunung Sangkaran","postal_code":"34764"},{"id":"1808012010","district_id":"180801","name":"Tanjung Raja Giham","postal_code":"34764"},{"id":"1808012011","district_id":"180801","name":"Segara Mider","postal_code":"34764"},{"id":"1808012012","district_id":"180801","name":"Umpu Bhakti","postal_code":"34764"},{"id":"1808012013","district_id":"180801","name":"Sangkaran Bhakti","postal_code":"34764"},{"id":"1808012014","district_id":"180801","name":"Bumi Baru","postal_code":"34764"},{"id":"1808012015","district_id":"180801","name":"Tanjung Sari","postal_code":"34764"},{"id":"1808012016","district_id":"180801","name":"Sri Rejeki","postal_code":"34764"},{"id":"1808012017","district_id":"180801","name":"Karang Umpu","postal_code":"34764"},{"id":"1808012018","district_id":"180801","name":"Umpu Kencana","postal_code":"34764"},{"id":"1808012022","district_id":"180801","name":"Tanjung Raja Sakti","postal_code":"34764"}]