[{"id":"1809032001","district_id":"180903","name":"Bumi Agung","postal_code":"35363"},{"id":"1809032002","district_id":"180903","name":"Kejadian","postal_code":"35363"},{"id":"1809032003","district_id":"180903","name":"Batang Hari Ogan","postal_code":"35363"},{"id":"1809032004","district_id":"180903","name":"Negara Ratu Wates","postal_code":"35363"},{"id":"1809032005","district_id":"180903","name":"Gunung Sugih Baru","postal_code":"35363"},{"id":"1809032006","district_id":"180903","name":"Gedung Gumanti","postal_code":"35363"},{"id":"1809032007","district_id":"180903","name":"Kresno Widodo","postal_code":"35363"},{"id":"1809032008","district_id":"180903","name":"Sinarjati","postal_code":"35363"},{"id":"1809032009","district_id":"180903","name":"Margo Rejo","postal_code":"35363"},{"id":"1809032010","district_id":"180903","name":"Gerning","postal_code":"35363"},{"id":"1809032011","district_id":"180903","name":"Panca Bakti","postal_code":"35363"},{"id":"1809032012","district_id":"180903","name":"Margo Mulyo","postal_code":"35363"},{"id":"1809032013","district_id":"180903","name":"Rejo Agung","postal_code":"35363"},{"id":"1809032014","district_id":"180903","name":"Kota Agung","postal_code":"35363"},{"id":"1809032015","district_id":"180903","name":"Trimulyo","postal_code":"35363"},{"id":"1809032016","district_id":"180903","name":"Sriwedari","postal_code":"35363"}]