[{"id":"1810082001","district_id":"181008","name":"Sinar Baru","postal_code":"35673"},{"id":"1810082002","district_id":"181008","name":"Sukoharjo I","postal_code":"35673"},{"id":"1810082003","district_id":"181008","name":"Sukoharjo II","postal_code":"35673"},{"id":"1810082004","district_id":"181008","name":"Sukoharjo III","postal_code":"35673"},{"id":"1810082005","district_id":"181008","name":"Sukoharjo IV","postal_code":"35673"},{"id":"1810082006","district_id":"181008","name":"Panggungrejo","postal_code":"35673"},{"id":"1810082007","district_id":"181008","name":"Pandan Sari","postal_code":"35673"},{"id":"1810082008","district_id":"181008","name":"Pandan Surat","postal_code":"35673"},{"id":"1810082009","district_id":"181008","name":"Keputran","postal_code":"35673"},{"id":"1810082010","district_id":"181008","name":"Sukoyoso","postal_code":"35673"},{"id":"1810082011","district_id":"181008","name":"Siliwangi","postal_code":"35673"},{"id":"1810082012","district_id":"181008","name":"Waringinsari Barat","postal_code":"35673"},{"id":"1810082013","district_id":"181008","name":"Pandan Sari Selatan","postal_code":"35673"},{"id":"1810082014","district_id":"181008","name":"Sinar Baru Timur","postal_code":"35673"},{"id":"1810082015","district_id":"181008","name":"Panggung Rejo Utara","postal_code":"35673"},{"id":"1810082016","district_id":"181008","name":"Sukoharjo III Barat","postal_code":"35673"}]