[{"id":"1810011001","district_id":"181001","name":"Fajaresuk ","postal_code":"35371"},{"id":"1810011002","district_id":"181001","name":"Pringsewu Utara","postal_code":"35371"},{"id":"1810011003","district_id":"181001","name":"Pringsewu Selatan","postal_code":"35371"},{"id":"1810011004","district_id":"181001","name":"Pringsewu Barat","postal_code":"35371"},{"id":"1810011005","district_id":"181001","name":"Pringsewu Timur","postal_code":"35371"},{"id":"1810012006","district_id":"181001","name":"Margakaya","postal_code":"35371"},{"id":"1810012007","district_id":"181001","name":"Waluyojati","postal_code":"35371"},{"id":"1810012008","district_id":"181001","name":"Sidoharjo","postal_code":"35371"},{"id":"1810012009","district_id":"181001","name":"Podomoro","postal_code":"35371"},{"id":"1810012010","district_id":"181001","name":"Bumi Arum","postal_code":"35371"},{"id":"1810012011","district_id":"181001","name":"Pajar\/Fajar Agung","postal_code":"35371"},{"id":"1810012012","district_id":"181001","name":"Rejo Sari ","postal_code":"35371"},{"id":"1810012013","district_id":"181001","name":"Bumi Ayu","postal_code":"35371"},{"id":"1810012014","district_id":"181001","name":"Podosari","postal_code":"35371"},{"id":"1810012015","district_id":"181001","name":"Fajar Agung Barat","postal_code":"35371"}]