[{"id":"1812032001","district_id":"181203","name":"Karta","postal_code":"34791"},{"id":"1812032002","district_id":"181203","name":"Karta Sari","postal_code":"34791"},{"id":"1812032003","district_id":"181203","name":"Karta Raharja","postal_code":"34791"},{"id":"1812032004","district_id":"181203","name":"Gunung Katun Tanjungan","postal_code":"34791"},{"id":"1812032005","district_id":"181203","name":"Gunung Katun Malai","postal_code":"34791"},{"id":"1812032006","district_id":"181203","name":"Gedung Ratu","postal_code":"34791"},{"id":"1812032007","district_id":"181203","name":"Kagungan Ratu","postal_code":"34791"},{"id":"1812032008","district_id":"181203","name":"Marga Kencana","postal_code":"34791"},{"id":"1812032009","district_id":"181203","name":"Wai Sido","postal_code":"34791"},{"id":"1812032010","district_id":"181203","name":"Kagungan Ratu Agung","postal_code":"34791"},{"id":"1812032011","district_id":"181203","name":"Gading Kencana","postal_code":"34791"},{"id":"1812032012","district_id":"181203","name":"Karta Raya","postal_code":"34791"},{"id":"1812032013","district_id":"181203","name":"Karta Tanjung Selamat","postal_code":"34791"}]