[{"id":"1902022001","district_id":"190202","name":"Membalong","postal_code":"33452"},{"id":"1902022002","district_id":"190202","name":"Perpat","postal_code":"33452"},{"id":"1902022003","district_id":"190202","name":"Lassar","postal_code":"33452"},{"id":"1902022004","district_id":"190202","name":"Simpang Rusa","postal_code":"33452"},{"id":"1902022005","district_id":"190202","name":"Kembiri","postal_code":"33452"},{"id":"1902022006","district_id":"190202","name":"Bantan","postal_code":"33452"},{"id":"1902022007","district_id":"190202","name":"Tanjungrusa ","postal_code":"33452"},{"id":"1902022008","district_id":"190202","name":"Mentigi","postal_code":"33452"},{"id":"1902022009","district_id":"190202","name":"Pulau Seliu","postal_code":"33452"},{"id":"1902022010","district_id":"190202","name":"Pulau Sumedang","postal_code":"33452"},{"id":"1902022011","district_id":"190202","name":"Gunung Riting","postal_code":"33452"},{"id":"1902022012","district_id":"190202","name":"Padang Kandis","postal_code":"33452"}]