[{"id":"2104041006","district_id":"210404","name":"Raya","postal_code":"29875"},{"id":"2104042001","district_id":"210404","name":"Bakong","postal_code":"29875"},{"id":"2104042002","district_id":"210404","name":"Kuala Raya","postal_code":"29875"},{"id":"2104042003","district_id":"210404","name":"Marok Tua","postal_code":"29875"},{"id":"2104042005","district_id":"210404","name":"Sungai Buluh","postal_code":"29875"},{"id":"2104042007","district_id":"210404","name":"Sungai Raya","postal_code":"29875"},{"id":"2104042008","district_id":"210404","name":"Sungai Harapan","postal_code":"29875"},{"id":"2104042009","district_id":"210404","name":"Jagoh ","postal_code":"29875"},{"id":"2104042012","district_id":"210404","name":"Tinjul","postal_code":"29875"},{"id":"2104042013","district_id":"210404","name":"Langkap","postal_code":"29875"},{"id":"2104042014","district_id":"210404","name":"Tanjung Irat","postal_code":"29875"},{"id":"2104042015","district_id":"210404","name":"Bukit Belah","postal_code":"29875"}]