[{"id":"3201152001","district_id":"320115","name":"Ciampea","postal_code":"16620"},{"id":"3201152002","district_id":"320115","name":"Cinangka","postal_code":"16620"},{"id":"3201152003","district_id":"320115","name":"Cihideungudik","postal_code":"16620"},{"id":"3201152004","district_id":"320115","name":"Bojongjengkol","postal_code":"16620"},{"id":"3201152005","district_id":"320115","name":"Tegalwaru","postal_code":"16620"},{"id":"3201152006","district_id":"320115","name":"Cibuntu","postal_code":"16620"},{"id":"3201152007","district_id":"320115","name":"Cicadas","postal_code":"16620"},{"id":"3201152008","district_id":"320115","name":"Cibadak","postal_code":"16620"},{"id":"3201152009","district_id":"320115","name":"Bojongrangkas","postal_code":"16620"},{"id":"3201152010","district_id":"320115","name":"Cihideunghilir","postal_code":"16620"},{"id":"3201152011","district_id":"320115","name":"Cibanteng","postal_code":"16620"},{"id":"3201152012","district_id":"320115","name":"Benteng","postal_code":"16620"},{"id":"3201152013","district_id":"320115","name":"Ciampea Udik","postal_code":"16620"}]