[{"id":"3201172001","district_id":"320117","name":"Purwabakti","postal_code":"16812"},{"id":"3201172002","district_id":"320117","name":"Cibunian","postal_code":"16812"},{"id":"3201172003","district_id":"320117","name":"Cibitungwetan","postal_code":"16812"},{"id":"3201172004","district_id":"320117","name":"Gunungmenyan","postal_code":"16812"},{"id":"3201172005","district_id":"320117","name":"Gunungbunder II","postal_code":"16812"},{"id":"3201172006","district_id":"320117","name":"Pasarean","postal_code":"16812"},{"id":"3201172007","district_id":"320117","name":"Cimayang","postal_code":"16812"},{"id":"3201172008","district_id":"320117","name":"Pamijahan","postal_code":"16812"},{"id":"3201172009","district_id":"320117","name":"Cibening","postal_code":"16812"},{"id":"3201172010","district_id":"320117","name":"Gunungbunder I","postal_code":"16812"},{"id":"3201172011","district_id":"320117","name":"Cibitung Kulon","postal_code":"16812"},{"id":"3201172012","district_id":"320117","name":"Gunung Picung","postal_code":"16812"},{"id":"3201172013","district_id":"320117","name":"Ciasihan","postal_code":"16812"},{"id":"3201172014","district_id":"320117","name":"Gunungsari","postal_code":"16812"},{"id":"3201172015","district_id":"320117","name":"Ciasmara","postal_code":"16812"}]