[{"id":"3202052001","district_id":"320205","name":"Cisolok","postal_code":"43366"},{"id":"3202052002","district_id":"320205","name":"Pasir Baru","postal_code":"43366"},{"id":"3202052003","district_id":"320205","name":"Cikahuripan","postal_code":"43366"},{"id":"3202052004","district_id":"320205","name":"Cikelat","postal_code":"43366"},{"id":"3202052005","district_id":"320205","name":"Caringin","postal_code":"43366"},{"id":"3202052006","district_id":"320205","name":"Gunungkaramat","postal_code":"43366"},{"id":"3202052007","district_id":"320205","name":"Gunungtanjung","postal_code":"43366"},{"id":"3202052008","district_id":"320205","name":"Karangpapak","postal_code":"43366"},{"id":"3202052009","district_id":"320205","name":"Sirnaresmi","postal_code":"43366"},{"id":"3202052010","district_id":"320205","name":"Cicadas","postal_code":"43366"},{"id":"3202052011","district_id":"320205","name":"Wanajaya","postal_code":"43366"},{"id":"3202052012","district_id":"320205","name":"Wangunsari","postal_code":"43366"},{"id":"3202052013","district_id":"320205","name":"Sukarame","postal_code":"43366"}]