[{"id":"3203032001","district_id":"320303","name":"Cipetir","postal_code":"43262"},{"id":"3203032002","district_id":"320303","name":"Cihaur","postal_code":"43262"},{"id":"3203032003","district_id":"320303","name":"Cimanggu","postal_code":"43262"},{"id":"3203032004","district_id":"320303","name":"Cibaregbeg","postal_code":"43262"},{"id":"3203032005","district_id":"320303","name":"Sukaraharja","postal_code":"43262"},{"id":"3203032006","district_id":"320303","name":"Peuteuycondong","postal_code":"43262"},{"id":"3203032007","district_id":"320303","name":"Mayak","postal_code":"43262"},{"id":"3203032008","district_id":"320303","name":"Cikondang","postal_code":"43262"},{"id":"3203032009","district_id":"320303","name":"Cibokor","postal_code":"43262"},{"id":"3203032010","district_id":"320303","name":"Selagedang ","postal_code":"43262"},{"id":"3203032011","district_id":"320303","name":"Karangnunggal","postal_code":"43262"},{"id":"3203032012","district_id":"320303","name":"Kanoman","postal_code":"43262"},{"id":"3203032013","district_id":"320303","name":"Sukamaju","postal_code":"43262"},{"id":"3203032014","district_id":"320303","name":"Girimulya","postal_code":"43262"},{"id":"3203032015","district_id":"320303","name":"Cisalak","postal_code":"43262"},{"id":"3203032016","district_id":"320303","name":"Cibadak","postal_code":"43262"},{"id":"3203032017","district_id":"320303","name":"Sukamanah","postal_code":"43262"},{"id":"3203032018","district_id":"320303","name":"Salamnunggal","postal_code":"43262"}]