[{"id":"3205041012","district_id":"320504","name":"Pananjung","postal_code":"44151"},{"id":"3205042001","district_id":"320504","name":"Sukajadi","postal_code":"44151"},{"id":"3205042002","district_id":"320504","name":"Cimanganten","postal_code":"44151"},{"id":"3205042003","district_id":"320504","name":"Jati","postal_code":"44151"},{"id":"3205042004","district_id":"320504","name":"Rancabango","postal_code":"44151"},{"id":"3205042005","district_id":"320504","name":"Sukawangi","postal_code":"44151"},{"id":"3205042006","district_id":"320504","name":"Sirnajaya","postal_code":"44151"},{"id":"3205042007","district_id":"320504","name":"Tanjung Kamuning ","postal_code":"44151"},{"id":"3205042008","district_id":"320504","name":"Mekarjaya","postal_code":"44151"},{"id":"3205042009","district_id":"320504","name":"Langensari","postal_code":"44151"},{"id":"3205042010","district_id":"320504","name":"Mekarwangi","postal_code":"44151"},{"id":"3205042011","district_id":"320504","name":"Pasawahan","postal_code":"44151"},{"id":"3205042013","district_id":"320504","name":"Panjiwangi","postal_code":"44151"}]