[{"id":"3205222001","district_id":"320522","name":"Cikajang","postal_code":"44171"},{"id":"3205222002","district_id":"320522","name":"Simpang","postal_code":"44171"},{"id":"3205222003","district_id":"320522","name":"Mekarsari","postal_code":"44171"},{"id":"3205222004","district_id":"320522","name":"Girijaya","postal_code":"44171"},{"id":"3205222005","district_id":"320522","name":"Giriawas","postal_code":"44171"},{"id":"3205222006","district_id":"320522","name":"Cibodas","postal_code":"44171"},{"id":"3205222007","district_id":"320522","name":"Mekarjaya","postal_code":"44171"},{"id":"3205222008","district_id":"320522","name":"Cikandang","postal_code":"44171"},{"id":"3205222009","district_id":"320522","name":"Padasuka","postal_code":"44171"},{"id":"3205222010","district_id":"320522","name":"Margamulya","postal_code":"44171"},{"id":"3205222011","district_id":"320522","name":"Cipangramatan","postal_code":"44171"},{"id":"3205222012","district_id":"320522","name":"Kramatwangi","postal_code":"44171"}]