[{"id":"3205092001","district_id":"320509","name":"Leles","postal_code":"44152"},{"id":"3205092002","district_id":"320509","name":"Ciburial","postal_code":"44152"},{"id":"3205092003","district_id":"320509","name":"Jangkurang","postal_code":"44152"},{"id":"3205092004","district_id":"320509","name":"Sukarame","postal_code":"44152"},{"id":"3205092005","district_id":"320509","name":"Lembang","postal_code":"44152"},{"id":"3205092006","district_id":"320509","name":"Cangkuang","postal_code":"44119"},{"id":"3205092007","district_id":"320509","name":"Salamnunggal","postal_code":"44152"},{"id":"3205092008","district_id":"320509","name":"Kandangmukti","postal_code":"44152"},{"id":"3205092009","district_id":"320509","name":"Margaluyu","postal_code":"44152"},{"id":"3205092010","district_id":"320509","name":"Cipancar","postal_code":"44152"},{"id":"3205092011","district_id":"320509","name":"Haruman","postal_code":"44152"},{"id":"3205092012","district_id":"320509","name":"Dano","postal_code":"44152"}]