[{"id":"3208132006","district_id":"320813","name":"Bandorasawetan","postal_code":"45551"},{"id":"3208132007","district_id":"320813","name":"Bandorasakulon","postal_code":"45551"},{"id":"3208132008","district_id":"320813","name":"Linggasana","postal_code":"45551"},{"id":"3208132009","district_id":"320813","name":"Linggajati","postal_code":"45551"},{"id":"3208132010","district_id":"320813","name":"Bojong","postal_code":"45551"},{"id":"3208132015","district_id":"320813","name":"Cilimus","postal_code":"45551"},{"id":"3208132016","district_id":"320813","name":"Setianegara","postal_code":"45551"},{"id":"3208132017","district_id":"320813","name":"Cibeureum","postal_code":"45551"},{"id":"3208132018","district_id":"320813","name":"Kaliaren","postal_code":"45551"},{"id":"3208132019","district_id":"320813","name":"Sampora","postal_code":"45551"},{"id":"3208132020","district_id":"320813","name":"Caracas","postal_code":"45551"},{"id":"3208132023","district_id":"320813","name":"Linggamekar","postal_code":"45551"},{"id":"3208132024","district_id":"320813","name":"Linggaindah","postal_code":"45551"}]