[{"id":"3209151003","district_id":"320915","name":"Babakan","postal_code":"45612"},{"id":"3209151004","district_id":"320915","name":"Sumber","postal_code":"45611"},{"id":"3209151005","district_id":"320915","name":"Perbutulan","postal_code":"45613"},{"id":"3209151006","district_id":"320915","name":"Kaliwadas","postal_code":"45611"},{"id":"3209151007","district_id":"320915","name":"Pasalakan","postal_code":"45611"},{"id":"3209151008","district_id":"320915","name":"Watubelah","postal_code":"45611"},{"id":"3209151009","district_id":"320915","name":"Pejambon","postal_code":"45611"},{"id":"3209151010","district_id":"320915","name":"Gegunung","postal_code":"45611"},{"id":"3209151011","district_id":"320915","name":"Kemantren","postal_code":"45611"},{"id":"3209151012","district_id":"320915","name":"Sendang","postal_code":"45611"},{"id":"3209151013","district_id":"320915","name":"Tukmudal","postal_code":"45611"},{"id":"3209151014","district_id":"320915","name":"Kenanga","postal_code":"45611"},{"id":"3209152001","district_id":"320915","name":"Matangaji","postal_code":"45611"},{"id":"3209152002","district_id":"320915","name":"Sidawangi","postal_code":"45611"}]