[{"id":"3210222001","district_id":"321022","name":"Genteng","postal_code":"45468"},{"id":"3210222002","district_id":"321022","name":"Sunia","postal_code":"45468"},{"id":"3210222003","district_id":"321022","name":"Darmalarang","postal_code":"45468"},{"id":"3210222004","district_id":"321022","name":"Sindangpala","postal_code":"45468"},{"id":"3210222005","district_id":"321022","name":"Banjaran","postal_code":"45468"},{"id":"3210222006","district_id":"321022","name":"Kagok","postal_code":"45468"},{"id":"3210222007","district_id":"321022","name":"Cimeong","postal_code":"45468"},{"id":"3210222008","district_id":"321022","name":"Panyindangan","postal_code":"45468"},{"id":"3210222009","district_id":"321022","name":"Kareo","postal_code":"45468"},{"id":"3210222010","district_id":"321022","name":"Sangiang","postal_code":"45468"},{"id":"3210222011","district_id":"321022","name":"Sunia Baru ","postal_code":"45468"},{"id":"3210222012","district_id":"321022","name":"Hegarmanah","postal_code":"45468"},{"id":"3210222013","district_id":"321022","name":"Girimulya","postal_code":"45468"}]