[{"id":"3210142001","district_id":"321014","name":"Pakubeureum","postal_code":"45457"},{"id":"3210142002","district_id":"321014","name":"Sukawana","postal_code":"45457"},{"id":"3210142003","district_id":"321014","name":"Kertawinangun","postal_code":"45457"},{"id":"3210142004","district_id":"321014","name":"Palasah","postal_code":"45457"},{"id":"3210142005","district_id":"321014","name":"Babakan","postal_code":"45457"},{"id":"3210142006","district_id":"321014","name":"Kertajati","postal_code":"45457"},{"id":"3210142007","district_id":"321014","name":"Bantarjati","postal_code":"45457"},{"id":"3210142008","district_id":"321014","name":"Pasiripis","postal_code":"45457"},{"id":"3210142009","district_id":"321014","name":"Sukamulya","postal_code":"45457"},{"id":"3210142010","district_id":"321014","name":"Kertasari","postal_code":"45457"},{"id":"3210142011","district_id":"321014","name":"Mekarjaya","postal_code":"45457"},{"id":"3210142012","district_id":"321014","name":"Mekarmulya","postal_code":"45457"},{"id":"3210142013","district_id":"321014","name":"Sukakerta","postal_code":"45457"},{"id":"3210142014","district_id":"321014","name":"Sahbandar","postal_code":"45457"}]