[{"id":"3210152001","district_id":"321015","name":"Biyawak","postal_code":"45458"},{"id":"3210152002","district_id":"321015","name":"Panyingkiran","postal_code":"45458"},{"id":"3210152003","district_id":"321015","name":"Panongan","postal_code":"45458"},{"id":"3210152004","district_id":"321015","name":"Randegan Wetan","postal_code":"45458"},{"id":"3210152005","district_id":"321015","name":"Putridalem","postal_code":"45458"},{"id":"3210152006","district_id":"321015","name":"Jatitengah","postal_code":"45458"},{"id":"3210152007","district_id":"321015","name":"Jatitujuh","postal_code":"45458"},{"id":"3210152008","district_id":"321015","name":"Babajurang","postal_code":"45458"},{"id":"3210152009","district_id":"321015","name":"Pilangsari","postal_code":"45458"},{"id":"3210152010","district_id":"321015","name":"Jatiraga","postal_code":"45458"},{"id":"3210152011","district_id":"321015","name":"Sumber Wetan","postal_code":"45458"},{"id":"3210152012","district_id":"321015","name":"Pangkalanpari","postal_code":"45458"},{"id":"3210152013","district_id":"321015","name":"Randegan Kulon","postal_code":"45458"},{"id":"3210152014","district_id":"321015","name":"Sumber Kulon","postal_code":"45458"},{"id":"3210152015","district_id":"321015","name":"Pasindangan","postal_code":"45458"}]