[{"id":"3211032001","district_id":"321103","name":"Darmaraja","postal_code":"45372"},{"id":"3211032002","district_id":"321103","name":"Darmajaya","postal_code":"45372"},{"id":"3211032003","district_id":"321103","name":"Sukamenak","postal_code":"45372"},{"id":"3211032005","district_id":"321103","name":"Sukaratu","postal_code":"45372"},{"id":"3211032006","district_id":"321103","name":"Cikeusi","postal_code":"45372"},{"id":"3211032007","district_id":"321103","name":"Cipeuteuy","postal_code":"45372"},{"id":"3211032009","district_id":"321103","name":"Cieunteung","postal_code":"45372"},{"id":"3211032010","district_id":"321103","name":"Karangpakuan ","postal_code":"45372"},{"id":"3211032011","district_id":"321103","name":"Pakualam ","postal_code":"45372"},{"id":"3211032013","district_id":"321103","name":"Neglasari","postal_code":"45372"},{"id":"3211032015","district_id":"321103","name":"Tarunajaya","postal_code":"45372"},{"id":"3211032016","district_id":"321103","name":"Ranggon","postal_code":"45372"}]