[{"id":"3211102001","district_id":"321110","name":"Buahdua","postal_code":"45392"},{"id":"3211102002","district_id":"321110","name":"Hariang","postal_code":"45392"},{"id":"3211102003","district_id":"321110","name":"Karangbungur","postal_code":"45392"},{"id":"3211102004","district_id":"321110","name":"Mekarmukti","postal_code":"45392"},{"id":"3211102005","district_id":"321110","name":"Citaleus","postal_code":"45392"},{"id":"3211102006","district_id":"321110","name":"Nagrak","postal_code":"45392"},{"id":"3211102007","district_id":"321110","name":"Cibitung","postal_code":"45392"},{"id":"3211102008","district_id":"321110","name":"Sekarwangi","postal_code":"45392"},{"id":"3211102009","district_id":"321110","name":"Gendereh","postal_code":"45392"},{"id":"3211102010","district_id":"321110","name":"Panyindangan","postal_code":"45392"},{"id":"3211102011","district_id":"321110","name":"Cilangkap","postal_code":"45392"},{"id":"3211102012","district_id":"321110","name":"Bojongloa","postal_code":"45392"},{"id":"3211102013","district_id":"321110","name":"Cikurubuk","postal_code":"45392"},{"id":"3211102014","district_id":"321110","name":"Ciawitali","postal_code":"45392"}]