[{"id":"3212132001","district_id":"321213","name":"Sukalila","postal_code":"45273"},{"id":"3212132002","district_id":"321213","name":"Pilangsari","postal_code":"45273"},{"id":"3212132003","district_id":"321213","name":"Jatibarang Baru","postal_code":"45273"},{"id":"3212132004","district_id":"321213","name":"Bulak","postal_code":"45273"},{"id":"3212132005","district_id":"321213","name":"Bulak Lor","postal_code":"45273"},{"id":"3212132006","district_id":"321213","name":"Jatibarang","postal_code":"45273"},{"id":"3212132007","district_id":"321213","name":"Kebulen","postal_code":"45273"},{"id":"3212132008","district_id":"321213","name":"Pawidean","postal_code":"45273"},{"id":"3212132009","district_id":"321213","name":"Jatisawit","postal_code":"45273"},{"id":"3212132010","district_id":"321213","name":"Jatisawit Lor","postal_code":"45273"},{"id":"3212132011","district_id":"321213","name":"Krasak","postal_code":"45273"},{"id":"3212132012","district_id":"321213","name":"Kalimati","postal_code":"45273"},{"id":"3212132013","district_id":"321213","name":"Malangsemirang","postal_code":"45273"},{"id":"3212132014","district_id":"321213","name":"Lobener","postal_code":"45273"},{"id":"3212132015","district_id":"321213","name":"Lobener Lor","postal_code":"45273"}]