[{"id":"3212151001","district_id":"321215","name":"Bojongsari","postal_code":"45214"},{"id":"3212151002","district_id":"321215","name":"Kepandean","postal_code":"45214"},{"id":"3212151003","district_id":"321215","name":"Karangmalang","postal_code":"45213"},{"id":"3212151004","district_id":"321215","name":"Karanganyar","postal_code":"45213"},{"id":"3212151005","district_id":"321215","name":"Lemahmekar","postal_code":"45212"},{"id":"3212151006","district_id":"321215","name":"Lemahabang","postal_code":"45212"},{"id":"3212151007","district_id":"321215","name":"Margadadi","postal_code":"45211"},{"id":"3212151008","district_id":"321215","name":"Paoman","postal_code":"45211"},{"id":"3212152009","district_id":"321215","name":"Telukagung","postal_code":"45215"},{"id":"3212152010","district_id":"321215","name":"Plumbon","postal_code":"45215"},{"id":"3212152011","district_id":"321215","name":"Dukuh","postal_code":"45215"},{"id":"3212152012","district_id":"321215","name":"Pekandangan Jaya","postal_code":"45211"},{"id":"3212152013","district_id":"321215","name":"Singaraja","postal_code":"45218"},{"id":"3212152014","district_id":"321215","name":"Singajaya","postal_code":"45218"},{"id":"3212152015","district_id":"321215","name":"Pekandangan","postal_code":"45216"},{"id":"3212152016","district_id":"321215","name":"Karangsong","postal_code":"45219"},{"id":"3212152017","district_id":"321215","name":"Pabeanudik","postal_code":"45219"},{"id":"3212152020","district_id":"321215","name":"Tambak","postal_code":"45219"}]