[{"id":"3212122001","district_id":"321212","name":"Sleman","postal_code":"45281"},{"id":"3212122002","district_id":"321212","name":"Tambi","postal_code":"45281"},{"id":"3212122003","district_id":"321212","name":"Sudikampiran","postal_code":"45281"},{"id":"3212122004","district_id":"321212","name":"Tambi Lor","postal_code":"45281"},{"id":"3212122005","district_id":"321212","name":"Sleman Lor","postal_code":"45281"},{"id":"3212122006","district_id":"321212","name":"Majasari","postal_code":"45281"},{"id":"3212122007","district_id":"321212","name":"Majasih","postal_code":"45281"},{"id":"3212122008","district_id":"321212","name":"Sliyeg","postal_code":"45281"},{"id":"3212122009","district_id":"321212","name":"Gadingan","postal_code":"45281"},{"id":"3212122010","district_id":"321212","name":"Mekargading","postal_code":"45281"},{"id":"3212122011","district_id":"321212","name":"Sliyeg Lor","postal_code":"45281"},{"id":"3212122012","district_id":"321212","name":"Tugu Kidul","postal_code":"45281"},{"id":"3212122013","district_id":"321212","name":"Tugu","postal_code":"45281"},{"id":"3212122016","district_id":"321212","name":"Longok","postal_code":"45281"}]