[{"id":"3214062001","district_id":"321406","name":"Darangdan","postal_code":"41163"},{"id":"3214062002","district_id":"321406","name":"Depok","postal_code":"41163"},{"id":"3214062003","district_id":"321406","name":"Cilingga","postal_code":"41163"},{"id":"3214062004","district_id":"321406","name":"Nangewer","postal_code":"41163"},{"id":"3214062005","district_id":"321406","name":"Mekarsari","postal_code":"41163"},{"id":"3214062006","district_id":"321406","name":"Linggarsari ","postal_code":"41163"},{"id":"3214062007","district_id":"321406","name":"Sawit","postal_code":"41163"},{"id":"3214062008","district_id":"321406","name":"Linggamukti","postal_code":"41163"},{"id":"3214062009","district_id":"321406","name":"Gununghejo","postal_code":"41163"},{"id":"3214062010","district_id":"321406","name":"Pasirangin","postal_code":"41163"},{"id":"3214062011","district_id":"321406","name":"Legoksari","postal_code":"41163"},{"id":"3214062012","district_id":"321406","name":"Sirnamanah","postal_code":"41163"},{"id":"3214062013","district_id":"321406","name":"Sadarkarya","postal_code":"41163"},{"id":"3214062014","district_id":"321406","name":"Neglasari","postal_code":"41163"},{"id":"3214062015","district_id":"321406","name":"Nagrak","postal_code":"41163"}]