[{"id":"3214112001","district_id":"321411","name":"Bojong Barat","postal_code":"41164"},{"id":"3214112002","district_id":"321411","name":"Bojong Timur","postal_code":"41164"},{"id":"3214112003","district_id":"321411","name":"Cikeris","postal_code":"41164"},{"id":"3214112004","district_id":"321411","name":"Cihanjawar","postal_code":"41164"},{"id":"3214112005","district_id":"321411","name":"Cipeundeuy","postal_code":"41164"},{"id":"3214112006","district_id":"321411","name":"Cileunca","postal_code":"41164"},{"id":"3214112007","district_id":"321411","name":"Cibingbin","postal_code":"41164"},{"id":"3214112008","district_id":"321411","name":"Kertasari","postal_code":"41164"},{"id":"3214112009","district_id":"321411","name":"Pangkalan","postal_code":"41164"},{"id":"3214112010","district_id":"321411","name":"Pawenang","postal_code":"41164"},{"id":"3214112011","district_id":"321411","name":"Sukamanah","postal_code":"41164"},{"id":"3214112012","district_id":"321411","name":"Sindangpanon","postal_code":"41164"},{"id":"3214112013","district_id":"321411","name":"Sindangsari","postal_code":"41164"},{"id":"3214112014","district_id":"321411","name":"Pasanggrahan","postal_code":"41164"}]