[{"id":"3215052001","district_id":"321505","name":"Duren","postal_code":"41371"},{"id":"3215052002","district_id":"321505","name":"Pancawati","postal_code":"41371"},{"id":"3215052003","district_id":"321505","name":"Walahar","postal_code":"41371"},{"id":"3215052004","district_id":"321505","name":"Kiarapayung","postal_code":"41371"},{"id":"3215052005","district_id":"321505","name":"Sumurkondang","postal_code":"41371"},{"id":"3215052006","district_id":"321505","name":"Cibalongsari","postal_code":"41371"},{"id":"3215052007","district_id":"321505","name":"Klari","postal_code":"41371"},{"id":"3215052008","district_id":"321505","name":"Belendung","postal_code":"41371"},{"id":"3215052016","district_id":"321505","name":"Anggadita","postal_code":"41371"},{"id":"3215052017","district_id":"321505","name":"Gintungkerta","postal_code":"41371"},{"id":"3215052018","district_id":"321505","name":"Curug","postal_code":"41371"},{"id":"3215052019","district_id":"321505","name":"Karanganyar","postal_code":"41371"},{"id":"3215052020","district_id":"321505","name":"Cimahi","postal_code":"41371"}]