[{"id":"3215152001","district_id":"321515","name":"Mekarmaya","postal_code":"41386"},{"id":"3215152002","district_id":"321515","name":"Cilamaya","postal_code":"41386"},{"id":"3215152003","district_id":"321515","name":"Muara","postal_code":"41386"},{"id":"3215152004","district_id":"321515","name":"Muarabaru","postal_code":"41386"},{"id":"3215152005","district_id":"321515","name":"Sukatani","postal_code":"41386"},{"id":"3215152006","district_id":"321515","name":"Tegalwaru","postal_code":"41386"},{"id":"3215152007","district_id":"321515","name":"Tegalsari","postal_code":"41386"},{"id":"3215152008","district_id":"321515","name":"Cikalong","postal_code":"41386"},{"id":"3215152009","district_id":"321515","name":"Cikarang","postal_code":"41386"},{"id":"3215152010","district_id":"321515","name":"Rawagempol Wetan","postal_code":"41386"},{"id":"3215152011","district_id":"321515","name":"Rawagempol Kulon","postal_code":"41386"},{"id":"3215152012","district_id":"321515","name":"Sukakerta","postal_code":"41386"}]