[{"id":"3215172001","district_id":"321517","name":"Telagamulya ","postal_code":"41381"},{"id":"3215172002","district_id":"321517","name":"Telagasari ","postal_code":"41381"},{"id":"3215172003","district_id":"321517","name":"Pasirtalaga","postal_code":"41381"},{"id":"3215172004","district_id":"321517","name":"Cariumulya","postal_code":"41381"},{"id":"3215172005","district_id":"321517","name":"Pasirmukti","postal_code":"41381"},{"id":"3215172006","district_id":"321517","name":"Kalibuaya","postal_code":"41381"},{"id":"3215172007","district_id":"321517","name":"Pasirkamuning","postal_code":"41381"},{"id":"3215172008","district_id":"321517","name":"Kalijaya","postal_code":"41381"},{"id":"3215172009","district_id":"321517","name":"Kalisari","postal_code":"41381"},{"id":"3215172010","district_id":"321517","name":"Cadas Kertajaya ","postal_code":"41381"},{"id":"3215172011","district_id":"321517","name":"Cilewo","postal_code":"41381"},{"id":"3215172012","district_id":"321517","name":"Ciwulan","postal_code":"41381"},{"id":"3215172013","district_id":"321517","name":"Linggarsari","postal_code":"41381"},{"id":"3215172014","district_id":"321517","name":"Pulosari","postal_code":"41381"}]