[{"id":"3215072001","district_id":"321507","name":"Waluya","postal_code":"41358"},{"id":"3215072002","district_id":"321507","name":"Mulyajaya","postal_code":"41358"},{"id":"3215072003","district_id":"321507","name":"Kutakarya","postal_code":"41358"},{"id":"3215072004","district_id":"321507","name":"Kutagandok","postal_code":"41358"},{"id":"3215072005","district_id":"321507","name":"Kutamukti","postal_code":"41358"},{"id":"3215072006","district_id":"321507","name":"Kutajaya","postal_code":"41358"},{"id":"3215072007","district_id":"321507","name":"Sampalan","postal_code":"41358"},{"id":"3215072008","district_id":"321507","name":"Sindangmulya","postal_code":"41358"},{"id":"3215072009","district_id":"321507","name":"Sindangmukti","postal_code":"41358"},{"id":"3215072010","district_id":"321507","name":"Kutaraja","postal_code":"41358"},{"id":"3215072011","district_id":"321507","name":"Sindangsari","postal_code":"41358"},{"id":"3215072012","district_id":"321507","name":"Sindangkarya","postal_code":"41358"}]