[{"id":"3215202001","district_id":"321520","name":"Pancakarya","postal_code":"41385"},{"id":"3215202002","district_id":"321520","name":"Dayeuhluhur","postal_code":"41385"},{"id":"3215202003","district_id":"321520","name":"Lemahduhur","postal_code":"41385"},{"id":"3215202004","district_id":"321520","name":"Lemahkarya","postal_code":"41385"},{"id":"3215202005","district_id":"321520","name":"Lemahsubur","postal_code":"41385"},{"id":"3215202006","district_id":"321520","name":"Lemahmakmur","postal_code":"41385"},{"id":"3215202008","district_id":"321520","name":"Purwajaya","postal_code":"41385"},{"id":"3215202010","district_id":"321520","name":"Tanjungjaya","postal_code":"41385"},{"id":"3215202011","district_id":"321520","name":"Sumberjaya","postal_code":"41385"},{"id":"3215202012","district_id":"321520","name":"Pagadungan","postal_code":"41385"},{"id":"3215202013","district_id":"321520","name":"Tempuran","postal_code":"41385"},{"id":"3215202014","district_id":"321520","name":"Cikuntul","postal_code":"41385"},{"id":"3215202016","district_id":"321520","name":"Jayanegara","postal_code":"41385"},{"id":"3215202017","district_id":"321520","name":"Ciparagejaya","postal_code":"41385"}]