[{"id":"3216131011","district_id":"321613","name":"Kertasari","postal_code":"17710"},{"id":"3216132001","district_id":"321613","name":"Karangharja","postal_code":"17710"},{"id":"3216132002","district_id":"321613","name":"Karangsegar","postal_code":"17710"},{"id":"3216132003","district_id":"321613","name":"Sumberurip","postal_code":"17710"},{"id":"3216132004","district_id":"321613","name":"Sumbereja","postal_code":"17710"},{"id":"3216132005","district_id":"321613","name":"Karangreja","postal_code":"17710"},{"id":"3216132006","district_id":"321613","name":"Karangjaya","postal_code":"17710"},{"id":"3216132007","district_id":"321613","name":"Sumbersari","postal_code":"17710"},{"id":"3216132008","district_id":"321613","name":"Karangpatri","postal_code":"17710"},{"id":"3216132009","district_id":"321613","name":"Karanghaur","postal_code":"17710"},{"id":"3216132010","district_id":"321613","name":"Kertajaya","postal_code":"17710"},{"id":"3216132012","district_id":"321613","name":"Bantarsari","postal_code":"17710"},{"id":"3216132013","district_id":"321613","name":"Bantarjaya","postal_code":"17710"}]