[{"id":"3217072001","district_id":"321707","name":"Ciptaharja","postal_code":"40554"},{"id":"3217072002","district_id":"321707","name":"Cipatat","postal_code":"40554"},{"id":"3217072003","district_id":"321707","name":"Citatah","postal_code":"40554"},{"id":"3217072004","district_id":"321707","name":"Rajamandalakulon","postal_code":"40554"},{"id":"3217072005","district_id":"321707","name":"Mandalawangi","postal_code":"40554"},{"id":"3217072006","district_id":"321707","name":"Kertamukti","postal_code":"40554"},{"id":"3217072007","district_id":"321707","name":"Nyalindung","postal_code":"40554"},{"id":"3217072008","district_id":"321707","name":"Gunungmasigit","postal_code":"40554"},{"id":"3217072009","district_id":"321707","name":"Cirawamekar","postal_code":"40554"},{"id":"3217072010","district_id":"321707","name":"Mandalasari","postal_code":"40554"},{"id":"3217072011","district_id":"321707","name":"Sumurbandung","postal_code":"40554"},{"id":"3217072012","district_id":"321707","name":"Sarimukti","postal_code":"40554"}]