[{"id":"3271011001","district_id":"327101","name":"Batu Tulis","postal_code":"16133"},{"id":"3271011002","district_id":"327101","name":"Bondongan","postal_code":"16131"},{"id":"3271011003","district_id":"327101","name":"Empang","postal_code":"16132"},{"id":"3271011004","district_id":"327101","name":"Lawanggintung","postal_code":"16134"},{"id":"3271011005","district_id":"327101","name":"Pamoyanan","postal_code":"16136"},{"id":"3271011006","district_id":"327101","name":"Rangga Mekar","postal_code":"16136"},{"id":"3271011007","district_id":"327101","name":"Mulya Harja","postal_code":"16135"},{"id":"3271011008","district_id":"327101","name":"Cikaret","postal_code":"16132"},{"id":"3271011009","district_id":"327101","name":"Bojong Kerta","postal_code":"16139"},{"id":"3271011010","district_id":"327101","name":"Rancamaya","postal_code":"16139"},{"id":"3271011011","district_id":"327101","name":"Kertamaya","postal_code":"16138"},{"id":"3271011012","district_id":"327101","name":"Harjasari","postal_code":"16138"},{"id":"3271011013","district_id":"327101","name":"Muara Sari","postal_code":"16137"},{"id":"3271011014","district_id":"327101","name":"Genteng","postal_code":"16137"},{"id":"3271011015","district_id":"327101","name":"Pakuan","postal_code":"16134"},{"id":"3271011016","district_id":"327101","name":"Cipaku","postal_code":"16133"}]