[{"id":"3301022001","district_id":"330102","name":"Menganti","postal_code":"53274"},{"id":"3301022002","district_id":"330102","name":"Slarang","postal_code":"53274"},{"id":"3301022003","district_id":"330102","name":"Kesugihan","postal_code":"53274"},{"id":"3301022004","district_id":"330102","name":"Kalisabuk","postal_code":"53274"},{"id":"3301022005","district_id":"330102","name":"Karangkandri","postal_code":"53274"},{"id":"3301022006","district_id":"330102","name":"Kuripan","postal_code":"53274"},{"id":"3301022007","district_id":"330102","name":"Dondong","postal_code":"53274"},{"id":"3301022008","district_id":"330102","name":"Planjan","postal_code":"53274"},{"id":"3301022009","district_id":"330102","name":"Ciwuni","postal_code":"53274"},{"id":"3301022010","district_id":"330102","name":"Karangjengkol","postal_code":"53274"},{"id":"3301022011","district_id":"330102","name":"Keleng","postal_code":"53274"},{"id":"3301022012","district_id":"330102","name":"Pesanggrahan","postal_code":"53274"},{"id":"3301022013","district_id":"330102","name":"Bulupayung","postal_code":"53274"},{"id":"3301022014","district_id":"330102","name":"Kuripan Kidul","postal_code":"53274"},{"id":"3301022015","district_id":"330102","name":"Jangrana","postal_code":"53274"},{"id":"3301022016","district_id":"330102","name":"Kesugihan Kidul","postal_code":"53274"}]