[{"id":"3302172001","district_id":"330217","name":"Panusupan","postal_code":"53162"},{"id":"3302172002","district_id":"330217","name":"Jatisaba","postal_code":"53162"},{"id":"3302172003","district_id":"330217","name":"Kasegeran","postal_code":"53162"},{"id":"3302172004","district_id":"330217","name":"Pejogol","postal_code":"53162"},{"id":"3302172005","district_id":"330217","name":"Langgongsari","postal_code":"53162"},{"id":"3302172006","district_id":"330217","name":"Pageraji","postal_code":"53162"},{"id":"3302172007","district_id":"330217","name":"Sudimara","postal_code":"53162"},{"id":"3302172008","district_id":"330217","name":"Batuanten","postal_code":"53162"},{"id":"3302172009","district_id":"330217","name":"Cipete","postal_code":"53162"},{"id":"3302172010","district_id":"330217","name":"Cilongok","postal_code":"53162"},{"id":"3302172011","district_id":"330217","name":"Pernasidi","postal_code":"53162"},{"id":"3302172012","district_id":"330217","name":"Cikidang","postal_code":"53162"},{"id":"3302172013","district_id":"330217","name":"Karanglo","postal_code":"53162"},{"id":"3302172014","district_id":"330217","name":"Kalisari","postal_code":"53162"},{"id":"3302172015","district_id":"330217","name":"Karangtengah","postal_code":"53162"},{"id":"3302172016","district_id":"330217","name":"Panembangan","postal_code":"53162"},{"id":"3302172017","district_id":"330217","name":"Rancamaya","postal_code":"53162"},{"id":"3302172018","district_id":"330217","name":"Sambirata","postal_code":"53162"},{"id":"3302172019","district_id":"330217","name":"Gununglurah","postal_code":"53162"},{"id":"3302172020","district_id":"330217","name":"Sokawera","postal_code":"53162"}]