[{"id":"3303142001","district_id":"330314","name":"Brobot","postal_code":"53362"},{"id":"3303142002","district_id":"330314","name":"Gembong","postal_code":"53362"},{"id":"3303142003","district_id":"330314","name":"Galuh","postal_code":"53362"},{"id":"3303142004","district_id":"330314","name":"Banjaran","postal_code":"53362"},{"id":"3303142005","district_id":"330314","name":"Patemon","postal_code":"53362"},{"id":"3303142006","district_id":"330314","name":"Bojongsari","postal_code":"53362"},{"id":"3303142007","district_id":"330314","name":"Kajongan","postal_code":"53362"},{"id":"3303142008","district_id":"330314","name":"Karangbanjar","postal_code":"53362"},{"id":"3303142009","district_id":"330314","name":"Beji","postal_code":"53362"},{"id":"3303142010","district_id":"330314","name":"Pagedangan","postal_code":"53362"},{"id":"3303142011","district_id":"330314","name":"Pekalongan","postal_code":"53362"},{"id":"3303142012","district_id":"330314","name":"Metenggeng","postal_code":"53362"},{"id":"3303142013","district_id":"330314","name":"Bumisari","postal_code":"53362"}]