[{"id":"3304032001","district_id":"330403","name":"Jalatunda","postal_code":"53473"},{"id":"3304032002","district_id":"330403","name":"Somawangi","postal_code":"53473"},{"id":"3304032003","district_id":"330403","name":"Kaliwungu","postal_code":"53473"},{"id":"3304032004","district_id":"330403","name":"Kebanaran","postal_code":"53473"},{"id":"3304032005","district_id":"330403","name":"Glempang","postal_code":"53473"},{"id":"3304032006","district_id":"330403","name":"Salamerta","postal_code":"53473"},{"id":"3304032007","district_id":"330403","name":"Purwasaba","postal_code":"53473"},{"id":"3304032008","district_id":"330403","name":"Blimbing","postal_code":"53473"},{"id":"3304032009","district_id":"330403","name":"Panggisari","postal_code":"53473"},{"id":"3304032010","district_id":"330403","name":"Candiwulan","postal_code":"53473"},{"id":"3304032011","district_id":"330403","name":"Simbang","postal_code":"53473"},{"id":"3304032012","district_id":"330403","name":"Kertayasa","postal_code":"53473"},{"id":"3304032013","district_id":"330403","name":"Banjengan","postal_code":"53473"},{"id":"3304032014","district_id":"330403","name":"Mandiraja Kulon","postal_code":"53473"},{"id":"3304032015","district_id":"330403","name":"Kebakalan","postal_code":"53473"},{"id":"3304032016","district_id":"330403","name":"Mandiraja Wetan","postal_code":"53473"}]