[{"id":"3305132001","district_id":"330513","name":"Logede","postal_code":"54361"},{"id":"3305132002","district_id":"330513","name":"Kewayuhan","postal_code":"54361"},{"id":"3305132003","district_id":"330513","name":"Kedawung","postal_code":"54361"},{"id":"3305132004","district_id":"330513","name":"Pejagoan","postal_code":"54361"},{"id":"3305132005","district_id":"330513","name":"Kebulusan","postal_code":"54361"},{"id":"3305132006","district_id":"330513","name":"Aditirto","postal_code":"54361"},{"id":"3305132007","district_id":"330513","name":"Karangpoh","postal_code":"54361"},{"id":"3305132008","district_id":"330513","name":"Jemur","postal_code":"54361"},{"id":"3305132009","district_id":"330513","name":"Prigi","postal_code":"54361"},{"id":"3305132010","district_id":"330513","name":"Kebagoran","postal_code":"54361"},{"id":"3305132011","district_id":"330513","name":"Pengaringan","postal_code":"54361"},{"id":"3305132012","district_id":"330513","name":"Peniron","postal_code":"54361"},{"id":"3305132013","district_id":"330513","name":"Watulawang","postal_code":"54361"}]