[{"id":"3305262001","district_id":"330526","name":"Widoro","postal_code":"54353"},{"id":"3305262002","district_id":"330526","name":"Seling","postal_code":"54353"},{"id":"3305262003","district_id":"330526","name":"Pencil","postal_code":"54353"},{"id":"3305262004","district_id":"330526","name":"Kedungwaru","postal_code":"54353"},{"id":"3305262005","district_id":"330526","name":"Kaligending","postal_code":"54353"},{"id":"3305262006","district_id":"330526","name":"Plumbon","postal_code":"54353"},{"id":"3305262007","district_id":"330526","name":"Pujotirto","postal_code":"54353"},{"id":"3305262008","district_id":"330526","name":"Wadasmalang","postal_code":"54353"},{"id":"3305262009","district_id":"330526","name":"Tlepok","postal_code":"54353"},{"id":"3305262010","district_id":"330526","name":"Kalisana","postal_code":"54353"},{"id":"3305262011","district_id":"330526","name":"Langse","postal_code":"54353"},{"id":"3305262012","district_id":"330526","name":"Banioro","postal_code":"54353"},{"id":"3305262013","district_id":"330526","name":"Karangsambung","postal_code":"54353"},{"id":"3305262014","district_id":"330526","name":"Totogan","postal_code":"54353"}]