[{"id":"3306102001","district_id":"330610","name":"Kedungmulyo","postal_code":"54264"},{"id":"3306102002","district_id":"330610","name":"Mangunjayan","postal_code":"54264"},{"id":"3306102003","district_id":"330610","name":"Karanganom","postal_code":"54264"},{"id":"3306102004","district_id":"330610","name":"Tanjunganom","postal_code":"54264"},{"id":"3306102005","district_id":"330610","name":"Sidomulyo","postal_code":"54264"},{"id":"3306102006","district_id":"330610","name":"Sumbersari","postal_code":"54264"},{"id":"3306102007","district_id":"330610","name":"Langenrejo","postal_code":"54264"},{"id":"3306102008","district_id":"330610","name":"Tamansari","postal_code":"54264"},{"id":"3306102009","district_id":"330610","name":"Wareng","postal_code":"54264"},{"id":"3306102010","district_id":"330610","name":"Ketug","postal_code":"54264"},{"id":"3306102011","district_id":"330610","name":"Rowodadi","postal_code":"54264"},{"id":"3306102012","district_id":"330610","name":"Kedungsari","postal_code":"54116"},{"id":"3306102013","district_id":"330610","name":"Sruwohdukuh ","postal_code":"54264"},{"id":"3306102014","district_id":"330610","name":"Wonodadi","postal_code":"54264"},{"id":"3306102015","district_id":"330610","name":"Wonorejowetan ","postal_code":"54264"},{"id":"3306102016","district_id":"330610","name":"Wonorejokulon ","postal_code":"54264"},{"id":"3306102017","district_id":"330610","name":"Kunirejokulon ","postal_code":"54264"},{"id":"3306102018","district_id":"330610","name":"Kunirejowetan ","postal_code":"54264"},{"id":"3306102019","district_id":"330610","name":"Kedungsri","postal_code":"54264"},{"id":"3306102020","district_id":"330610","name":"Kedungagung","postal_code":"54264"},{"id":"3306102021","district_id":"330610","name":"Sruwohrejo","postal_code":"54264"},{"id":"3306102022","district_id":"330610","name":"Lugurejo","postal_code":"54264"},{"id":"3306102023","district_id":"330610","name":"Lugu","postal_code":"54264"},{"id":"3306102024","district_id":"330610","name":"Kunir","postal_code":"54264"},{"id":"3306102025","district_id":"330610","name":"Lubangdukuh ","postal_code":"54264"},{"id":"3306102026","district_id":"330610","name":"Tlogorejo","postal_code":"54264"},{"id":"3306102027","district_id":"330610","name":"Polomarto","postal_code":"54264"},{"id":"3306102028","district_id":"330610","name":"Tegalgondo","postal_code":"54264"},{"id":"3306102029","district_id":"330610","name":"Lubanglor ","postal_code":"54264"},{"id":"3306102030","district_id":"330610","name":"Lubangindangan ","postal_code":"54264"},{"id":"3306102031","district_id":"330610","name":"Lubangkidul ","postal_code":"54264"},{"id":"3306102032","district_id":"330610","name":"Lubangsampang ","postal_code":"54264"},{"id":"3306102033","district_id":"330610","name":"Dlangu","postal_code":"54264"},{"id":"3306102034","district_id":"330610","name":"Andong","postal_code":"54264"},{"id":"3306102035","district_id":"330610","name":"Kaliwatubumi","postal_code":"54264"},{"id":"3306102036","district_id":"330610","name":"Kaliwatukranggan","postal_code":"54264"},{"id":"3306102037","district_id":"330610","name":"Panggeldlangu ","postal_code":"54264"},{"id":"3306102038","district_id":"330610","name":"Binangun","postal_code":"54264"},{"id":"3306102039","district_id":"330610","name":"Butuh","postal_code":"54264"},{"id":"3306102040","district_id":"330610","name":"Klepu","postal_code":"54264"},{"id":"3306102041","district_id":"330610","name":"Wironatan","postal_code":"54264"}]