[{"id":"3306081020","district_id":"330608","name":"Sucenjurutengah ","postal_code":"54224"},{"id":"3306082001","district_id":"330608","name":"Jono","postal_code":"54224"},{"id":"3306082002","district_id":"330608","name":"Pogungjurutengah ","postal_code":"54224"},{"id":"3306082003","district_id":"330608","name":"Pogungrejo","postal_code":"54224"},{"id":"3306082004","district_id":"330608","name":"Banjarejo","postal_code":"54224"},{"id":"3306082005","district_id":"330608","name":"Pogungkalangan","postal_code":"54224"},{"id":"3306082006","district_id":"330608","name":"Ketiwijayan","postal_code":"54224"},{"id":"3306082007","district_id":"330608","name":"Krandegan","postal_code":"54224"},{"id":"3306082008","district_id":"330608","name":"Tanjungrejo","postal_code":"54224"},{"id":"3306082009","district_id":"330608","name":"Dewi","postal_code":"54224"},{"id":"3306082010","district_id":"330608","name":"Tangkisan","postal_code":"54224"},{"id":"3306082011","district_id":"330608","name":"Jatingarang","postal_code":"54224"},{"id":"3306082012","district_id":"330608","name":"Bandungkidul ","postal_code":"54224"},{"id":"3306082013","district_id":"330608","name":"Bandungrejo","postal_code":"54222"},{"id":"3306082014","district_id":"330608","name":"Besole","postal_code":"54223"},{"id":"3306082015","district_id":"330608","name":"Botorejo","postal_code":"54224"},{"id":"3306082016","district_id":"330608","name":"Botodaleman ","postal_code":"54224"},{"id":"3306082017","district_id":"330608","name":"Dukuhrejo","postal_code":"54224"},{"id":"3306082018","district_id":"330608","name":"Grantung","postal_code":"54224"},{"id":"3306082019","district_id":"330608","name":"Kalimiru","postal_code":"54224"},{"id":"3306082021","district_id":"330608","name":"Bringin","postal_code":"54224"},{"id":"3306082022","district_id":"330608","name":"Bayan","postal_code":"54224"},{"id":"3306082023","district_id":"330608","name":"Pekutan","postal_code":"54224"},{"id":"3306082024","district_id":"330608","name":"Jrakah","postal_code":"54224"},{"id":"3306082025","district_id":"330608","name":"Sambeng","postal_code":"54224"},{"id":"3306082026","district_id":"330608","name":"Pucangagung ","postal_code":"54224"}]