[{"id":"3306061007","district_id":"330606","name":"Cangkrepkidul","postal_code":"54117"},{"id":"3306061008","district_id":"330606","name":"Cangkreplor","postal_code":"54117"},{"id":"3306061010","district_id":"330606","name":"Tambakrejo","postal_code":"54118"},{"id":"3306061011","district_id":"330606","name":"Kedungsari","postal_code":"54119"},{"id":"3306061012","district_id":"330606","name":"Pangenrejo","postal_code":"54115"},{"id":"3306061013","district_id":"330606","name":"Pangenjurutengah","postal_code":"54114"},{"id":"3306061014","district_id":"330606","name":"Doplang","postal_code":"54114"},{"id":"3306061015","district_id":"330606","name":"Sindurjan","postal_code":"54113"},{"id":"3306061016","district_id":"330606","name":"Paduroso","postal_code":"54112"},{"id":"3306061017","district_id":"330606","name":"Purworejo","postal_code":"54151"},{"id":"3306061018","district_id":"330606","name":"Mranti","postal_code":"54112"},{"id":"3306061019","district_id":"330606","name":"Mudal","postal_code":"54119"},{"id":"3306061020","district_id":"330606","name":"Keseneng","postal_code":"54119"},{"id":"3306061021","district_id":"330606","name":"Baledono","postal_code":"54118"},{"id":"3306062001","district_id":"330606","name":"Pacekelan","postal_code":"54119"},{"id":"3306062002","district_id":"330606","name":"Plipir","postal_code":"54119"},{"id":"3306062003","district_id":"330606","name":"Brenggong","postal_code":"54119"},{"id":"3306062004","district_id":"330606","name":"Ganggeng","postal_code":"54119"},{"id":"3306062005","district_id":"330606","name":"Semawung","postal_code":"54119"},{"id":"3306062006","district_id":"330606","name":"Wonoroto","postal_code":"54119"},{"id":"3306062009","district_id":"330606","name":"Sidorejo","postal_code":"54119"},{"id":"3306062022","district_id":"330606","name":"Wonotulus","postal_code":"54119"},{"id":"3306062023","district_id":"330606","name":"Sidomulyo","postal_code":"54119"},{"id":"3306062024","district_id":"330606","name":"Sudimoro","postal_code":"54119"},{"id":"3306062025","district_id":"330606","name":"Donorati","postal_code":"54119"}]