[{"id":"3306032001","district_id":"330603","name":"Jatimalang","postal_code":"54173"},{"id":"3306032002","district_id":"330603","name":"Jatikontal","postal_code":"54173"},{"id":"3306032003","district_id":"330603","name":"Gedangan","postal_code":"54173"},{"id":"3306032004","district_id":"330603","name":"Karanganyar","postal_code":"54173"},{"id":"3306032005","district_id":"330603","name":"Jogoboyo","postal_code":"54173"},{"id":"3306032006","district_id":"330603","name":"Watukuro","postal_code":"54173"},{"id":"3306032007","district_id":"330603","name":"Karangsari","postal_code":"54173"},{"id":"3306032008","district_id":"330603","name":"Banjarsari","postal_code":"54173"},{"id":"3306032009","district_id":"330603","name":"Kebonsari","postal_code":"54173"},{"id":"3306032010","district_id":"330603","name":"Sidoharjo","postal_code":"54173"},{"id":"3306032011","district_id":"330603","name":"Jogoresan","postal_code":"54173"},{"id":"3306032012","district_id":"330603","name":"Geparang","postal_code":"54173"},{"id":"3306032013","district_id":"330603","name":"Nampurejo","postal_code":"54173"},{"id":"3306032014","district_id":"330603","name":"Kentengrejo","postal_code":"54173"},{"id":"3306032015","district_id":"330603","name":"Nampu","postal_code":"54173"},{"id":"3306032016","district_id":"330603","name":"Gesing","postal_code":"54173"},{"id":"3306032017","district_id":"330603","name":"Keponggok","postal_code":"54173"},{"id":"3306032018","district_id":"330603","name":"Bubutan","postal_code":"54173"},{"id":"3306032019","district_id":"330603","name":"Tegalaren","postal_code":"54173"},{"id":"3306032020","district_id":"330603","name":"Sukomanah","postal_code":"54173"},{"id":"3306032021","district_id":"330603","name":"Blendung","postal_code":"54173"},{"id":"3306032022","district_id":"330603","name":"Guyangan","postal_code":"54173"},{"id":"3306032023","district_id":"330603","name":"Bongkot","postal_code":"54173"},{"id":"3306032024","district_id":"330603","name":"Purwodadi","postal_code":"54173"},{"id":"3306032025","district_id":"330603","name":"Sumbersari","postal_code":"54173"},{"id":"3306032026","district_id":"330603","name":"Purwosari","postal_code":"54173"},{"id":"3306032027","district_id":"330603","name":"Jenarwetan ","postal_code":"54173"},{"id":"3306032028","district_id":"330603","name":"Jenarkidul ","postal_code":"54173"},{"id":"3306032029","district_id":"330603","name":"Jenarlor ","postal_code":"54173"},{"id":"3306032030","district_id":"330603","name":"Pundensari","postal_code":"54173"},{"id":"3306032031","district_id":"330603","name":"Kesugihan","postal_code":"54173"},{"id":"3306032032","district_id":"330603","name":"Tlogorejo","postal_code":"54173"},{"id":"3306032033","district_id":"330603","name":"Plandi","postal_code":"54173"},{"id":"3306032034","district_id":"330603","name":"Bragolan","postal_code":"54173"},{"id":"3306032035","district_id":"330603","name":"Ketangi","postal_code":"54173"},{"id":"3306032036","district_id":"330603","name":"Karangmulyo","postal_code":"54173"},{"id":"3306032037","district_id":"330603","name":"Keduren","postal_code":"54173"},{"id":"3306032038","district_id":"330603","name":"Sumberrejo ","postal_code":"54173"},{"id":"3306032039","district_id":"330603","name":"Brondongrejo","postal_code":"54173"},{"id":"3306032040","district_id":"330603","name":"Sendangsari","postal_code":"54173"}]