[{"id":"3307011007","district_id":"330701","name":"Wadaslintang","postal_code":"56365"},{"id":"3307012001","district_id":"330701","name":"Kaligowong","postal_code":"56365"},{"id":"3307012002","district_id":"330701","name":"Sumbersari","postal_code":"56365"},{"id":"3307012003","district_id":"330701","name":"Sumberejo","postal_code":"56365"},{"id":"3307012004","district_id":"330701","name":"Erorejo","postal_code":"56365"},{"id":"3307012005","district_id":"330701","name":"Karanganyar","postal_code":"56365"},{"id":"3307012006","district_id":"330701","name":"Panerusan","postal_code":"56365"},{"id":"3307012008","district_id":"330701","name":"Plunjaran","postal_code":"56365"},{"id":"3307012009","district_id":"330701","name":"Kumejing","postal_code":"56365"},{"id":"3307012010","district_id":"330701","name":"Lancar","postal_code":"56365"},{"id":"3307012011","district_id":"330701","name":"Somogede","postal_code":"56365"},{"id":"3307012012","district_id":"330701","name":"Trimulyo","postal_code":"56365"},{"id":"3307012013","district_id":"330701","name":"Tirip","postal_code":"56365"},{"id":"3307012014","district_id":"330701","name":"Besuki","postal_code":"56365"},{"id":"3307012015","district_id":"330701","name":"Gumelar","postal_code":"56365"},{"id":"3307012016","district_id":"330701","name":"Ngalian","postal_code":"56365"},{"id":"3307012017","district_id":"330701","name":"Kalidadap","postal_code":"56365"}]