[{"id":"3307111004","district_id":"330711","name":"Mudal","postal_code":"56351"},{"id":"3307111005","district_id":"330711","name":"Andongsili","postal_code":"56351"},{"id":"3307111009","district_id":"330711","name":"Kalibeber","postal_code":"56351"},{"id":"3307112001","district_id":"330711","name":"Sojopuro","postal_code":"56351"},{"id":"3307112002","district_id":"330711","name":"Candirejo","postal_code":"56351"},{"id":"3307112003","district_id":"330711","name":"Keseneng","postal_code":"56351"},{"id":"3307112006","district_id":"330711","name":"Krasak","postal_code":"56351"},{"id":"3307112007","district_id":"330711","name":"Bumirejo","postal_code":"56351"},{"id":"3307112008","district_id":"330711","name":"Blederan","postal_code":"56351"},{"id":"3307112010","district_id":"330711","name":"Sukorejo","postal_code":"56351"},{"id":"3307112011","district_id":"330711","name":"Larangankulon","postal_code":"56351"},{"id":"3307112012","district_id":"330711","name":"Pungangan","postal_code":"56351"},{"id":"3307112013","district_id":"330711","name":"Gunturmadu","postal_code":"56351"},{"id":"3307112014","district_id":"330711","name":"Mojosari","postal_code":"56351"},{"id":"3307112015","district_id":"330711","name":"Wonokromo","postal_code":"56351"},{"id":"3307112016","district_id":"330711","name":"Derongisor","postal_code":"56351"},{"id":"3307112017","district_id":"330711","name":"Deroduwur","postal_code":"56351"},{"id":"3307112018","district_id":"330711","name":"Slukatan","postal_code":"56351"},{"id":"3307112019","district_id":"330711","name":"Kebrengan","postal_code":"56351"}]