[{"id":"3308081014","district_id":"330808","name":"Muntilan","postal_code":"56411"},{"id":"3308082001","district_id":"330808","name":"Tanjung","postal_code":"56415"},{"id":"3308082002","district_id":"330808","name":"Sokorini","postal_code":"56415"},{"id":"3308082003","district_id":"330808","name":"Sriwedari","postal_code":"56415"},{"id":"3308082004","district_id":"330808","name":"Congkrang","postal_code":"56415"},{"id":"3308082005","district_id":"330808","name":"Adikarto","postal_code":"56415"},{"id":"3308082006","district_id":"330808","name":"Menayu","postal_code":"56415"},{"id":"3308082007","district_id":"330808","name":"Keji","postal_code":"56415"},{"id":"3308082008","district_id":"330808","name":"Ngawen","postal_code":"56415"},{"id":"3308082009","district_id":"330808","name":"Gunungpring","postal_code":"56415"},{"id":"3308082010","district_id":"330808","name":"Pucungrejo","postal_code":"56414"},{"id":"3308082011","district_id":"330808","name":"Tamanagung","postal_code":"56413"},{"id":"3308082012","district_id":"330808","name":"Gondosuli","postal_code":"56415"},{"id":"3308082013","district_id":"330808","name":"Sedayu","postal_code":"56412"}]