[{"id":"3310032001","district_id":"331003","name":"Pesu","postal_code":"57461"},{"id":"3310032002","district_id":"331003","name":"Dengkeng","postal_code":"57461"},{"id":"3310032003","district_id":"331003","name":"Pacing","postal_code":"57461"},{"id":"3310032004","district_id":"331003","name":"Kadilanggon","postal_code":"57461"},{"id":"3310032005","district_id":"331003","name":"Kaligayam","postal_code":"57461"},{"id":"3310032006","district_id":"331003","name":"Melikan","postal_code":"57461"},{"id":"3310032007","district_id":"331003","name":"Jiwowetan","postal_code":"57461"},{"id":"3310032008","district_id":"331003","name":"Brangkal","postal_code":"57461"},{"id":"3310032009","district_id":"331003","name":"Pasung","postal_code":"57461"},{"id":"3310032010","district_id":"331003","name":"Tanjungan","postal_code":"57461"},{"id":"3310032011","district_id":"331003","name":"Canan","postal_code":"57461"},{"id":"3310032012","district_id":"331003","name":"Kalitengah","postal_code":"57461"},{"id":"3310032013","district_id":"331003","name":"Gadungan","postal_code":"57461"},{"id":"3310032014","district_id":"331003","name":"Pandes","postal_code":"57461"},{"id":"3310032015","district_id":"331003","name":"Birit","postal_code":"57461"},{"id":"3310032016","district_id":"331003","name":"Sukorejo","postal_code":"57461"},{"id":"3310032017","district_id":"331003","name":"Sembung","postal_code":"57461"},{"id":"3310032018","district_id":"331003","name":"Trotok","postal_code":"57461"},{"id":"3310032019","district_id":"331003","name":"Kadibolo","postal_code":"57461"}]