[{"id":"3310102001","district_id":"331010","name":"Gumul","postal_code":"57483"},{"id":"3310102002","district_id":"331010","name":"Banyuaeng","postal_code":"57483"},{"id":"3310102003","district_id":"331010","name":"Kadilajo","postal_code":"57483"},{"id":"3310102004","district_id":"331010","name":"Somokaton","postal_code":"57483"},{"id":"3310102005","district_id":"331010","name":"Jetis","postal_code":"57483"},{"id":"3310102006","district_id":"331010","name":"Karangnongko","postal_code":"57483"},{"id":"3310102007","district_id":"331010","name":"Jagalan","postal_code":"57483"},{"id":"3310102008","district_id":"331010","name":"Demakijo","postal_code":"57483"},{"id":"3310102009","district_id":"331010","name":"Blimbing","postal_code":"57483"},{"id":"3310102010","district_id":"331010","name":"Kanoman","postal_code":"57483"},{"id":"3310102011","district_id":"331010","name":"Gemampir","postal_code":"57483"},{"id":"3310102012","district_id":"331010","name":"Jiwan","postal_code":"57483"},{"id":"3310102013","district_id":"331010","name":"Logede","postal_code":"57483"},{"id":"3310102014","district_id":"331010","name":"Ngemplak","postal_code":"57483"}]