[{"id":"3310012001","district_id":"331001","name":"Sengon","postal_code":"57454"},{"id":"3310012002","district_id":"331001","name":"Cucukan","postal_code":"57454"},{"id":"3310012003","district_id":"331001","name":"Kotesan","postal_code":"57454"},{"id":"3310012004","district_id":"331001","name":"Pereng","postal_code":"57454"},{"id":"3310012005","district_id":"331001","name":"Kebondalem Kidul","postal_code":"57454"},{"id":"3310012006","district_id":"331001","name":"Tlogo","postal_code":"57454"},{"id":"3310012007","district_id":"331001","name":"Taji","postal_code":"57454"},{"id":"3310012008","district_id":"331001","name":"Sanggrahan","postal_code":"57454"},{"id":"3310012009","district_id":"331001","name":"Geneng","postal_code":"57454"},{"id":"3310012010","district_id":"331001","name":"Kemudo","postal_code":"57454"},{"id":"3310012011","district_id":"331001","name":"Bugisan","postal_code":"57454"},{"id":"3310012012","district_id":"331001","name":"Kokosan","postal_code":"57454"},{"id":"3310012013","district_id":"331001","name":"Kebondalem Lor","postal_code":"57454"},{"id":"3310012014","district_id":"331001","name":"Brajan","postal_code":"57454"},{"id":"3310012015","district_id":"331001","name":"Randusari","postal_code":"57454"},{"id":"3310012016","district_id":"331001","name":"Joho","postal_code":"57454"}]