[{"id":"3310172001","district_id":"331017","name":"Glagahwangi","postal_code":"57474"},{"id":"3310172002","district_id":"331017","name":"Kapungan","postal_code":"57474"},{"id":"3310172003","district_id":"331017","name":"Kahuman","postal_code":"57474"},{"id":"3310172004","district_id":"331017","name":"Ngaran","postal_code":"57474"},{"id":"3310172005","district_id":"331017","name":"Borongan","postal_code":"57474"},{"id":"3310172006","district_id":"331017","name":"Nganjat","postal_code":"57474"},{"id":"3310172007","district_id":"331017","name":"Jimus","postal_code":"57474"},{"id":"3310172008","district_id":"331017","name":"Turus","postal_code":"57474"},{"id":"3310172009","district_id":"331017","name":"Polan","postal_code":"57474"},{"id":"3310172010","district_id":"331017","name":"Karanglo","postal_code":"57474"},{"id":"3310172011","district_id":"331017","name":"Ponggok","postal_code":"57474"},{"id":"3310172012","district_id":"331017","name":"Wangen","postal_code":"57474"},{"id":"3310172013","district_id":"331017","name":"Keprabon","postal_code":"57474"},{"id":"3310172014","district_id":"331017","name":"Kranggan","postal_code":"57474"},{"id":"3310172015","district_id":"331017","name":"Kebonharjo","postal_code":"57474"},{"id":"3310172016","district_id":"331017","name":"Janti","postal_code":"57474"},{"id":"3310172017","district_id":"331017","name":"Sidowayah","postal_code":"57474"},{"id":"3310172018","district_id":"331017","name":"Sidoharjo","postal_code":"57474"}]