[{"id":"3310112001","district_id":"331011","name":"Srebegan","postal_code":"57465"},{"id":"3310112002","district_id":"331011","name":"Kajen","postal_code":"57465"},{"id":"3310112003","district_id":"331011","name":"Jambukidul","postal_code":"57465"},{"id":"3310112004","district_id":"331011","name":"Kujon","postal_code":"57465"},{"id":"3310112005","district_id":"331011","name":"Pokak","postal_code":"57465"},{"id":"3310112006","district_id":"331011","name":"Pasungan","postal_code":"57465"},{"id":"3310112007","district_id":"331011","name":"Mlese","postal_code":"57465"},{"id":"3310112008","district_id":"331011","name":"Jombor","postal_code":"57465"},{"id":"3310112009","district_id":"331011","name":"Meger","postal_code":"57465"},{"id":"3310112010","district_id":"331011","name":"Dlimas","postal_code":"57465"},{"id":"3310112011","district_id":"331011","name":"Jambukulon","postal_code":"57465"},{"id":"3310112012","district_id":"331011","name":"Ceper","postal_code":"57465"},{"id":"3310112013","district_id":"331011","name":"Kurung","postal_code":"57465"},{"id":"3310112014","district_id":"331011","name":"Cetan","postal_code":"57465"},{"id":"3310112015","district_id":"331011","name":"Tegalrejo","postal_code":"57465"},{"id":"3310112016","district_id":"331011","name":"Ngawonggo","postal_code":"57465"},{"id":"3310112017","district_id":"331011","name":"Klepu","postal_code":"57465"},{"id":"3310112018","district_id":"331011","name":"Kuncen","postal_code":"57465"}]