[{"id":"3311121002","district_id":"331112","name":"Kartasura","postal_code":"57169"},{"id":"3311121004","district_id":"331112","name":"Ngadirejo","postal_code":"57163"},{"id":"3311122001","district_id":"331112","name":"Pucangan","postal_code":"57168"},{"id":"3311122003","district_id":"331112","name":"Ngemplak","postal_code":"57169"},{"id":"3311122005","district_id":"331112","name":"Gumpang","postal_code":"57169"},{"id":"3311122006","district_id":"331112","name":"Makamhaji","postal_code":"57161"},{"id":"3311122007","district_id":"331112","name":"Pabelan","postal_code":"57169"},{"id":"3311122008","district_id":"331112","name":"Gonilan","postal_code":"57169"},{"id":"3311122009","district_id":"331112","name":"Singopuran","postal_code":"57164"},{"id":"3311122010","district_id":"331112","name":"Ngabeyan","postal_code":"57165"},{"id":"3311122011","district_id":"331112","name":"Wirogunan","postal_code":"57166"},{"id":"3311122012","district_id":"331112","name":"Kertonatan","postal_code":"57166"}]