[{"id":"3315121001","district_id":"331512","name":"Grobogan","postal_code":"58152"},{"id":"3315122002","district_id":"331512","name":"Getasrejo","postal_code":"58152"},{"id":"3315122003","district_id":"331512","name":"Rejosari","postal_code":"58152"},{"id":"3315122004","district_id":"331512","name":"Tanggungharjo","postal_code":"58152"},{"id":"3315122005","district_id":"331512","name":"Teguhan","postal_code":"58152"},{"id":"3315122006","district_id":"331512","name":"Ngabenrejo","postal_code":"58152"},{"id":"3315122007","district_id":"331512","name":"Karangrejo","postal_code":"58152"},{"id":"3315122008","district_id":"331512","name":"Putatsari","postal_code":"58152"},{"id":"3315122009","district_id":"331512","name":"Lebak","postal_code":"58152"},{"id":"3315122010","district_id":"331512","name":"Lebengjumuk","postal_code":"58152"},{"id":"3315122011","district_id":"331512","name":"Sedayu","postal_code":"58152"},{"id":"3315122012","district_id":"331512","name":"Sumberjatipohon","postal_code":"58152"}]