[{"id":"3316081013","district_id":"331608","name":"Jepon","postal_code":"58261"},{"id":"3316082001","district_id":"331608","name":"Blungun","postal_code":"58261"},{"id":"3316082002","district_id":"331608","name":"Semanggi","postal_code":"58261"},{"id":"3316082003","district_id":"331608","name":"Ngampon","postal_code":"58261"},{"id":"3316082004","district_id":"331608","name":"Jomblang","postal_code":"58261"},{"id":"3316082005","district_id":"331608","name":"Palon","postal_code":"58261"},{"id":"3316082006","district_id":"331608","name":"Bangsri","postal_code":"58261"},{"id":"3316082007","district_id":"331608","name":"Sumurboto","postal_code":"58261"},{"id":"3316082008","district_id":"331608","name":"Brumbung","postal_code":"58261"},{"id":"3316082009","district_id":"331608","name":"Turirejo","postal_code":"58261"},{"id":"3316082010","district_id":"331608","name":"Semampir","postal_code":"58261"},{"id":"3316082011","district_id":"331608","name":"Kemiri","postal_code":"58261"},{"id":"3316082012","district_id":"331608","name":"Tempellemahbang","postal_code":"58261"},{"id":"3316082014","district_id":"331608","name":"Seso","postal_code":"58261"},{"id":"3316082015","district_id":"331608","name":"Balong","postal_code":"58261"},{"id":"3316082016","district_id":"331608","name":"Geneng","postal_code":"58261"},{"id":"3316082017","district_id":"331608","name":"Nglarohgunung","postal_code":"58261"},{"id":"3316082018","district_id":"331608","name":"Kawengan","postal_code":"58261"},{"id":"3316082019","district_id":"331608","name":"Gersi","postal_code":"58261"},{"id":"3316082020","district_id":"331608","name":"Gedangdowo","postal_code":"58261"},{"id":"3316082021","district_id":"331608","name":"Puledagel","postal_code":"58261"},{"id":"3316082022","district_id":"331608","name":"Bacem","postal_code":"58261"},{"id":"3316082023","district_id":"331608","name":"Jatirejo","postal_code":"58261"},{"id":"3316082024","district_id":"331608","name":"Soko","postal_code":"58261"},{"id":"3316082025","district_id":"331608","name":"Waru","postal_code":"58261"}]