[{"id":"3317012001","district_id":"331701","name":"Ronggo Mulyo ","postal_code":"59253"},{"id":"3317012002","district_id":"331701","name":"Logede","postal_code":"59253"},{"id":"3317012003","district_id":"331701","name":"Pelemsari","postal_code":"59253"},{"id":"3317012004","district_id":"331701","name":"Logung","postal_code":"59253"},{"id":"3317012005","district_id":"331701","name":"Krikilan","postal_code":"59253"},{"id":"3317012006","district_id":"331701","name":"Kedung Tulup ","postal_code":"59253"},{"id":"3317012007","district_id":"331701","name":"Polbayem","postal_code":"59253"},{"id":"3317012008","district_id":"331701","name":"Jatihadi","postal_code":"59253"},{"id":"3317012009","district_id":"331701","name":"Sumber","postal_code":"59253"},{"id":"3317012010","district_id":"331701","name":"Jadi","postal_code":"59253"},{"id":"3317012011","district_id":"331701","name":"Grawan","postal_code":"59253"},{"id":"3317012012","district_id":"331701","name":"Randuagung","postal_code":"59253"},{"id":"3317012013","district_id":"331701","name":"Sukorejo","postal_code":"59253"},{"id":"3317012014","district_id":"331701","name":"Tlogotunggal","postal_code":"59253"},{"id":"3317012015","district_id":"331701","name":"Bogorejo","postal_code":"59253"},{"id":"3317012016","district_id":"331701","name":"Megulung","postal_code":"59253"},{"id":"3317012017","district_id":"331701","name":"Kedungasem","postal_code":"59253"},{"id":"3317012018","district_id":"331701","name":"Sekarsari","postal_code":"59253"}]