[{"id":"3317022001","district_id":"331702","name":"Mlatirejo","postal_code":"59255"},{"id":"3317022002","district_id":"331702","name":"Sendangmulyo","postal_code":"59255"},{"id":"3317022003","district_id":"331702","name":"Pondokrejo","postal_code":"59255"},{"id":"3317022004","district_id":"331702","name":"Warugunung","postal_code":"59255"},{"id":"3317022005","district_id":"331702","name":"Pinggan","postal_code":"59255"},{"id":"3317022006","district_id":"331702","name":"Cabean Kidul","postal_code":"59255"},{"id":"3317022007","district_id":"331702","name":"Lambangan Kulon","postal_code":"59255"},{"id":"3317022008","district_id":"331702","name":"Lambangan Wetan","postal_code":"59255"},{"id":"3317022009","district_id":"331702","name":"Sumbermulyo","postal_code":"59255"},{"id":"3317022010","district_id":"331702","name":"Karangasem","postal_code":"59255"},{"id":"3317022011","district_id":"331702","name":"Pasedan","postal_code":"59255"},{"id":"3317022012","district_id":"331702","name":"Ngulaan","postal_code":"59255"},{"id":"3317022013","district_id":"331702","name":"Jukung","postal_code":"59255"},{"id":"3317022014","district_id":"331702","name":"Bulu","postal_code":"59255"},{"id":"3317022015","district_id":"331702","name":"Mantingan","postal_code":"59255"},{"id":"3317022016","district_id":"331702","name":"Kadiwono","postal_code":"59255"}]