[{"id":"3318072001","district_id":"331807","name":"Tlogomojo","postal_code":"59186"},{"id":"3318072002","district_id":"331807","name":"Ngening","postal_code":"59186"},{"id":"3318072003","district_id":"331807","name":"Raci","postal_code":"59186"},{"id":"3318072004","district_id":"331807","name":"Ketitangwetan","postal_code":"59186"},{"id":"3318072005","district_id":"331807","name":"Bumimulyo","postal_code":"59186"},{"id":"3318072006","district_id":"331807","name":"Jembangan","postal_code":"59186"},{"id":"3318072007","district_id":"331807","name":"Klayusiwalan","postal_code":"59186"},{"id":"3318072008","district_id":"331807","name":"Bulumulyo","postal_code":"59186"},{"id":"3318072009","district_id":"331807","name":"Sukoagung","postal_code":"59186"},{"id":"3318072010","district_id":"331807","name":"Tompomulyo","postal_code":"59186"},{"id":"3318072011","district_id":"331807","name":"Kuniran","postal_code":"59186"},{"id":"3318072012","district_id":"331807","name":"Gunungsari","postal_code":"59186"},{"id":"3318072013","district_id":"331807","name":"Kedalon","postal_code":"59186"},{"id":"3318072014","district_id":"331807","name":"Gajahkumpul","postal_code":"59186"},{"id":"3318072015","district_id":"331807","name":"Batursari","postal_code":"59186"},{"id":"3318072016","district_id":"331807","name":"Lengkong","postal_code":"59186"},{"id":"3318072017","district_id":"331807","name":"Mangunlegi","postal_code":"59186"},{"id":"3318072018","district_id":"331807","name":"Pecangaan","postal_code":"59186"}]