[{"id":"3319062001","district_id":"331906","name":"Sadang","postal_code":"59382"},{"id":"3319062002","district_id":"331906","name":"Bulungcangkring","postal_code":"59382"},{"id":"3319062003","district_id":"331906","name":"Bulung Kulon","postal_code":"59382"},{"id":"3319062004","district_id":"331906","name":"Sidomulyo","postal_code":"59382"},{"id":"3319062005","district_id":"331906","name":"Gondoharum","postal_code":"59382"},{"id":"3319062006","district_id":"331906","name":"Terban","postal_code":"59382"},{"id":"3319062007","district_id":"331906","name":"Pladen","postal_code":"59382"},{"id":"3319062008","district_id":"331906","name":"Klaling","postal_code":"59382"},{"id":"3319062009","district_id":"331906","name":"Jekulo","postal_code":"59382"},{"id":"3319062010","district_id":"331906","name":"Hadipolo","postal_code":"59382"},{"id":"3319062011","district_id":"331906","name":"Honggosoco","postal_code":"59382"},{"id":"3319062012","district_id":"331906","name":"Tanjungrejo","postal_code":"59382"}]