[{"id":"3319012001","district_id":"331901","name":"Bakalankrapyak","postal_code":"59332"},{"id":"3319012002","district_id":"331901","name":"Prambatan Kidul","postal_code":"59332"},{"id":"3319012003","district_id":"331901","name":"Prambatan Lor","postal_code":"59332"},{"id":"3319012004","district_id":"331901","name":"Garung Kidul","postal_code":"59332"},{"id":"3319012005","district_id":"331901","name":"Setrokalangan","postal_code":"59332"},{"id":"3319012006","district_id":"331901","name":"Banget","postal_code":"59332"},{"id":"3319012007","district_id":"331901","name":"Blimbing Kidul","postal_code":"59332"},{"id":"3319012008","district_id":"331901","name":"Sidorekso","postal_code":"59332"},{"id":"3319012009","district_id":"331901","name":"Gamong","postal_code":"59332"},{"id":"3319012010","district_id":"331901","name":"Kedungdowo","postal_code":"59332"},{"id":"3319012011","district_id":"331901","name":"Garung Lor","postal_code":"59332"},{"id":"3319012012","district_id":"331901","name":"Karangampel","postal_code":"59332"},{"id":"3319012013","district_id":"331901","name":"Mijen","postal_code":"59332"},{"id":"3319012014","district_id":"331901","name":"Kaliwungu","postal_code":"59332"},{"id":"3319012015","district_id":"331901","name":"Papringan","postal_code":"59332"}]