[{"id":"3320132001","district_id":"332013","name":"Batukali","postal_code":"59462"},{"id":"3320132002","district_id":"332013","name":"Bandungrejo","postal_code":"59462"},{"id":"3320132003","district_id":"332013","name":"Banyuputih","postal_code":"59462"},{"id":"3320132004","district_id":"332013","name":"Pendosawalan","postal_code":"59462"},{"id":"3320132005","district_id":"332013","name":"Damarjati","postal_code":"59462"},{"id":"3320132006","district_id":"332013","name":"Purwogondo","postal_code":"59462"},{"id":"3320132007","district_id":"332013","name":"Margoyoso","postal_code":"59462"},{"id":"3320132008","district_id":"332013","name":"Sendang","postal_code":"59462"},{"id":"3320132009","district_id":"332013","name":"Kriyan","postal_code":"59462"},{"id":"3320132010","district_id":"332013","name":"Robayan","postal_code":"59462"},{"id":"3320132011","district_id":"332013","name":"Bakalan","postal_code":"59462"},{"id":"3320132012","district_id":"332013","name":"Manyargading","postal_code":"59462"}]