[{"id":"3321111014","district_id":"332111","name":"Mangunjiwan","postal_code":"59515"},{"id":"3321111015","district_id":"332111","name":"Kalicilik","postal_code":"59514"},{"id":"3321111016","district_id":"332111","name":"Singorejo","postal_code":"59513"},{"id":"3321111017","district_id":"332111","name":"Betokan","postal_code":"59512"},{"id":"3321111018","district_id":"332111","name":"Bintoro","postal_code":"59511"},{"id":"3321111019","district_id":"332111","name":"Kadilangu","postal_code":"59517"},{"id":"3321112001","district_id":"332111","name":"Bolo","postal_code":"59517"},{"id":"3321112002","district_id":"332111","name":"Bango","postal_code":"59517"},{"id":"3321112003","district_id":"332111","name":"Kedondong","postal_code":"59517"},{"id":"3321112004","district_id":"332111","name":"Sedo","postal_code":"59517"},{"id":"3321112005","district_id":"332111","name":"Mulyorejo","postal_code":"59517"},{"id":"3321112006","district_id":"332111","name":"Turirejo","postal_code":"59517"},{"id":"3321112007","district_id":"332111","name":"Raji","postal_code":"59517"},{"id":"3321112008","district_id":"332111","name":"Cabean","postal_code":"59517"},{"id":"3321112009","district_id":"332111","name":"Tempuran","postal_code":"59517"},{"id":"3321112010","district_id":"332111","name":"Karangmlati","postal_code":"59517"},{"id":"3321112011","district_id":"332111","name":"Katonsari","postal_code":"59516"},{"id":"3321112012","district_id":"332111","name":"Kalikondang","postal_code":"59517"},{"id":"3321112013","district_id":"332111","name":"Donorojo ","postal_code":"59517"}]