[{"id":"3321072001","district_id":"332107","name":"Merak","postal_code":"59573"},{"id":"3321072002","district_id":"332107","name":"Karangrejo","postal_code":"59573"},{"id":"3321072003","district_id":"332107","name":"Sidomulyo","postal_code":"59573"},{"id":"3321072004","district_id":"332107","name":"Botosengon","postal_code":"59573"},{"id":"3321072005","district_id":"332107","name":"Jerukgulung","postal_code":"59573"},{"id":"3321072006","district_id":"332107","name":"Kunir","postal_code":"59573"},{"id":"3321072007","district_id":"332107","name":"Brakas","postal_code":"59573"},{"id":"3321072008","district_id":"332107","name":"Balerejo","postal_code":"59573"},{"id":"3321072009","district_id":"332107","name":"Baleromo","postal_code":"59573"},{"id":"3321072010","district_id":"332107","name":"Kedungori","postal_code":"59573"},{"id":"3321072011","district_id":"332107","name":"Kuwu","postal_code":"59573"},{"id":"3321072012","district_id":"332107","name":"Kebonsari","postal_code":"59573"},{"id":"3321072013","district_id":"332107","name":"Gempoldenok","postal_code":"59573"},{"id":"3321072015","district_id":"332107","name":"Harjowinangun","postal_code":"59573"},{"id":"3321072016","district_id":"332107","name":"Kramat","postal_code":"59573"},{"id":"3321072017","district_id":"332107","name":"Dempet","postal_code":"59573"}]