[{"id":"3322131001","district_id":"332213","name":"Ngempon","postal_code":"50552"},{"id":"3322131002","district_id":"332213","name":"Karangjati","postal_code":"50552"},{"id":"3322131005","district_id":"332213","name":"Wujil","postal_code":"50552"},{"id":"3322131009","district_id":"332213","name":"Bergas Lor","postal_code":"50552"},{"id":"3322132003","district_id":"332213","name":"Wringinputih","postal_code":"50552"},{"id":"3322132004","district_id":"332213","name":"Gondoriyo","postal_code":"50187"},{"id":"3322132006","district_id":"332213","name":"Gebugan","postal_code":"50552"},{"id":"3322132007","district_id":"332213","name":"Pagersari","postal_code":"50552"},{"id":"3322132008","district_id":"332213","name":"Munding","postal_code":"50552"},{"id":"3322132010","district_id":"332213","name":"Bergas Kidul","postal_code":"50552"},{"id":"3322132011","district_id":"332213","name":"Randugunting","postal_code":"50552"},{"id":"3322132012","district_id":"332213","name":"Jatijajar","postal_code":"50552"},{"id":"3322132013","district_id":"332213","name":"Diwak","postal_code":"50552"}]