[{"id":"3322122001","district_id":"332212","name":"Bringin","postal_code":"50772"},{"id":"3322122002","district_id":"332212","name":"Popongan","postal_code":"50772"},{"id":"3322122003","district_id":"332212","name":"Pakis","postal_code":"50772"},{"id":"3322122004","district_id":"332212","name":"Rembes","postal_code":"50218"},{"id":"3322122005","district_id":"332212","name":"Tanjung","postal_code":"50772"},{"id":"3322122006","district_id":"332212","name":"Sambirejo","postal_code":"50772"},{"id":"3322122007","district_id":"332212","name":"Kalijambe","postal_code":"50772"},{"id":"3322122008","district_id":"332212","name":"Kalikurmo","postal_code":"50772"},{"id":"3322122009","district_id":"332212","name":"Gogodalem","postal_code":"50772"},{"id":"3322122010","district_id":"332212","name":"Lebak","postal_code":"50772"},{"id":"3322122011","district_id":"332212","name":"Wiru","postal_code":"50772"},{"id":"3322122012","district_id":"332212","name":"Nyemoh","postal_code":"50772"},{"id":"3322122013","district_id":"332212","name":"Tempuran","postal_code":"50772"},{"id":"3322122014","district_id":"332212","name":"Sendang","postal_code":"50772"},{"id":"3322122015","district_id":"332212","name":"Truko","postal_code":"50772"},{"id":"3322122016","district_id":"332212","name":"Banding","postal_code":"50772"}]