[{"id":"3324172001","district_id":"332417","name":"Truko","postal_code":"51353"},{"id":"3324172002","district_id":"332417","name":"Lebosari","postal_code":"51353"},{"id":"3324172003","district_id":"332417","name":"Kadilangu","postal_code":"51353"},{"id":"3324172004","district_id":"332417","name":"Gembonganomwetan ","postal_code":"51353"},{"id":"3324172005","district_id":"332417","name":"Kaliyoso","postal_code":"51353"},{"id":"3324172006","district_id":"332417","name":"Sukodadi","postal_code":"51353"},{"id":"3324172007","district_id":"332417","name":"Sendangkulon","postal_code":"51353"},{"id":"3324172008","district_id":"332417","name":"Sendangdawung","postal_code":"51353"},{"id":"3324172009","district_id":"332417","name":"Laban","postal_code":"51353"},{"id":"3324172010","district_id":"332417","name":"Karangmalangwetan ","postal_code":"51353"},{"id":"3324172011","district_id":"332417","name":"Jungsemi","postal_code":"51353"},{"id":"3324172012","district_id":"332417","name":"Kangkung","postal_code":"51353"},{"id":"3324172013","district_id":"332417","name":"Tanjungmojo","postal_code":"51353"},{"id":"3324172014","district_id":"332417","name":"Rejosari","postal_code":"51353"},{"id":"3324172015","district_id":"332417","name":"Kalirejo","postal_code":"51353"}]