[{"id":"3324162001","district_id":"332416","name":"Wonotenggang","postal_code":"51354"},{"id":"3324162002","district_id":"332416","name":"Pojoksari","postal_code":"51354"},{"id":"3324162003","district_id":"332416","name":"Randusari","postal_code":"51354"},{"id":"3324162004","district_id":"332416","name":"Karangsari","postal_code":"51319"},{"id":"3324162005","district_id":"332416","name":"Parakan","postal_code":"51354"},{"id":"3324162006","district_id":"332416","name":"Tambaksari","postal_code":"51354"},{"id":"3324162007","district_id":"332416","name":"Jatipurwo","postal_code":"51354"},{"id":"3324162008","district_id":"332416","name":"Rowosari","postal_code":"51354"},{"id":"3324162009","district_id":"332416","name":"Tanjungsari","postal_code":"51354"},{"id":"3324162010","district_id":"332416","name":"Tanjunganom","postal_code":"51354"},{"id":"3324162011","district_id":"332416","name":"Sendangdawuhan","postal_code":"51354"},{"id":"3324162012","district_id":"332416","name":"Kebonsari","postal_code":"51354"},{"id":"3324162013","district_id":"332416","name":"Bulak","postal_code":"51354"},{"id":"3324162014","district_id":"332416","name":"Gebanganom","postal_code":"51354"},{"id":"3324162015","district_id":"332416","name":"Gempolsewu","postal_code":"51354"},{"id":"3324162016","district_id":"332416","name":"Sendangsikucing ","postal_code":"51354"}]