[{"id":"3325072005","district_id":"332507","name":"Surodadi","postal_code":"51281"},{"id":"3325072006","district_id":"332507","name":"Sentul","postal_code":"51281"},{"id":"3325072007","district_id":"332507","name":"Plelen","postal_code":"51281"},{"id":"3325072008","district_id":"332507","name":"Kutosari","postal_code":"51281"},{"id":"3325072009","district_id":"332507","name":"Mentosari","postal_code":"51281"},{"id":"3325072010","district_id":"332507","name":"Gringsing","postal_code":"51281"},{"id":"3325072011","district_id":"332507","name":"Yosorejo","postal_code":"51281"},{"id":"3325072012","district_id":"332507","name":"Krengseng","postal_code":"51281"},{"id":"3325072013","district_id":"332507","name":"Sawangan","postal_code":"51281"},{"id":"3325072014","district_id":"332507","name":"Ketanggan","postal_code":"51281"},{"id":"3325072015","district_id":"332507","name":"Lebo","postal_code":"51281"},{"id":"3325072016","district_id":"332507","name":"Kebondalem","postal_code":"51281"},{"id":"3325072017","district_id":"332507","name":"Sidorejo","postal_code":"51281"},{"id":"3325072018","district_id":"332507","name":"Tedunan","postal_code":"51281"},{"id":"3325072019","district_id":"332507","name":"Madugowongjati","postal_code":"51281"}]