[{"id":"3326172001","district_id":"332617","name":"Mejasem","postal_code":"51137"},{"id":"3326172002","district_id":"332617","name":"Wonosari","postal_code":"51137"},{"id":"3326172003","district_id":"332617","name":"Tengengkulon","postal_code":"51137"},{"id":"3326172004","district_id":"332617","name":"Tunjungsari","postal_code":"51137"},{"id":"3326172005","district_id":"332617","name":"Pait","postal_code":"51137"},{"id":"3326172006","district_id":"332617","name":"Tengengwetan ","postal_code":"51137"},{"id":"3326172007","district_id":"332617","name":"Rembun","postal_code":"51137"},{"id":"3326172008","district_id":"332617","name":"Yosorejo","postal_code":"51137"},{"id":"3326172009","district_id":"332617","name":"Siwalan","postal_code":"51137"},{"id":"3326172010","district_id":"332617","name":"Boyoteluk ","postal_code":"51137"},{"id":"3326172011","district_id":"332617","name":"Depok","postal_code":"51137"},{"id":"3326172012","district_id":"332617","name":"Blacanan","postal_code":"51137"},{"id":"3326172013","district_id":"332617","name":"Blimbingwuluh ","postal_code":"51137"}]