[{"id":"3326122001","district_id":"332612","name":"Jetakkidul ","postal_code":"51181"},{"id":"3326122002","district_id":"332612","name":"Sastrodirjan","postal_code":"51181"},{"id":"3326122003","district_id":"332612","name":"Legokgunung ","postal_code":"51181"},{"id":"3326122004","district_id":"332612","name":"Galangpengampon ","postal_code":"51181"},{"id":"3326122005","district_id":"332612","name":"Kwagean","postal_code":"51181"},{"id":"3326122006","district_id":"332612","name":"Getas","postal_code":"51181"},{"id":"3326122007","district_id":"332612","name":"Rowokembu","postal_code":"51181"},{"id":"3326122008","district_id":"332612","name":"Wonopringgo","postal_code":"51181"},{"id":"3326122009","district_id":"332612","name":"Sampih","postal_code":"51181"},{"id":"3326122010","district_id":"332612","name":"Wonorejo","postal_code":"51181"},{"id":"3326122011","district_id":"332612","name":"Gondang","postal_code":"51181"},{"id":"3326122012","district_id":"332612","name":"Jetaklengkong ","postal_code":"51181"},{"id":"3326122013","district_id":"332612","name":"Pengadentengah ","postal_code":"51181"},{"id":"3326122014","district_id":"332612","name":"Surobayan ","postal_code":"51181"}]