[{"id":"3326072001","district_id":"332607","name":"Gutomo","postal_code":"51182"},{"id":"3326072002","district_id":"332607","name":"Limbangan","postal_code":"51182"},{"id":"3326072003","district_id":"332607","name":"Karanggondang ","postal_code":"51182"},{"id":"3326072004","district_id":"332607","name":"Lolong","postal_code":"51182"},{"id":"3326072005","district_id":"332607","name":"Pedawang","postal_code":"51182"},{"id":"3326072006","district_id":"332607","name":"Pododadi","postal_code":"51182"},{"id":"3326072007","district_id":"332607","name":"Legokalong ","postal_code":"51182"},{"id":"3326072008","district_id":"332607","name":"Karangsari","postal_code":"51182"},{"id":"3326072009","district_id":"332607","name":"Kulu","postal_code":"51182"},{"id":"3326072010","district_id":"332607","name":"Banjarejo","postal_code":"51182"},{"id":"3326072011","district_id":"332607","name":"Wonosari","postal_code":"51182"},{"id":"3326072012","district_id":"332607","name":"Sokosari ","postal_code":"51182"},{"id":"3326072013","district_id":"332607","name":"Sidomukti","postal_code":"51182"},{"id":"3326072014","district_id":"332607","name":"Kayugeritan","postal_code":"51182"},{"id":"3326072015","district_id":"332607","name":"Kutosari","postal_code":"51182"}]