[{"id":"3327101006","district_id":"332710","name":"Petarukan","postal_code":"52362"},{"id":"3327102001","district_id":"332710","name":"Kendalsari","postal_code":"52362"},{"id":"3327102002","district_id":"332710","name":"Widodaren","postal_code":"52362"},{"id":"3327102003","district_id":"332710","name":"Karangasem","postal_code":"52362"},{"id":"3327102004","district_id":"332710","name":"Petanjungan","postal_code":"52362"},{"id":"3327102005","district_id":"332710","name":"Serang","postal_code":"52362"},{"id":"3327102007","district_id":"332710","name":"Kalirandu","postal_code":"52362"},{"id":"3327102008","district_id":"332710","name":"Iser","postal_code":"52362"},{"id":"3327102009","district_id":"332710","name":"Sirangkang","postal_code":"52362"},{"id":"3327102010","district_id":"332710","name":"Pesucen","postal_code":"52362"},{"id":"3327102011","district_id":"332710","name":"Temuireng","postal_code":"52362"},{"id":"3327102012","district_id":"332710","name":"Panjunan","postal_code":"52362"},{"id":"3327102013","district_id":"332710","name":"Kendaldoyong","postal_code":"52362"},{"id":"3327102014","district_id":"332710","name":"Pegundan","postal_code":"52362"},{"id":"3327102015","district_id":"332710","name":"Bulu","postal_code":"52362"},{"id":"3327102016","district_id":"332710","name":"Tegalmlati","postal_code":"52362"},{"id":"3327102017","district_id":"332710","name":"Loning","postal_code":"52362"},{"id":"3327102018","district_id":"332710","name":"Klareyan","postal_code":"52362"},{"id":"3327102019","district_id":"332710","name":"Kendalrejo","postal_code":"52362"},{"id":"3327102020","district_id":"332710","name":"Nyamplungsari","postal_code":"52362"}]