[{"id":"3327081004","district_id":"332708","name":"Paduraksa","postal_code":"52319"},{"id":"3327081013","district_id":"332708","name":"Kebondalem","postal_code":"52312"},{"id":"3327081014","district_id":"332708","name":"Bojongbata","postal_code":"52319"},{"id":"3327081015","district_id":"332708","name":"Mulyoharjo","postal_code":"52313"},{"id":"3327081016","district_id":"332708","name":"Pelutan","postal_code":"52311"},{"id":"3327081018","district_id":"332708","name":"Sugihwaras","postal_code":"52315"},{"id":"3327081019","district_id":"332708","name":"Widuri","postal_code":"52314"},{"id":"3327082001","district_id":"332708","name":"Banjarmulya","postal_code":"52319"},{"id":"3327082002","district_id":"332708","name":"Surajaya","postal_code":"52318"},{"id":"3327082003","district_id":"332708","name":"Kramat","postal_code":"52318"},{"id":"3327082005","district_id":"332708","name":"Pegongsoran","postal_code":"52319"},{"id":"3327082006","district_id":"332708","name":"Sungapan","postal_code":"52319"},{"id":"3327082007","district_id":"332708","name":"Saradan","postal_code":"52319"},{"id":"3327082008","district_id":"332708","name":"Sewaka","postal_code":"52319"},{"id":"3327082009","district_id":"332708","name":"Mengori","postal_code":"52319"},{"id":"3327082010","district_id":"332708","name":"Wanamulya","postal_code":"52319"},{"id":"3327082011","district_id":"332708","name":"Bojongnangka","postal_code":"52318"},{"id":"3327082012","district_id":"332708","name":"Tambakrejo","postal_code":"52317"},{"id":"3327082017","district_id":"332708","name":"Lawangrejo","postal_code":"52316"},{"id":"3327082020","district_id":"332708","name":"Danasari","postal_code":"52314"}]