[{"id":"3328032001","district_id":"332803","name":"Rembul","postal_code":"52465"},{"id":"3328032002","district_id":"332803","name":"Dukuhtengah","postal_code":"52465"},{"id":"3328032003","district_id":"332803","name":"Kedawung","postal_code":"52465"},{"id":"3328032004","district_id":"332803","name":"Suniarsih","postal_code":"52465"},{"id":"3328032005","district_id":"332803","name":"Karangmulya","postal_code":"52465"},{"id":"3328032006","district_id":"332803","name":"Tuwel","postal_code":"52465"},{"id":"3328032007","district_id":"332803","name":"Bojong","postal_code":"52465"},{"id":"3328032008","district_id":"332803","name":"Buniwah","postal_code":"52465"},{"id":"3328032009","district_id":"332803","name":"Lengkong","postal_code":"52465"},{"id":"3328032010","district_id":"332803","name":"Batunyana","postal_code":"52465"},{"id":"3328032011","district_id":"332803","name":"Sangkanayu","postal_code":"52465"},{"id":"3328032012","district_id":"332803","name":"Gunungjati","postal_code":"52465"},{"id":"3328032013","district_id":"332803","name":"Puncangluwuk","postal_code":"52465"},{"id":"3328032014","district_id":"332803","name":"Kajenengan","postal_code":"52465"},{"id":"3328032015","district_id":"332803","name":"Kalijambu","postal_code":"52465"},{"id":"3328032016","district_id":"332803","name":"Danasari","postal_code":"52465"},{"id":"3328032017","district_id":"332803","name":"Cikura","postal_code":"52465"}]