[{"id":"3328132001","district_id":"332813","name":"Ketanggungan","postal_code":"52192"},{"id":"3328132002","district_id":"332813","name":"Kupu","postal_code":"52192"},{"id":"3328132003","district_id":"332813","name":"Sidakaton","postal_code":"52192"},{"id":"3328132004","district_id":"332813","name":"Sidapurna","postal_code":"52192"},{"id":"3328132005","district_id":"332813","name":"Pepedan","postal_code":"52192"},{"id":"3328132006","district_id":"332813","name":"Pengarasan","postal_code":"52192"},{"id":"3328132007","district_id":"332813","name":"Lawatan","postal_code":"52192"},{"id":"3328132008","district_id":"332813","name":"Dukuhturi","postal_code":"52192"},{"id":"3328132009","district_id":"332813","name":"Pekauman Kulon","postal_code":"52192"},{"id":"3328132010","district_id":"332813","name":"Pagongan","postal_code":"52192"},{"id":"3328132011","district_id":"332813","name":"Debongwetan","postal_code":"52192"},{"id":"3328132012","district_id":"332813","name":"Kepandean","postal_code":"52192"},{"id":"3328132013","district_id":"332813","name":"Grogol","postal_code":"52192"},{"id":"3328132014","district_id":"332813","name":"Bandasari","postal_code":"52192"},{"id":"3328132015","district_id":"332813","name":"Sutapranan","postal_code":"52192"},{"id":"3328132016","district_id":"332813","name":"Kademangaran","postal_code":"52192"},{"id":"3328132017","district_id":"332813","name":"Karanganyar","postal_code":"52192"},{"id":"3328132018","district_id":"332813","name":"Pengabean","postal_code":"52192"}]