[{"id":"3328042001","district_id":"332804","name":"Cenggini","postal_code":"52464"},{"id":"3328042002","district_id":"332804","name":"Bukateja","postal_code":"52464"},{"id":"3328042003","district_id":"332804","name":"Kalibakung","postal_code":"52464"},{"id":"3328042004","district_id":"332804","name":"Karangjambu","postal_code":"52464"},{"id":"3328042005","district_id":"332804","name":"Cilongok","postal_code":"52464"},{"id":"3328042006","district_id":"332804","name":"Tembongwah","postal_code":"52464"},{"id":"3328042007","district_id":"332804","name":"Danareja","postal_code":"52464"},{"id":"3328042008","district_id":"332804","name":"Sangkanjaya","postal_code":"52464"},{"id":"3328042009","district_id":"332804","name":"Danawarih","postal_code":"52464"},{"id":"3328042010","district_id":"332804","name":"Pagerwangi","postal_code":"52464"},{"id":"3328042011","district_id":"332804","name":"Harjowinangun","postal_code":"52464"},{"id":"3328042012","district_id":"332804","name":"Batuagung","postal_code":"52464"},{"id":"3328042013","district_id":"332804","name":"Kaliwungu","postal_code":"52464"},{"id":"3328042014","district_id":"332804","name":"Banjaranyar","postal_code":"52464"},{"id":"3328042015","district_id":"332804","name":"Sesepan","postal_code":"52464"},{"id":"3328042016","district_id":"332804","name":"Wringinjenggot","postal_code":"52464"},{"id":"3328042017","district_id":"332804","name":"Pamiritan","postal_code":"52464"},{"id":"3328042018","district_id":"332804","name":"Balapulang Wetan","postal_code":"52464"},{"id":"3328042019","district_id":"332804","name":"Balapulang Kulon","postal_code":"52464"},{"id":"3328042020","district_id":"332804","name":"Cibunar","postal_code":"52464"}]