[{"id":"3374051001","district_id":"337405","name":"Sembungharjo","postal_code":"50116"},{"id":"3374051002","district_id":"337405","name":"Kudu","postal_code":"50116"},{"id":"3374051003","district_id":"337405","name":"Karangroto","postal_code":"50117"},{"id":"3374051004","district_id":"337405","name":"Genuksari","postal_code":"50231"},{"id":"3374051005","district_id":"337405","name":"Banjardowo","postal_code":"50117"},{"id":"3374051006","district_id":"337405","name":"Gebangsari","postal_code":"50117"},{"id":"3374051007","district_id":"337405","name":"Trimulyo","postal_code":"50118"},{"id":"3374051008","district_id":"337405","name":"Penggaron Lor","postal_code":"50113"},{"id":"3374051009","district_id":"337405","name":"Muktiharjo Lor","postal_code":"50111"},{"id":"3374051010","district_id":"337405","name":"Bangetayu Kulon","postal_code":"50115"},{"id":"3374051011","district_id":"337405","name":"Bangetayu Wetan","postal_code":"50115"},{"id":"3374051012","district_id":"337405","name":"Terboyo Kulon","postal_code":"50112"},{"id":"3374051013","district_id":"337405","name":"Terboyo Wetan","postal_code":"50112"}]