[{"id":"3374011001","district_id":"337401","name":"Miroto","postal_code":"50134"},{"id":"3374011002","district_id":"337401","name":"Brumbungan","postal_code":"50135"},{"id":"3374011003","district_id":"337401","name":"Jagalan","postal_code":"50613"},{"id":"3374011004","district_id":"337401","name":"Kranggan","postal_code":"50139"},{"id":"3374011005","district_id":"337401","name":"Gabahan","postal_code":"50135"},{"id":"3374011006","district_id":"337401","name":"Kembangsari","postal_code":"50133"},{"id":"3374011007","district_id":"337401","name":"Sekayu","postal_code":"50132"},{"id":"3374011008","district_id":"337401","name":"Pandansari","postal_code":"50139"},{"id":"3374011009","district_id":"337401","name":"Bangunharjo","postal_code":"50138"},{"id":"3374011010","district_id":"337401","name":"Kauman","postal_code":"50188"},{"id":"3374011011","district_id":"337401","name":"Purwodinatan","postal_code":"50137"},{"id":"3374011012","district_id":"337401","name":"Karang Kidul ","postal_code":"50241"},{"id":"3374011013","district_id":"337401","name":"Pekunden","postal_code":"50241"},{"id":"3374011014","district_id":"337401","name":"Pindrikan Kidul ","postal_code":"50131"},{"id":"3374011015","district_id":"337401","name":"Pindrikan Lor ","postal_code":"50131"}]