[{"id":"3502142001","district_id":"350214","name":"Sampung","postal_code":"63454"},{"id":"3502142002","district_id":"350214","name":"Pohijo","postal_code":"63454"},{"id":"3502142003","district_id":"350214","name":"Jenangan","postal_code":"63454"},{"id":"3502142004","district_id":"350214","name":"Nglurup","postal_code":"63454"},{"id":"3502142005","district_id":"350214","name":"Tulung","postal_code":"63454"},{"id":"3502142006","district_id":"350214","name":"Carangrejo ","postal_code":"63454"},{"id":"3502142007","district_id":"350214","name":"Pagerukir","postal_code":"63454"},{"id":"3502142008","district_id":"350214","name":"Kunti","postal_code":"63454"},{"id":"3502142009","district_id":"350214","name":"Glinggang","postal_code":"63454"},{"id":"3502142010","district_id":"350214","name":"Gelangkulon","postal_code":"63454"},{"id":"3502142011","district_id":"350214","name":"Karangwaluh ","postal_code":"63454"},{"id":"3502142012","district_id":"350214","name":"Ringinputih","postal_code":"63454"}]