[{"id":"3503132001","district_id":"350313","name":"Ngadisuko","postal_code":"66381"},{"id":"3503132002","district_id":"350313","name":"Gador","postal_code":"66381"},{"id":"3503132003","district_id":"350313","name":"Kendalrejo","postal_code":"66381"},{"id":"3503132004","district_id":"350313","name":"Semarum","postal_code":"66381"},{"id":"3503132005","district_id":"350313","name":"Sumberejo","postal_code":"66381"},{"id":"3503132006","district_id":"350313","name":"Durenan","postal_code":"66381"},{"id":"3503132007","district_id":"350313","name":"Pakis","postal_code":"66381"},{"id":"3503132008","district_id":"350313","name":"Pandean","postal_code":"66381"},{"id":"3503132009","district_id":"350313","name":"Panggungsari","postal_code":"66381"},{"id":"3503132010","district_id":"350313","name":"Sumbergayam","postal_code":"66381"},{"id":"3503132011","district_id":"350313","name":"Kamulan","postal_code":"66381"},{"id":"3503132012","district_id":"350313","name":"Malasan","postal_code":"66381"},{"id":"3503132013","district_id":"350313","name":"Baruharjo","postal_code":"66381"},{"id":"3503132014","district_id":"350313","name":"Karanganom","postal_code":"66381"}]