[{"id":"3505162001","district_id":"350516","name":"Kedungwungu","postal_code":"66193"},{"id":"3505162002","district_id":"350516","name":"Salamrejo","postal_code":"66193"},{"id":"3505162003","district_id":"350516","name":"Sumberkembar","postal_code":"66193"},{"id":"3505162004","district_id":"350516","name":"Binangun","postal_code":"66193"},{"id":"3505162005","district_id":"350516","name":"Rejoso","postal_code":"66193"},{"id":"3505162006","district_id":"350516","name":"Ngembul","postal_code":"66193"},{"id":"3505162007","district_id":"350516","name":"Sambigede","postal_code":"66193"},{"id":"3505162008","district_id":"350516","name":"Tawangrejo","postal_code":"66193"},{"id":"3505162009","district_id":"350516","name":"Umbuldamar","postal_code":"66193"},{"id":"3505162010","district_id":"350516","name":"Ngadri","postal_code":"66193"},{"id":"3505162011","district_id":"350516","name":"Birowo","postal_code":"66193"},{"id":"3505162012","district_id":"350516","name":"Sukorame","postal_code":"66193"}]