[{"id":"3507182001","district_id":"350718","name":"Kedungrejo","postal_code":"65154"},{"id":"3507182002","district_id":"350718","name":"Banjarejo ","postal_code":"65154"},{"id":"3507182003","district_id":"350718","name":"Pucangsongo ","postal_code":"65154"},{"id":"3507182004","district_id":"350718","name":"Sukoanyar","postal_code":"65154"},{"id":"3507182005","district_id":"350718","name":"Sumberpasir","postal_code":"65154"},{"id":"3507182006","district_id":"350718","name":"Pakiskembar","postal_code":"65154"},{"id":"3507182007","district_id":"350718","name":"Sumberkradenan","postal_code":"65154"},{"id":"3507182008","district_id":"350718","name":"Ampeldento","postal_code":"65154"},{"id":"3507182009","district_id":"350718","name":"Sekarpuro","postal_code":"65154"},{"id":"3507182010","district_id":"350718","name":"Mangliawan","postal_code":"65154"},{"id":"3507182011","district_id":"350718","name":"Tirtomoyo","postal_code":"65154"},{"id":"3507182012","district_id":"350718","name":"Saptorenggo","postal_code":"65154"},{"id":"3507182013","district_id":"350718","name":"Asrikaton","postal_code":"65154"},{"id":"3507182014","district_id":"350718","name":"Bunutwetan","postal_code":"65154"},{"id":"3507182015","district_id":"350718","name":"Pakisjajar","postal_code":"65154"}]