[{"id":"3507251005","district_id":"350725","name":"Kalirejo","postal_code":"65216"},{"id":"3507251010","district_id":"350725","name":"Lawang","postal_code":"65211"},{"id":"3507252001","district_id":"350725","name":"Sidoluhur","postal_code":"65216"},{"id":"3507252002","district_id":"350725","name":"Srigading","postal_code":"65216"},{"id":"3507252003","district_id":"350725","name":"Sidodadi","postal_code":"65216"},{"id":"3507252004","district_id":"350725","name":"Bedali","postal_code":"65215"},{"id":"3507252006","district_id":"350725","name":"Mulyoarjo","postal_code":"65216"},{"id":"3507252007","district_id":"350725","name":"Sumberngepoh ","postal_code":"65216"},{"id":"3507252008","district_id":"350725","name":"Sumberporong ","postal_code":"65216"},{"id":"3507252009","district_id":"350725","name":"Turirejo","postal_code":"65213"},{"id":"3507252011","district_id":"350725","name":"Ketindan","postal_code":"65214"},{"id":"3507252012","district_id":"350725","name":"Wonorejo","postal_code":"65216"}]