[{"id":"3508052001","district_id":"350805","name":"Pandanwangi","postal_code":"67371"},{"id":"3508052002","district_id":"350805","name":"Sumberjati","postal_code":"67371"},{"id":"3508052003","district_id":"350805","name":"Tempeh Kidul","postal_code":"67371"},{"id":"3508052004","district_id":"350805","name":"Lempeni","postal_code":"67371"},{"id":"3508052005","district_id":"350805","name":"Tempeh Tengah","postal_code":"67371"},{"id":"3508052006","district_id":"350805","name":"Kaliwungu","postal_code":"67371"},{"id":"3508052007","district_id":"350805","name":"Tempeh Lor","postal_code":"67371"},{"id":"3508052008","district_id":"350805","name":"Besuk","postal_code":"67371"},{"id":"3508052009","district_id":"350805","name":"Jatisari","postal_code":"67371"},{"id":"3508052010","district_id":"350805","name":"Pulo","postal_code":"67371"},{"id":"3508052011","district_id":"350805","name":"Gesang","postal_code":"67371"},{"id":"3508052012","district_id":"350805","name":"Jokarto","postal_code":"67371"},{"id":"3508052013","district_id":"350805","name":"Pandanarum","postal_code":"67371"}]