[{"id":"3508072001","district_id":"350807","name":"Darungan","postal_code":"67382"},{"id":"3508072002","district_id":"350807","name":"Kraton","postal_code":"67382"},{"id":"3508072003","district_id":"350807","name":"Wotgalih","postal_code":"67382"},{"id":"3508072004","district_id":"350807","name":"Tunjungrejo","postal_code":"67382"},{"id":"3508072005","district_id":"350807","name":"Yosowilangun Kidul","postal_code":"67382"},{"id":"3508072006","district_id":"350807","name":"Yosowilangun Lor","postal_code":"67382"},{"id":"3508072007","district_id":"350807","name":"Krai","postal_code":"67382"},{"id":"3508072008","district_id":"350807","name":"Karanganyar","postal_code":"67382"},{"id":"3508072009","district_id":"350807","name":"Karangrejo","postal_code":"67382"},{"id":"3508072010","district_id":"350807","name":"Munder","postal_code":"67382"},{"id":"3508072011","district_id":"350807","name":"Kebonsari","postal_code":"67382"},{"id":"3508072012","district_id":"350807","name":"Kalipepe","postal_code":"67382"}]