[{"id":"3510142001","district_id":"351014","name":"Bareng","postal_code":"68461"},{"id":"3510142002","district_id":"351014","name":"Bunder","postal_code":"68461"},{"id":"3510142003","district_id":"351014","name":"Gombolirang","postal_code":"68461"},{"id":"3510142004","district_id":"351014","name":"Benelanlor ","postal_code":"68461"},{"id":"3510142005","district_id":"351014","name":"Labanasem","postal_code":"68461"},{"id":"3510142006","district_id":"351014","name":"Pakistaji","postal_code":"68461"},{"id":"3510142009","district_id":"351014","name":"Pondoknongko","postal_code":"68461"},{"id":"3510142010","district_id":"351014","name":"Dadapan","postal_code":"68461"},{"id":"3510142011","district_id":"351014","name":"Kedayunan","postal_code":"68461"},{"id":"3510142012","district_id":"351014","name":"Kabat","postal_code":"68461"},{"id":"3510142013","district_id":"351014","name":"Macan Putih","postal_code":"68461"},{"id":"3510142014","district_id":"351014","name":"Tambong","postal_code":"68461"},{"id":"3510142015","district_id":"351014","name":"Pendarungan","postal_code":"68461"},{"id":"3510142016","district_id":"351014","name":"Kalirejo","postal_code":"68461"}]