[{"id":"3513182001","district_id":"351318","name":"Brumbungan Lor","postal_code":"67272"},{"id":"3513182002","district_id":"351318","name":"Jatiadi","postal_code":"67272"},{"id":"3513182003","district_id":"351318","name":"Klaseman","postal_code":"67272"},{"id":"3513182004","district_id":"351318","name":"Pesisir","postal_code":"67272"},{"id":"3513182005","district_id":"351318","name":"Bulang","postal_code":"67272"},{"id":"3513182006","district_id":"351318","name":"Randupitu","postal_code":"67272"},{"id":"3513182007","district_id":"351318","name":"Pikatan","postal_code":"67272"},{"id":"3513182008","district_id":"351318","name":"Sebaung","postal_code":"67272"},{"id":"3513182009","district_id":"351318","name":"Sumberkerang","postal_code":"67272"},{"id":"3513182010","district_id":"351318","name":"Banyuanyar Lor","postal_code":"67272"},{"id":"3513182011","district_id":"351318","name":"Curahsawo","postal_code":"67272"},{"id":"3513182012","district_id":"351318","name":"Pajurangan","postal_code":"67272"},{"id":"3513182013","district_id":"351318","name":"Gending","postal_code":"67272"}]