[{"id":"3513122001","district_id":"351312","name":"Jabungsisir ","postal_code":"67291"},{"id":"3513122002","district_id":"351312","name":"Jabungcandi ","postal_code":"67291"},{"id":"3513122003","district_id":"351312","name":"Jabung Wetan","postal_code":"67291"},{"id":"3513122004","district_id":"351312","name":"Kalikajar Kulon","postal_code":"67291"},{"id":"3513122005","district_id":"351312","name":"Kalikajar Wetan","postal_code":"67291"},{"id":"3513122006","district_id":"351312","name":"Pandean","postal_code":"67291"},{"id":"3513122007","district_id":"351312","name":"Alastengah ","postal_code":"67291"},{"id":"3513122008","district_id":"351312","name":"Sidodadi","postal_code":"67291"},{"id":"3513122009","district_id":"351312","name":"Randumerak ","postal_code":"67291"},{"id":"3513122010","district_id":"351312","name":"Randutatah ","postal_code":"67291"},{"id":"3513122011","district_id":"351312","name":"Karanganyar","postal_code":"67291"},{"id":"3513122012","district_id":"351312","name":"Plampang","postal_code":"67291"},{"id":"3513122013","district_id":"351312","name":"Petunjungan ","postal_code":"67291"},{"id":"3513122014","district_id":"351312","name":"Taman","postal_code":"67291"},{"id":"3513122015","district_id":"351312","name":"Paiton","postal_code":"67291"},{"id":"3513122016","district_id":"351312","name":"Sukodadi","postal_code":"67291"},{"id":"3513122017","district_id":"351312","name":"Podokkelor ","postal_code":"67291"},{"id":"3513122018","district_id":"351312","name":"Sumberanyar","postal_code":"67291"},{"id":"3513122019","district_id":"351312","name":"Sumberejo","postal_code":"67291"},{"id":"3513122020","district_id":"351312","name":"Bhinor ","postal_code":"67291"}]