[{"id":"3513192001","district_id":"351319","name":"Watuwungkuk","postal_code":"67271"},{"id":"3513192002","district_id":"351319","name":"Sumbersuko","postal_code":"67271"},{"id":"3513192003","district_id":"351319","name":"Sumberagung","postal_code":"67271"},{"id":"3513192004","district_id":"351319","name":"Ngepoh","postal_code":"67271"},{"id":"3513192005","district_id":"351319","name":"Mrangonlawang","postal_code":"67271"},{"id":"3513192006","district_id":"351319","name":"Sekarkare","postal_code":"67271"},{"id":"3513192007","district_id":"351319","name":"Tamansari","postal_code":"67271"},{"id":"3513192008","district_id":"351319","name":"Tegalrejo","postal_code":"67271"},{"id":"3513192009","district_id":"351319","name":"Kalirejo","postal_code":"67271"},{"id":"3513192010","district_id":"351319","name":"Kedungdalem","postal_code":"67271"},{"id":"3513192011","district_id":"351319","name":"Kalisalam","postal_code":"67271"},{"id":"3513192012","district_id":"351319","name":"Randuputih","postal_code":"67271"},{"id":"3513192013","district_id":"351319","name":"Dringu","postal_code":"67271"},{"id":"3513192014","district_id":"351319","name":"Pabean","postal_code":"67271"}]