[{"id":"3513202001","district_id":"351320","name":"Malesanwetan","postal_code":"67274"},{"id":"3513202002","district_id":"351320","name":"Gunungbekel","postal_code":"67274"},{"id":"3513202003","district_id":"351320","name":"Tegalsono","postal_code":"67274"},{"id":"3513202004","district_id":"351320","name":"Bulujarankidul","postal_code":"67274"},{"id":"3513202005","district_id":"351320","name":"Bulujaranlor","postal_code":"67274"},{"id":"3513202006","district_id":"351320","name":"Paras","postal_code":"67274"},{"id":"3513202007","district_id":"351320","name":"Tegalsiwalan","postal_code":"67274"},{"id":"3513202008","district_id":"351320","name":"Banjarsawah","postal_code":"67274"},{"id":"3513202009","district_id":"351320","name":"Sumberbulu","postal_code":"67274"},{"id":"3513202010","district_id":"351320","name":"Sumberkledung","postal_code":"67274"},{"id":"3513202011","district_id":"351320","name":"Bladokulon","postal_code":"67274"},{"id":"3513202012","district_id":"351320","name":"Tegalmojo","postal_code":"67274"}]