[{"id":"3513112001","district_id":"351311","name":"Sumber Centeng ","postal_code":"67293"},{"id":"3513112002","district_id":"351311","name":"Sambirampak Kidul","postal_code":"67293"},{"id":"3513112003","district_id":"351311","name":"Sidomulyo","postal_code":"67293"},{"id":"3513112004","district_id":"351311","name":"Tambakukir","postal_code":"67293"},{"id":"3513112005","district_id":"351311","name":"Curahtemu","postal_code":"67293"},{"id":"3513112006","district_id":"351311","name":"Sidorejo","postal_code":"67293"},{"id":"3513112007","district_id":"351311","name":"Sambirampak Lor","postal_code":"67293"},{"id":"3513112008","district_id":"351311","name":"Kedungrejoso","postal_code":"67293"},{"id":"3513112009","district_id":"351311","name":"Talkandang ","postal_code":"67293"},{"id":"3513112010","district_id":"351311","name":"Triwungan","postal_code":"67293"},{"id":"3513112011","district_id":"351311","name":"Sukorejo","postal_code":"67293"},{"id":"3513112012","district_id":"351311","name":"Pasembon","postal_code":"67293"},{"id":"3513112013","district_id":"351311","name":"Kotaanyar ","postal_code":"67293"}]