[{"id":"3514012001","district_id":"351401","name":"Gerbo","postal_code":"67163"},{"id":"3514012002","district_id":"351401","name":"Dawuhansengon ","postal_code":"67163"},{"id":"3514012003","district_id":"351401","name":"Lebak Rejo","postal_code":"67163"},{"id":"3514012004","district_id":"351401","name":"Cowek","postal_code":"67163"},{"id":"3514012005","district_id":"351401","name":"Purwodadi","postal_code":"67163"},{"id":"3514012006","district_id":"351401","name":"Parerejo","postal_code":"67163"},{"id":"3514012007","district_id":"351401","name":"Gajahrejo ","postal_code":"67163"},{"id":"3514012008","district_id":"351401","name":"Sentul","postal_code":"67163"},{"id":"3514012009","district_id":"351401","name":"Jatirejo ","postal_code":"67163"},{"id":"3514012010","district_id":"351401","name":"Tambak Sari","postal_code":"67163"},{"id":"3514012011","district_id":"351401","name":"Pucang Sari","postal_code":"67163"},{"id":"3514012012","district_id":"351401","name":"Semut","postal_code":"67163"},{"id":"3514012013","district_id":"351401","name":"Capang","postal_code":"67163"}]