[{"id":"3514152001","district_id":"351415","name":"Kalisat","postal_code":"67152"},{"id":"3514152002","district_id":"351415","name":"Tampung","postal_code":"67152"},{"id":"3514152003","district_id":"351415","name":"Pajaran","postal_code":"67152"},{"id":"3514152004","district_id":"351415","name":"Siyar","postal_code":"67152"},{"id":"3514152005","district_id":"351415","name":"Genengwaru ","postal_code":"67152"},{"id":"3514152006","district_id":"351415","name":"Kanigoro","postal_code":"67152"},{"id":"3514152007","district_id":"351415","name":"Sumberglagah ","postal_code":"67152"},{"id":"3514152008","district_id":"351415","name":"Krengih","postal_code":"67152"},{"id":"3514152009","district_id":"351415","name":"Rembang","postal_code":"67152"},{"id":"3514152010","district_id":"351415","name":"Oro-Orobulu ","postal_code":"67152"},{"id":"3514152011","district_id":"351415","name":"Kedung Banteng","postal_code":"67152"},{"id":"3514152012","district_id":"351415","name":"Oro-Oro Ombowetan ","postal_code":"67152"},{"id":"3514152013","district_id":"351415","name":"Oro-Oro Ombokulon ","postal_code":"67152"},{"id":"3514152014","district_id":"351415","name":"Pekoren","postal_code":"67152"},{"id":"3514152015","district_id":"351415","name":"Pejangkungan","postal_code":"67152"},{"id":"3514152016","district_id":"351415","name":"Pandean","postal_code":"67152"},{"id":"3514152017","district_id":"351415","name":"Mojoparon","postal_code":"67152"}]