[{"id":"3515081004","district_id":"351508","name":"Sidokare","postal_code":"61214"},{"id":"3515081005","district_id":"351508","name":"Celep","postal_code":"61215"},{"id":"3515081006","district_id":"351508","name":"Sekardangan","postal_code":"61215"},{"id":"3515081007","district_id":"351508","name":"Gebang","postal_code":"61231"},{"id":"3515081009","district_id":"351508","name":"Bulusidokare","postal_code":"61234"},{"id":"3515081010","district_id":"351508","name":"Pucanganom","postal_code":"61217"},{"id":"3515081011","district_id":"351508","name":"Pekauman","postal_code":"61213"},{"id":"3515081012","district_id":"351508","name":"Lemahputro","postal_code":"61213"},{"id":"3515081013","district_id":"351508","name":"Sidokumpul","postal_code":"61212"},{"id":"3515081014","district_id":"351508","name":"Sidoklumpuk","postal_code":"61218"},{"id":"3515081017","district_id":"351508","name":"Pucang","postal_code":"61219"},{"id":"3515081018","district_id":"351508","name":"Magersari","postal_code":"61212"},{"id":"3515081020","district_id":"351508","name":"Cemenkalang ","postal_code":"61234"},{"id":"3515081022","district_id":"351508","name":"Urangagung ","postal_code":"61234"},{"id":"3515082001","district_id":"351508","name":"Lebo","postal_code":"61223"},{"id":"3515082002","district_id":"351508","name":"Suko","postal_code":"61224"},{"id":"3515082003","district_id":"351508","name":"Banjarbendo","postal_code":"61225"},{"id":"3515082008","district_id":"351508","name":"Rangkahkidul","postal_code":"61234"},{"id":"3515082015","district_id":"351508","name":"Blurukidul ","postal_code":"61233"},{"id":"3515082016","district_id":"351508","name":"Kemiri","postal_code":"61234"},{"id":"3515082019","district_id":"351508","name":"Jati","postal_code":"61226"},{"id":"3515082021","district_id":"351508","name":"Cemengbakalan ","postal_code":"61234"},{"id":"3515082023","district_id":"351508","name":"Sarirogo ","postal_code":"61234"},{"id":"3515082024","district_id":"351508","name":"Sumput","postal_code":"61228"}]