[{"id":"3515131005","district_id":"351513","name":"Taman","postal_code":"61257"},{"id":"3515131015","district_id":"351513","name":"Geluran","postal_code":"61257"},{"id":"3515131017","district_id":"351513","name":"Kalijaten","postal_code":"61257"},{"id":"3515131018","district_id":"351513","name":"Ketegan","postal_code":"61257"},{"id":"3515131019","district_id":"351513","name":"Sepanjang","postal_code":"61257"},{"id":"3515131020","district_id":"351513","name":"Bebekan","postal_code":"61257"},{"id":"3515131021","district_id":"351513","name":"Wonocolo","postal_code":"61257"},{"id":"3515131022","district_id":"351513","name":"Ngelom","postal_code":"61257"},{"id":"3515132001","district_id":"351513","name":"Bohar","postal_code":"61257"},{"id":"3515132002","district_id":"351513","name":"Wage","postal_code":"61257"},{"id":"3515132003","district_id":"351513","name":"Kedungturi","postal_code":"61257"},{"id":"3515132004","district_id":"351513","name":"Jemundo","postal_code":"61257"},{"id":"3515132006","district_id":"351513","name":"Sadang","postal_code":"61257"},{"id":"3515132007","district_id":"351513","name":"Sambibulu ","postal_code":"61257"},{"id":"3515132008","district_id":"351513","name":"Bringinbendo","postal_code":"61257"},{"id":"3515132009","district_id":"351513","name":"Sidodadi","postal_code":"61257"},{"id":"3515132010","district_id":"351513","name":"Kramatjegu ","postal_code":"61257"},{"id":"3515132011","district_id":"351513","name":"Trosobo","postal_code":"61257"},{"id":"3515132012","district_id":"351513","name":"Pertapanmaduretno ","postal_code":"61257"},{"id":"3515132013","district_id":"351513","name":"Tawangsari","postal_code":"61257"},{"id":"3515132014","district_id":"351513","name":"Gilang","postal_code":"61257"},{"id":"3515132016","district_id":"351513","name":"Kletek","postal_code":"61257"},{"id":"3515132023","district_id":"351513","name":"Tanjungsari","postal_code":"61257"},{"id":"3515132024","district_id":"351513","name":"Krembangan","postal_code":"61212"}]