[{"id":"3515142001","district_id":"351514","name":"Wilayut","postal_code":"61258"},{"id":"3515142002","district_id":"351514","name":"Kebonagung","postal_code":"61258"},{"id":"3515142003","district_id":"351514","name":"Anggaswangi","postal_code":"61258"},{"id":"3515142004","district_id":"351514","name":"Jumputrejo","postal_code":"61258"},{"id":"3515142005","district_id":"351514","name":"Suruh","postal_code":"61258"},{"id":"3515142006","district_id":"351514","name":"Pekarungan","postal_code":"61258"},{"id":"3515142007","district_id":"351514","name":"Pademonegoro","postal_code":"61258"},{"id":"3515142008","district_id":"351514","name":"Cangkringsari","postal_code":"61258"},{"id":"3515142009","district_id":"351514","name":"Jogosatru","postal_code":"61258"},{"id":"3515142010","district_id":"351514","name":"Ngaresrejo","postal_code":"61258"},{"id":"3515142011","district_id":"351514","name":"Sambungrejo","postal_code":"61258"},{"id":"3515142012","district_id":"351514","name":"Plumbungan","postal_code":"61258"},{"id":"3515142013","district_id":"351514","name":"Sukodono","postal_code":"61258"},{"id":"3515142014","district_id":"351514","name":"Kloposepuluh","postal_code":"61258"},{"id":"3515142015","district_id":"351514","name":"Masanganwetan","postal_code":"61258"},{"id":"3515142016","district_id":"351514","name":"Suko","postal_code":"61258"},{"id":"3515142017","district_id":"351514","name":"Masangankulon","postal_code":"61258"},{"id":"3515142018","district_id":"351514","name":"Panjunan","postal_code":"61216"},{"id":"3515142019","district_id":"351514","name":"Bangsri","postal_code":"61258"}]