[{"id":"3515162001","district_id":"351516","name":"Ganting","postal_code":"61254"},{"id":"3515162002","district_id":"351516","name":"Karangbong","postal_code":"61254"},{"id":"3515162003","district_id":"351516","name":"Tebel","postal_code":"61254"},{"id":"3515162004","district_id":"351516","name":"Kragan","postal_code":"61254"},{"id":"3515162005","district_id":"351516","name":"Gemurung","postal_code":"61254"},{"id":"3515162006","district_id":"351516","name":"Punggul","postal_code":"61254"},{"id":"3515162007","district_id":"351516","name":"Wedi","postal_code":"61254"},{"id":"3515162008","district_id":"351516","name":"Ketajen","postal_code":"61254"},{"id":"3515162009","district_id":"351516","name":"Gedangan","postal_code":"61254"},{"id":"3515162010","district_id":"351516","name":"Sruni","postal_code":"61254"},{"id":"3515162011","district_id":"351516","name":"Keboansikep","postal_code":"61254"},{"id":"3515162012","district_id":"351516","name":"Keboananom","postal_code":"61254"},{"id":"3515162013","district_id":"351516","name":"Bangah","postal_code":"61254"},{"id":"3515162014","district_id":"351516","name":"Sawotratap","postal_code":"61254"},{"id":"3515162015","district_id":"351516","name":"Semambung","postal_code":"61254"}]