[{"id":"3515182001","district_id":"351518","name":"Pepelegi","postal_code":"61256"},{"id":"3515182002","district_id":"351518","name":"Waru","postal_code":"61256"},{"id":"3515182003","district_id":"351518","name":"Kureksari","postal_code":"61256"},{"id":"3515182004","district_id":"351518","name":"Ngingas","postal_code":"61256"},{"id":"3515182005","district_id":"351518","name":"Tropodo","postal_code":"61256"},{"id":"3515182006","district_id":"351518","name":"Tambaksawah ","postal_code":"61256"},{"id":"3515182007","district_id":"351518","name":"Tambakrejo ","postal_code":"61256"},{"id":"3515182008","district_id":"351518","name":"Tambakoso ","postal_code":"61256"},{"id":"3515182009","district_id":"351518","name":"Tambaksumur ","postal_code":"61256"},{"id":"3515182010","district_id":"351518","name":"Wadungasri","postal_code":"61256"},{"id":"3515182011","district_id":"351518","name":"Kepuhkiriman ","postal_code":"61256"},{"id":"3515182012","district_id":"351518","name":"Berbek","postal_code":"61256"},{"id":"3515182013","district_id":"351518","name":"Wedoro","postal_code":"61256"},{"id":"3515182014","district_id":"351518","name":"Janti","postal_code":"61256"},{"id":"3515182015","district_id":"351518","name":"Kedungrejo","postal_code":"61256"},{"id":"3515182016","district_id":"351518","name":"Medaeng","postal_code":"61256"},{"id":"3515182017","district_id":"351518","name":"Bungurasih","postal_code":"61256"}]