[{"id":"3517102001","district_id":"351710","name":"Peterongan","postal_code":"61481"},{"id":"3517102002","district_id":"351710","name":"Keplaksari","postal_code":"61481"},{"id":"3517102003","district_id":"351710","name":"Kepuhkembeng","postal_code":"61481"},{"id":"3517102004","district_id":"351710","name":"Mancar","postal_code":"61481"},{"id":"3517102005","district_id":"351710","name":"Tugusumberjo","postal_code":"61481"},{"id":"3517102006","district_id":"351710","name":"Morosunggingan","postal_code":"61481"},{"id":"3517102007","district_id":"351710","name":"Kebontemu","postal_code":"61481"},{"id":"3517102008","district_id":"351710","name":"Dukuhklopo","postal_code":"61481"},{"id":"3517102009","district_id":"351710","name":"Tanjunggunung","postal_code":"61481"},{"id":"3517102010","district_id":"351710","name":"Bongkot","postal_code":"61481"},{"id":"3517102011","district_id":"351710","name":"Senden","postal_code":"61481"},{"id":"3517102012","district_id":"351710","name":"Ngrandulor","postal_code":"61481"},{"id":"3517102013","district_id":"351710","name":"Tengaran","postal_code":"61481"},{"id":"3517102014","district_id":"351710","name":"Sumberagung","postal_code":"61481"}]