[{"id":"3517132001","district_id":"351713","name":"Mojokrapak","postal_code":"61452"},{"id":"3517132002","district_id":"351713","name":"Pesantren","postal_code":"61452"},{"id":"3517132003","district_id":"351713","name":"Tampingmojo ","postal_code":"61452"},{"id":"3517132004","district_id":"351713","name":"Kalikejambon ","postal_code":"61452"},{"id":"3517132005","district_id":"351713","name":"Kedunglosari ","postal_code":"61452"},{"id":"3517132006","district_id":"351713","name":"Kedungotok ","postal_code":"61452"},{"id":"3517132007","district_id":"351713","name":"Tembelang","postal_code":"61452"},{"id":"3517132008","district_id":"351713","name":"Sentul","postal_code":"61452"},{"id":"3517132009","district_id":"351713","name":"Gabusbanaran","postal_code":"61452"},{"id":"3517132010","district_id":"351713","name":"Pulorejo","postal_code":"61452"},{"id":"3517132011","district_id":"351713","name":"Rejosopinggir ","postal_code":"61452"},{"id":"3517132012","district_id":"351713","name":"Jatiwates ","postal_code":"61452"},{"id":"3517132013","district_id":"351713","name":"Kepuhdoko ","postal_code":"61452"},{"id":"3517132014","district_id":"351713","name":"Pulogedang ","postal_code":"61452"},{"id":"3517132015","district_id":"351713","name":"Bedahlawak ","postal_code":"61452"}]