[{"id":"3517122001","district_id":"351712","name":"Kedungbetik","postal_code":"61484"},{"id":"3517122002","district_id":"351712","name":"Kedungmlati","postal_code":"61484"},{"id":"3517122003","district_id":"351712","name":"Watudakon","postal_code":"61484"},{"id":"3517122004","district_id":"351712","name":"Carangrejo","postal_code":"61484"},{"id":"3517122005","district_id":"351712","name":"Jombok","postal_code":"61484"},{"id":"3517122006","district_id":"351712","name":"Blimbing","postal_code":"61484"},{"id":"3517122007","district_id":"351712","name":"Wuluh","postal_code":"61484"},{"id":"3517122008","district_id":"351712","name":"Pojokrejo","postal_code":"61484"},{"id":"3517122009","district_id":"351712","name":"Kesamben","postal_code":"61484"},{"id":"3517122010","district_id":"351712","name":"Podoroto","postal_code":"61484"},{"id":"3517122011","district_id":"351712","name":"Jombatan","postal_code":"61484"},{"id":"3517122012","district_id":"351712","name":"Pojokkulon","postal_code":"61484"},{"id":"3517122013","district_id":"351712","name":"Gumulan","postal_code":"61484"},{"id":"3517122014","district_id":"351712","name":"Jatiduwur","postal_code":"61484"}]