[{"id":"3517062001","district_id":"351706","name":"Kedunglumpang","postal_code":"61482"},{"id":"3517062002","district_id":"351706","name":"Dukuhmojo ","postal_code":"61482"},{"id":"3517062003","district_id":"351706","name":"Karangwinongan","postal_code":"61482"},{"id":"3517062004","district_id":"351706","name":"Kademangan","postal_code":"61482"},{"id":"3517062005","district_id":"351706","name":"Janti","postal_code":"61482"},{"id":"3517062006","district_id":"351706","name":"Tejo","postal_code":"61482"},{"id":"3517062007","district_id":"351706","name":"Gambiran","postal_code":"61482"},{"id":"3517062008","district_id":"351706","name":"Kauman","postal_code":"61482"},{"id":"3517062009","district_id":"351706","name":"Mojotrisno","postal_code":"61482"},{"id":"3517062010","district_id":"351706","name":"Tanggalrejo","postal_code":"61482"},{"id":"3517062011","district_id":"351706","name":"Dukuhdimoro","postal_code":"61482"},{"id":"3517062012","district_id":"351706","name":"Miagan","postal_code":"61482"},{"id":"3517062013","district_id":"351706","name":"Mancilan","postal_code":"61482"},{"id":"3517062014","district_id":"351706","name":"Betek","postal_code":"61482"},{"id":"3517062015","district_id":"351706","name":"Karobelah","postal_code":"61482"},{"id":"3517062016","district_id":"351706","name":"Murukan","postal_code":"61482"},{"id":"3517062017","district_id":"351706","name":"Johowinong","postal_code":"61482"},{"id":"3517062018","district_id":"351706","name":"Seketi","postal_code":"61482"}]