[{"id":"3517091002","district_id":"351709","name":"Jombatan","postal_code":"61419"},{"id":"3517091004","district_id":"351709","name":"Kaliwungu","postal_code":"61419"},{"id":"3517091005","district_id":"351709","name":"Jelakombo","postal_code":"61412"},{"id":"3517091006","district_id":"351709","name":"Kepanjen","postal_code":"61411"},{"id":"3517092001","district_id":"351709","name":"Mojongapit","postal_code":"61413"},{"id":"3517092003","district_id":"351709","name":"Plandi","postal_code":"61412"},{"id":"3517092007","district_id":"351709","name":"Kepatihan","postal_code":"61417"},{"id":"3517092008","district_id":"351709","name":"Pulolor ","postal_code":"61417"},{"id":"3517092009","district_id":"351709","name":"Sengon","postal_code":"61418"},{"id":"3517092010","district_id":"351709","name":"Tunggorono","postal_code":"61419"},{"id":"3517092011","district_id":"351709","name":"Denanyar","postal_code":"61416"},{"id":"3517092012","district_id":"351709","name":"Jombang","postal_code":"61415"},{"id":"3517092013","district_id":"351709","name":"Candimulyo ","postal_code":"61419"},{"id":"3517092014","district_id":"351709","name":"Tambakrejo ","postal_code":"61419"},{"id":"3517092015","district_id":"351709","name":"Banjardowo ","postal_code":"61419"},{"id":"3517092016","district_id":"351709","name":"Sambongdukuh ","postal_code":"61419"},{"id":"3517092017","district_id":"351709","name":"Dapurkejambon ","postal_code":"61419"},{"id":"3517092018","district_id":"351709","name":"Jabon","postal_code":"61418"},{"id":"3517092019","district_id":"351709","name":"Plosogeneng","postal_code":"61416"},{"id":"3517092020","district_id":"351709","name":"Sumberjo","postal_code":"61419"}]