[{"id":"3517162001","district_id":"351716","name":"Marmoyo","postal_code":"61455"},{"id":"3517162002","district_id":"351716","name":"Tanjungwadung","postal_code":"61455"},{"id":"3517162003","district_id":"351716","name":"Mangunan","postal_code":"61455"},{"id":"3517162004","district_id":"351716","name":"Kabuh","postal_code":"61455"},{"id":"3517162005","district_id":"351716","name":"Kedungjati","postal_code":"61455"},{"id":"3517162006","district_id":"351716","name":"Banjardowo","postal_code":"61455"},{"id":"3517162007","district_id":"351716","name":"Karangpakis","postal_code":"61455"},{"id":"3517162008","district_id":"351716","name":"Sumberingin","postal_code":"61455"},{"id":"3517162009","district_id":"351716","name":"Sumbergondang","postal_code":"61455"},{"id":"3517162010","district_id":"351716","name":"Kauman","postal_code":"61455"},{"id":"3517162011","district_id":"351716","name":"Munungkerep","postal_code":"61455"},{"id":"3517162012","district_id":"351716","name":"Genenganjasem","postal_code":"61455"},{"id":"3517162013","district_id":"351716","name":"Manduro","postal_code":"61455"},{"id":"3517162014","district_id":"351716","name":"Sukodadi","postal_code":"61455"},{"id":"3517162015","district_id":"351716","name":"Pengampon","postal_code":"61455"},{"id":"3517162016","district_id":"351716","name":"Sumberaji","postal_code":"61455"}]