[{"id":"3518141014","district_id":"351814","name":"Guyangan","postal_code":"64461"},{"id":"3518141015","district_id":"351814","name":"Kedondong","postal_code":"64461"},{"id":"3518142001","district_id":"351814","name":"Balongrejo","postal_code":"64461"},{"id":"3518142002","district_id":"351814","name":"Girirejo","postal_code":"64461"},{"id":"3518142003","district_id":"351814","name":"Pesudukuh","postal_code":"64461"},{"id":"3518142004","district_id":"351814","name":"Sekarputih","postal_code":"64461"},{"id":"3518142005","district_id":"351814","name":"Buduran","postal_code":"64461"},{"id":"3518142006","district_id":"351814","name":"Ngumpul","postal_code":"64461"},{"id":"3518142007","district_id":"351814","name":"Bagor Kulon","postal_code":"64461"},{"id":"3518142008","district_id":"351814","name":"Petak","postal_code":"64461"},{"id":"3518142009","district_id":"351814","name":"Paron","postal_code":"64461"},{"id":"3518142010","district_id":"351814","name":"Karang Tengah","postal_code":"64461"},{"id":"3518142011","district_id":"351814","name":"Selorejo","postal_code":"64461"},{"id":"3518142012","district_id":"351814","name":"Gandu","postal_code":"64461"},{"id":"3518142013","district_id":"351814","name":"Kerepkidul","postal_code":"64461"},{"id":"3518142016","district_id":"351814","name":"Kutorejo","postal_code":"64461"},{"id":"3518142017","district_id":"351814","name":"Sugihwaras","postal_code":"64461"},{"id":"3518142018","district_id":"351814","name":"Gemenggeng","postal_code":"64461"},{"id":"3518142019","district_id":"351814","name":"Kendalrejo","postal_code":"64461"},{"id":"3518142020","district_id":"351814","name":"Banaran Kulon","postal_code":"64461"},{"id":"3518142021","district_id":"351814","name":"Banaran Wetan","postal_code":"64461"}]