[{"id":"3518062001","district_id":"351806","name":"Gondanglegi","postal_code":"64484"},{"id":"3518062002","district_id":"351806","name":"Singkalanyar ","postal_code":"64484"},{"id":"3518062003","district_id":"351806","name":"Mojoagung ","postal_code":"64484"},{"id":"3518062004","district_id":"351806","name":"Bandung","postal_code":"64484"},{"id":"3518062005","district_id":"351806","name":"Nglawak","postal_code":"64484"},{"id":"3518062006","district_id":"351806","name":"Baleturi","postal_code":"64484"},{"id":"3518062007","district_id":"351806","name":"Tegaron","postal_code":"64484"},{"id":"3518062008","district_id":"351806","name":"Tanjungtani ","postal_code":"64484"},{"id":"3518062009","district_id":"351806","name":"Sanggrahan","postal_code":"64484"},{"id":"3518062010","district_id":"351806","name":"Rowoharjo","postal_code":"64484"},{"id":"3518062011","district_id":"351806","name":"Sugihwaras","postal_code":"64484"},{"id":"3518062012","district_id":"351806","name":"Watudandang ","postal_code":"64484"},{"id":"3518062013","district_id":"351806","name":"Sono Ageng","postal_code":"64484"},{"id":"3518062014","district_id":"351806","name":"Kurungrejo","postal_code":"64484"}]