[{"id":"3519032001","district_id":"351903","name":"Banaran","postal_code":"63171"},{"id":"3519032002","district_id":"351903","name":"Klorogan","postal_code":"63171"},{"id":"3519032003","district_id":"351903","name":"Slambur","postal_code":"63171"},{"id":"3519032004","district_id":"351903","name":"Geger","postal_code":"63171"},{"id":"3519032005","district_id":"351903","name":"Sareng","postal_code":"63171"},{"id":"3519032006","district_id":"351903","name":"Purworejo","postal_code":"63171"},{"id":"3519032007","district_id":"351903","name":"Sumberejo","postal_code":"63171"},{"id":"3519032008","district_id":"351903","name":"Jatisari","postal_code":"63171"},{"id":"3519032009","district_id":"351903","name":"Uteran","postal_code":"63171"},{"id":"3519032010","district_id":"351903","name":"Pagotan","postal_code":"63171"},{"id":"3519032011","district_id":"351903","name":"Sangen","postal_code":"63171"},{"id":"3519032012","district_id":"351903","name":"Jogodayuh","postal_code":"63171"},{"id":"3519032013","district_id":"351903","name":"Nglandung","postal_code":"63171"},{"id":"3519032014","district_id":"351903","name":"Sambirejo","postal_code":"63171"},{"id":"3519032015","district_id":"351903","name":"Putat","postal_code":"63171"},{"id":"3519032016","district_id":"351903","name":"Kranggan","postal_code":"63171"},{"id":"3519032017","district_id":"351903","name":"Kaibon","postal_code":"63171"},{"id":"3519032018","district_id":"351903","name":"Kertobanyon","postal_code":"63171"},{"id":"3519032019","district_id":"351903","name":"Kertosari","postal_code":"63171"}]