[{"id":"3519081001","district_id":"351908","name":"Nglames","postal_code":"63151"},{"id":"3519082002","district_id":"351908","name":"Sendangrejo","postal_code":"63151"},{"id":"3519082003","district_id":"351908","name":"Dempelan","postal_code":"63151"},{"id":"3519082004","district_id":"351908","name":"Betek","postal_code":"63151"},{"id":"3519082005","district_id":"351908","name":"Sirapan","postal_code":"63151"},{"id":"3519082006","district_id":"351908","name":"Dimong","postal_code":"63151"},{"id":"3519082007","district_id":"351908","name":"Tulungrejo","postal_code":"63151"},{"id":"3519082008","district_id":"351908","name":"Tanjungrejo","postal_code":"63151"},{"id":"3519082009","district_id":"351908","name":"Sumberejo","postal_code":"63151"},{"id":"3519082010","district_id":"351908","name":"Banjarsari","postal_code":"63151"},{"id":"3519082011","district_id":"351908","name":"Tiron","postal_code":"63151"},{"id":"3519082012","district_id":"351908","name":"Gunungsari","postal_code":"63151"},{"id":"3519082013","district_id":"351908","name":"Bagi","postal_code":"63151"}]