[{"id":"3520131001","district_id":"352013","name":"Karangrejo","postal_code":"63395"},{"id":"3520131006","district_id":"352013","name":"Manisrejo","postal_code":"63395"},{"id":"3520132002","district_id":"352013","name":"Mantren","postal_code":"63395"},{"id":"3520132003","district_id":"352013","name":"Gondang","postal_code":"63395"},{"id":"3520132004","district_id":"352013","name":"Sambirembe","postal_code":"63395"},{"id":"3520132005","district_id":"352013","name":"Patihan","postal_code":"63395"},{"id":"3520132007","district_id":"352013","name":"Pelem","postal_code":"63395"},{"id":"3520132008","district_id":"352013","name":"Baluk","postal_code":"63395"},{"id":"3520132009","district_id":"352013","name":"Gebyog","postal_code":"63395"},{"id":"3520132010","district_id":"352013","name":"Maron","postal_code":"63395"},{"id":"3520132011","district_id":"352013","name":"Prampelan","postal_code":"63395"},{"id":"3520132012","district_id":"352013","name":"Grabahan","postal_code":"63395"},{"id":"3520132013","district_id":"352013","name":"Kauman","postal_code":"63395"}]