[{"id":"3521062001","district_id":"352106","name":"Kendung","postal_code":"63283"},{"id":"3521062002","district_id":"352106","name":"Dinden","postal_code":"63283"},{"id":"3521062003","district_id":"352106","name":"Pojok","postal_code":"63283"},{"id":"3521062004","district_id":"352106","name":"Jenangan","postal_code":"63283"},{"id":"3521062005","district_id":"352106","name":"Purwosari","postal_code":"63283"},{"id":"3521062006","district_id":"352106","name":"Tirak","postal_code":"63283"},{"id":"3521062007","district_id":"352106","name":"Sumengko","postal_code":"63283"},{"id":"3521062008","district_id":"352106","name":"Simo","postal_code":"63283"},{"id":"3521062009","district_id":"352106","name":"Warukkalong ","postal_code":"63283"},{"id":"3521062010","district_id":"352106","name":"Kwadungan","postal_code":"63283"},{"id":"3521062011","district_id":"352106","name":"Budug","postal_code":"63283"},{"id":"3521062012","district_id":"352106","name":"Mojomanis","postal_code":"63283"},{"id":"3521062013","district_id":"352106","name":"Banget","postal_code":"63283"},{"id":"3521062014","district_id":"352106","name":"Karangsono","postal_code":"63283"}]