[{"id":"3521082001","district_id":"352108","name":"Banjaransari","postal_code":"63280"},{"id":"3521082002","district_id":"352108","name":"Bendo","postal_code":"63280"},{"id":"3521082003","district_id":"352108","name":"Tambakromo","postal_code":"63280"},{"id":"3521082004","district_id":"352108","name":"Tungkulrejo","postal_code":"63280"},{"id":"3521082005","district_id":"352108","name":"Bintoyo","postal_code":"63280"},{"id":"3521082006","district_id":"352108","name":"Sukowiyono","postal_code":"63280"},{"id":"3521082007","district_id":"352108","name":"Munggut","postal_code":"63280"},{"id":"3521082011","district_id":"352108","name":"Pacing","postal_code":"63280"},{"id":"3521082012","district_id":"352108","name":"Padas","postal_code":"63280"},{"id":"3521082013","district_id":"352108","name":"Kedungprahu ","postal_code":"63280"},{"id":"3521082014","district_id":"352108","name":"Sambiroto","postal_code":"63280"},{"id":"3521082015","district_id":"352108","name":"Kwadungan Lor","postal_code":"63280"}]