[{"id":"3523072001","district_id":"352307","name":"Lajo Kidul","postal_code":"62361"},{"id":"3523072002","district_id":"352307","name":"Lajo Lor","postal_code":"62361"},{"id":"3523072003","district_id":"352307","name":"Tanggir","postal_code":"62361"},{"id":"3523072004","district_id":"352307","name":"Tanjungrejo","postal_code":"62361"},{"id":"3523072005","district_id":"352307","name":"Binangun","postal_code":"62361"},{"id":"3523072006","district_id":"352307","name":"Mergosari","postal_code":"62361"},{"id":"3523072007","district_id":"352307","name":"Mulyoagung","postal_code":"62361"},{"id":"3523072008","district_id":"352307","name":"Tunggulrejo","postal_code":"62361"},{"id":"3523072009","district_id":"352307","name":"Tingkis","postal_code":"62361"},{"id":"3523072010","district_id":"352307","name":"Mulyorejo","postal_code":"62361"},{"id":"3523072011","district_id":"352307","name":"Saringembat","postal_code":"62361"},{"id":"3523072012","district_id":"352307","name":"Kedungjambe","postal_code":"62361"}]