[{"id":"3523181001","district_id":"352318","name":"Payuran ","postal_code":"62391"},{"id":"3523182002","district_id":"352318","name":"Tasikmadu","postal_code":"62391"},{"id":"3523182003","district_id":"352318","name":"Tegalbang","postal_code":"62391"},{"id":"3523182004","district_id":"352318","name":"Sumurgung","postal_code":"62391"},{"id":"3523182005","district_id":"352318","name":"Kradenan","postal_code":"62391"},{"id":"3523182006","district_id":"352318","name":"Dawung","postal_code":"62391"},{"id":"3523182007","district_id":"352318","name":"Cendoro","postal_code":"62391"},{"id":"3523182008","district_id":"352318","name":"Ngimbang","postal_code":"62391"},{"id":"3523182009","district_id":"352318","name":"Pucangan","postal_code":"62391"},{"id":"3523182010","district_id":"352318","name":"Gesikharjo","postal_code":"62391"},{"id":"3523182011","district_id":"352318","name":"Palang","postal_code":"62391"},{"id":"3523182012","district_id":"352318","name":"Glodog","postal_code":"62391"},{"id":"3523182013","district_id":"352318","name":"Leran Kulon","postal_code":"62391"},{"id":"3523182014","district_id":"352318","name":"Leran Wetan","postal_code":"62391"},{"id":"3523182015","district_id":"352318","name":"Wangun","postal_code":"62391"},{"id":"3523182016","district_id":"352318","name":"Karangagung","postal_code":"62391"},{"id":"3523182017","district_id":"352318","name":"Pliwetan","postal_code":"62391"},{"id":"3523182018","district_id":"352318","name":"Cepokorejo","postal_code":"62391"},{"id":"3523182019","district_id":"352318","name":"Ketambul","postal_code":"62391"}]