[{"id":"3523151006","district_id":"352315","name":"Karang","postal_code":"62381"},{"id":"3523151015","district_id":"352315","name":"Gedongombo","postal_code":"62381"},{"id":"3523152001","district_id":"352315","name":"Jadi","postal_code":"62381"},{"id":"3523152002","district_id":"352315","name":"Boto","postal_code":"62381"},{"id":"3523152003","district_id":"352315","name":"Prunggahan Kulon","postal_code":"62381"},{"id":"3523152004","district_id":"352315","name":"Tegalagung","postal_code":"62381"},{"id":"3523152009","district_id":"352315","name":"Bektiharjo","postal_code":"62381"},{"id":"3523152010","district_id":"352315","name":"Ngino","postal_code":"62381"},{"id":"3523152011","district_id":"352315","name":"Prunggahan Wetan","postal_code":"62381"},{"id":"3523152012","district_id":"352315","name":"Sambongrejo","postal_code":"62381"},{"id":"3523152013","district_id":"352315","name":"Semanding","postal_code":"62381"},{"id":"3523152014","district_id":"352315","name":"Bejagung","postal_code":"62381"},{"id":"3523152016","district_id":"352315","name":"Penambangan","postal_code":"62381"},{"id":"3523152017","district_id":"352315","name":"Genaharjo","postal_code":"62381"},{"id":"3523152018","district_id":"352315","name":"Kowang","postal_code":"62381"},{"id":"3523152019","district_id":"352315","name":"Tunah","postal_code":"62381"},{"id":"3523152020","district_id":"352315","name":"Gesing","postal_code":"62381"}]