[{"id":"3524182001","district_id":"352418","name":"Bantengputih","postal_code":"62254"},{"id":"3524182002","district_id":"352418","name":"Karangrejo","postal_code":"62254"},{"id":"3524182003","district_id":"352418","name":"Latukan","postal_code":"62254"},{"id":"3524182004","district_id":"352418","name":"Guci","postal_code":"62254"},{"id":"3524182005","district_id":"352418","name":"Kaligerman","postal_code":"62254"},{"id":"3524182006","district_id":"352418","name":"Sungelebak","postal_code":"62254"},{"id":"3524182007","district_id":"352418","name":"Prijekngablak ","postal_code":"62254"},{"id":"3524182008","district_id":"352418","name":"Tracal","postal_code":"62254"},{"id":"3524182009","district_id":"352418","name":"Sonoadi","postal_code":"62254"},{"id":"3524182010","district_id":"352418","name":"Kalanganyar","postal_code":"62254"},{"id":"3524182011","district_id":"352418","name":"Banjarmadu","postal_code":"62254"},{"id":"3524182012","district_id":"352418","name":"Kendalkemlagi","postal_code":"62254"},{"id":"3524182013","district_id":"352418","name":"Kawistolegi","postal_code":"62254"},{"id":"3524182014","district_id":"352418","name":"Jagran","postal_code":"62254"},{"id":"3524182015","district_id":"352418","name":"Karangwungu","postal_code":"62254"},{"id":"3524182016","district_id":"352418","name":"Sumberwudi","postal_code":"62254"},{"id":"3524182017","district_id":"352418","name":"Karanggeneng","postal_code":"62254"},{"id":"3524182018","district_id":"352418","name":"Mertani","postal_code":"62254"}]