[{"id":"3524262001","district_id":"352426","name":"Soko","postal_code":"62292"},{"id":"3524262002","district_id":"352426","name":"Morocalan","postal_code":"62292"},{"id":"3524262003","district_id":"352426","name":"Gempolpendowo","postal_code":"62292"},{"id":"3524262004","district_id":"352426","name":"Pasi","postal_code":"62292"},{"id":"3524262005","district_id":"352426","name":"Rayunggumuk","postal_code":"62292"},{"id":"3524262006","district_id":"352426","name":"Menganti","postal_code":"62292"},{"id":"3524262007","district_id":"352426","name":"Margoanyar","postal_code":"62292"},{"id":"3524262008","district_id":"352426","name":"Began","postal_code":"62292"},{"id":"3524262009","district_id":"352426","name":"Mendogo","postal_code":"62292"},{"id":"3524262010","district_id":"352426","name":"Kentong","postal_code":"62292"},{"id":"3524262011","district_id":"352426","name":"Sudangan","postal_code":"62292"},{"id":"3524262012","district_id":"352426","name":"Medang","postal_code":"62292"},{"id":"3524262013","district_id":"352426","name":"Duduklor","postal_code":"62292"},{"id":"3524262014","district_id":"352426","name":"Glagah","postal_code":"62292"},{"id":"3524262015","district_id":"352426","name":"Wangen","postal_code":"62292"},{"id":"3524262016","district_id":"352426","name":"Tanggungprigel","postal_code":"62292"},{"id":"3524262017","district_id":"352426","name":"Karangagung","postal_code":"62292"},{"id":"3524262018","district_id":"352426","name":"Bangkok","postal_code":"62292"},{"id":"3524262019","district_id":"352426","name":"Jatirenggo","postal_code":"62292"},{"id":"3524262020","district_id":"352426","name":"Bapuhbaru","postal_code":"62292"},{"id":"3524262021","district_id":"352426","name":"Bapuhbandung","postal_code":"62292"},{"id":"3524262022","district_id":"352426","name":"Meluntur","postal_code":"62292"},{"id":"3524262023","district_id":"352426","name":"Konang","postal_code":"62292"},{"id":"3524262024","district_id":"352426","name":"Dukuhtunggal","postal_code":"62292"},{"id":"3524262025","district_id":"352426","name":"Panggang","postal_code":"62292"},{"id":"3524262026","district_id":"352426","name":"Wonorejo","postal_code":"62292"},{"id":"3524262027","district_id":"352426","name":"Wedoro","postal_code":"62292"},{"id":"3524262028","district_id":"352426","name":"Karangturi","postal_code":"62292"},{"id":"3524262029","district_id":"352426","name":"Meluwur","postal_code":"62292"}]