[{"id":"3524102001","district_id":"352410","name":"Duriwetan","postal_code":"62261"},{"id":"3524102002","district_id":"352410","name":"Taji","postal_code":"62261"},{"id":"3524102003","district_id":"352410","name":"Brumbun","postal_code":"62261"},{"id":"3524102004","district_id":"352410","name":"Siwuran","postal_code":"62261"},{"id":"3524102005","district_id":"352410","name":"Klagensrampat","postal_code":"62261"},{"id":"3524102006","district_id":"352410","name":"Pangean","postal_code":"62261"},{"id":"3524102007","district_id":"352410","name":"Maduran","postal_code":"62261"},{"id":"3524102008","district_id":"352410","name":"Jangkungsomo","postal_code":"62261"},{"id":"3524102009","district_id":"352410","name":"Parengan","postal_code":"62261"},{"id":"3524102010","district_id":"352410","name":"Pangkatrejo","postal_code":"62261"},{"id":"3524102011","district_id":"352410","name":"Kanugrahan","postal_code":"62261"},{"id":"3524102012","district_id":"352410","name":"Gumantuk","postal_code":"62261"},{"id":"3524102013","district_id":"352410","name":"Ngayung","postal_code":"62261"},{"id":"3524102014","district_id":"352410","name":"Pringgoboyo","postal_code":"62261"},{"id":"3524102015","district_id":"352410","name":"Gedangan","postal_code":"62261"},{"id":"3524102016","district_id":"352410","name":"Turi","postal_code":"62261"},{"id":"3524102017","district_id":"352410","name":"Blumbang","postal_code":"62261"}]