[{"id":"3524252001","district_id":"352425","name":"Sidorejo","postal_code":"62291"},{"id":"3524252002","district_id":"352425","name":"Dlanggu","postal_code":"62291"},{"id":"3524252003","district_id":"352425","name":"Laladan","postal_code":"62291"},{"id":"3524252004","district_id":"352425","name":"Deketkulon","postal_code":"62291"},{"id":"3524252005","district_id":"352425","name":"Deketwetan","postal_code":"62291"},{"id":"3524252006","district_id":"352425","name":"Sugihwaras","postal_code":"62291"},{"id":"3524252007","district_id":"352425","name":"Dinoyo","postal_code":"62291"},{"id":"3524252008","district_id":"352425","name":"Sidomulyo","postal_code":"62291"},{"id":"3524252009","district_id":"352425","name":"Rejosari","postal_code":"62291"},{"id":"3524252010","district_id":"352425","name":"Pandanpancur","postal_code":"62291"},{"id":"3524252011","district_id":"352425","name":"Sidobinangun","postal_code":"62291"},{"id":"3524252012","district_id":"352425","name":"Babatagung","postal_code":"62291"},{"id":"3524252013","district_id":"352425","name":"Tukkerto","postal_code":"62291"},{"id":"3524252014","district_id":"352425","name":"Weduni","postal_code":"62291"},{"id":"3524252015","district_id":"352425","name":"Rejotengah","postal_code":"62291"},{"id":"3524252016","district_id":"352425","name":"Srirande","postal_code":"62291"},{"id":"3524252017","district_id":"352425","name":"Plosobuden","postal_code":"62291"}]