[{"id":"3525152001","district_id":"352515","name":"Karangandong","postal_code":"61177"},{"id":"3525152002","district_id":"352515","name":"Banjaran","postal_code":"61177"},{"id":"3525152003","district_id":"352515","name":"Krikilan","postal_code":"61177"},{"id":"3525152004","district_id":"352515","name":"Mojosari Rejo ","postal_code":"61177"},{"id":"3525152005","district_id":"352515","name":"Tanjungan","postal_code":"61177"},{"id":"3525152006","district_id":"352515","name":"Anom ","postal_code":"61177"},{"id":"3525152007","district_id":"352515","name":"Sumput","postal_code":"61177"},{"id":"3525152008","district_id":"352515","name":"Kesamben Wetan ","postal_code":"61177"},{"id":"3525152009","district_id":"352515","name":"Randegansari","postal_code":"61177"},{"id":"3525152010","district_id":"352515","name":"Tenaru","postal_code":"61177"},{"id":"3525152011","district_id":"352515","name":"Driyorejo","postal_code":"61177"},{"id":"3525152012","district_id":"352515","name":"Petiken","postal_code":"61177"},{"id":"3525152013","district_id":"352515","name":"Cangkir","postal_code":"61177"},{"id":"3525152014","district_id":"352515","name":"Gadung","postal_code":"61177"},{"id":"3525152015","district_id":"352515","name":"Mulung","postal_code":"61177"},{"id":"3525152016","district_id":"352515","name":"Bambe","postal_code":"61177"}]