[{"id":"3525082001","district_id":"352508","name":"Mojowuku","postal_code":"61175"},{"id":"3525082002","district_id":"352508","name":"Glindah","postal_code":"61175"},{"id":"3525082003","district_id":"352508","name":"Sidoraharjo","postal_code":"61175"},{"id":"3525082004","district_id":"352508","name":"Tulung","postal_code":"61175"},{"id":"3525082005","district_id":"352508","name":"Cermen","postal_code":"61175"},{"id":"3525082006","district_id":"352508","name":"Lampah","postal_code":"61175"},{"id":"3525082007","district_id":"352508","name":"Slempit","postal_code":"61175"},{"id":"3525082008","district_id":"352508","name":"Turirejo","postal_code":"61175"},{"id":"3525082009","district_id":"352508","name":"Belahanrejo","postal_code":"61175"},{"id":"3525082010","district_id":"352508","name":"Menunggal","postal_code":"61175"},{"id":"3525082011","district_id":"352508","name":"Tanjung","postal_code":"61175"},{"id":"3525082012","district_id":"352508","name":"Katimoho","postal_code":"61175"},{"id":"3525082013","district_id":"352508","name":"Banyuurip","postal_code":"61175"},{"id":"3525082014","district_id":"352508","name":"Kedamean","postal_code":"61175"},{"id":"3525082015","district_id":"352508","name":"Ngepung","postal_code":"61175"}]