[{"id":"3525172001","district_id":"352517","name":"Dekatagung","postal_code":"61181"},{"id":"3525172002","district_id":"352517","name":"Kumalasa","postal_code":"61181"},{"id":"3525172003","district_id":"352517","name":"Suwari","postal_code":"61181"},{"id":"3525172004","district_id":"352517","name":"Pudakitbarat","postal_code":"61181"},{"id":"3525172005","district_id":"352517","name":"Pudakittimur","postal_code":"61181"},{"id":"3525172006","district_id":"352517","name":"Lebak","postal_code":"61181"},{"id":"3525172007","district_id":"352517","name":"Bululanjang","postal_code":"61181"},{"id":"3525172008","district_id":"352517","name":"Patarselamat","postal_code":"61181"},{"id":"3525172009","district_id":"352517","name":"Kotakusuma","postal_code":"61181"},{"id":"3525172010","district_id":"352517","name":"Sungaiteluk","postal_code":"61181"},{"id":"3525172011","district_id":"352517","name":"Gunungteguh","postal_code":"61181"},{"id":"3525172012","district_id":"352517","name":"Sawahmulya","postal_code":"61181"},{"id":"3525172013","district_id":"352517","name":"Sungairujing","postal_code":"61181"},{"id":"3525172014","district_id":"352517","name":"Balikterus","postal_code":"61181"},{"id":"3525172015","district_id":"352517","name":"Kebontelukdalam","postal_code":"61181"},{"id":"3525172016","district_id":"352517","name":"Sidogedungbatu","postal_code":"61181"},{"id":"3525172017","district_id":"352517","name":"Daun","postal_code":"61181"}]