[{"id":"3525072001","district_id":"352507","name":"Pangkahkulon ","postal_code":"61154"},{"id":"3525072002","district_id":"352507","name":"Cangaan","postal_code":"61154"},{"id":"3525072003","district_id":"352507","name":"Ngemboh","postal_code":"61154"},{"id":"3525072004","district_id":"352507","name":"Sekapuk","postal_code":"61154"},{"id":"3525072005","district_id":"352507","name":"Gosari","postal_code":"61154"},{"id":"3525072006","district_id":"352507","name":"Banyuurip","postal_code":"61154"},{"id":"3525072007","district_id":"352507","name":"Kebonagung","postal_code":"61154"},{"id":"3525072008","district_id":"352507","name":"Pangkahwetan ","postal_code":"61154"},{"id":"3525072009","district_id":"352507","name":"Bolo","postal_code":"61154"},{"id":"3525072010","district_id":"352507","name":"Glatik","postal_code":"61154"},{"id":"3525072011","district_id":"352507","name":"Karangrejo","postal_code":"61154"},{"id":"3525072012","district_id":"352507","name":"Ketapanglor ","postal_code":"61154"},{"id":"3525072013","district_id":"352507","name":"Tanjangawan","postal_code":"61154"}]