[{"id":"3526182001","district_id":"352618","name":"Tellok","postal_code":"69173"},{"id":"3526182002","district_id":"352618","name":"Daleman","postal_code":"69173"},{"id":"3526182003","district_id":"352618","name":"Belateran ","postal_code":"69173"},{"id":"3526182004","district_id":"352618","name":"Paterongan","postal_code":"69173"},{"id":"3526182005","district_id":"352618","name":"Kajuanak","postal_code":"69173"},{"id":"3526182006","district_id":"352618","name":"Longkek","postal_code":"69173"},{"id":"3526182007","district_id":"352618","name":"Galis","postal_code":"69173"},{"id":"3526182008","district_id":"352618","name":"Pekadan","postal_code":"69173"},{"id":"3526182009","district_id":"352618","name":"Bangpendah","postal_code":"69173"},{"id":"3526182010","district_id":"352618","name":"Paka'an Dajah ","postal_code":"69173"},{"id":"3526182011","district_id":"352618","name":"Paka'an Laok","postal_code":"69173"},{"id":"3526182012","district_id":"352618","name":"Kranggan Timur","postal_code":"69173"},{"id":"3526182013","district_id":"352618","name":"Separah","postal_code":"69173"},{"id":"3526182014","district_id":"352618","name":"Banjar","postal_code":"69173"},{"id":"3526182015","district_id":"352618","name":"Telagah ","postal_code":"69173"},{"id":"3526182016","district_id":"352618","name":"Lantek Barat","postal_code":"69173"},{"id":"3526182017","district_id":"352618","name":"Lantek Timor ","postal_code":"69173"},{"id":"3526182018","district_id":"352618","name":"Kelbung","postal_code":"69173"},{"id":"3526182019","district_id":"352618","name":"Banyu Bunih ","postal_code":"69173"},{"id":"3526182020","district_id":"352618","name":"Sadah","postal_code":"69173"},{"id":"3526182021","district_id":"352618","name":"Sorpa","postal_code":"69173"}]