[{"id":"3526062001","district_id":"352606","name":"Kombangan","postal_code":"69152"},{"id":"3526062002","district_id":"352606","name":"Banyoneng Laok ","postal_code":"69152"},{"id":"3526062003","district_id":"352606","name":"Katol Barat","postal_code":"69152"},{"id":"3526062004","district_id":"352606","name":"Dabung ","postal_code":"69152"},{"id":"3526062005","district_id":"352606","name":"Lerpak","postal_code":"69152"},{"id":"3526062006","district_id":"352606","name":"Geger","postal_code":"69152"},{"id":"3526062007","district_id":"352606","name":"Tagubang ","postal_code":"69152"},{"id":"3526062008","district_id":"352606","name":"Batobella ","postal_code":"69152"},{"id":"3526062009","district_id":"352606","name":"Kampak","postal_code":"69152"},{"id":"3526062010","district_id":"352606","name":"Campor","postal_code":"69152"},{"id":"3526062011","district_id":"352606","name":"Kompol","postal_code":"69152"},{"id":"3526062012","district_id":"352606","name":"Tegar Priyah ","postal_code":"69152"},{"id":"3526062013","district_id":"352606","name":"Banyoneng Dajah ","postal_code":"69152"}]