[{"id":"3527072001","district_id":"352707","name":"Asemraja ","postal_code":"69272"},{"id":"3527072002","district_id":"352707","name":"Plakaran","postal_code":"69272"},{"id":"3527072003","district_id":"352707","name":"Asemnonggal ","postal_code":"69272"},{"id":"3527072004","district_id":"352707","name":"Majangan","postal_code":"69272"},{"id":"3527072005","district_id":"352707","name":"Margantoko","postal_code":"69272"},{"id":"3527072006","district_id":"352707","name":"Penyepen ","postal_code":"69272"},{"id":"3527072007","district_id":"352707","name":"Taman","postal_code":"69272"},{"id":"3527072008","district_id":"352707","name":"Jrengik","postal_code":"69272"},{"id":"3527072009","district_id":"352707","name":"Kalangan Prao","postal_code":"69272"},{"id":"3527072010","district_id":"352707","name":"Kotah","postal_code":"69272"},{"id":"3527072011","district_id":"352707","name":"Jungkarang","postal_code":"69272"},{"id":"3527072012","district_id":"352707","name":"Mlakah ","postal_code":"69272"},{"id":"3527072013","district_id":"352707","name":"Bancelok","postal_code":"69272"},{"id":"3527072014","district_id":"352707","name":"Buker","postal_code":"69272"}]