[{"id":"3527031003","district_id":"352703","name":"Polagan","postal_code":"69215"},{"id":"3527031004","district_id":"352703","name":"Banyuanyar","postal_code":"69216"},{"id":"3527031006","district_id":"352703","name":"Rongtengah","postal_code":"69216"},{"id":"3527031007","district_id":"352703","name":"Karang Dalam","postal_code":"69216"},{"id":"3527031008","district_id":"352703","name":"Gunung Sekar","postal_code":"69216"},{"id":"3527031009","district_id":"352703","name":"Dalpenang","postal_code":"69212"},{"id":"3527032001","district_id":"352703","name":"Pulau Mandangin","postal_code":"69216"},{"id":"3527032002","district_id":"352703","name":"Aengsareh","postal_code":"69216"},{"id":"3527032005","district_id":"352703","name":"Gunung Maddah","postal_code":"69216"},{"id":"3527032010","district_id":"352703","name":"Panggung","postal_code":"69216"},{"id":"3527032011","district_id":"352703","name":"Taman Sareh","postal_code":"69216"},{"id":"3527032012","district_id":"352703","name":"Pakalongan","postal_code":"69216"},{"id":"3527032013","district_id":"352703","name":"Tanggumong","postal_code":"69216"},{"id":"3527032014","district_id":"352703","name":"Kamuning","postal_code":"69216"},{"id":"3527032015","district_id":"352703","name":"Banyumas","postal_code":"69216"},{"id":"3527032016","district_id":"352703","name":"Pangelen","postal_code":"69216"},{"id":"3527032017","district_id":"352703","name":"Paseyan","postal_code":"69216"},{"id":"3527032018","district_id":"352703","name":"Baruh","postal_code":"69216"}]