[{"id":"3527052001","district_id":"352705","name":"Kebun Sareh","postal_code":"69291"},{"id":"3527052002","district_id":"352705","name":"Karangnangger ","postal_code":"69291"},{"id":"3527052003","district_id":"352705","name":"Rapa Laok","postal_code":"69291"},{"id":"3527052004","district_id":"352705","name":"Rapa Daya","postal_code":"69291"},{"id":"3527052005","district_id":"352705","name":"Astapah","postal_code":"69291"},{"id":"3527052006","district_id":"352705","name":"Sogiyan ","postal_code":"69291"},{"id":"3527052007","district_id":"352705","name":"Gersempal","postal_code":"69291"},{"id":"3527052008","district_id":"352705","name":"Temoran","postal_code":"69291"},{"id":"3527052009","district_id":"352705","name":"Meteng","postal_code":"69291"},{"id":"3527052010","district_id":"352705","name":"Madulang","postal_code":"69291"},{"id":"3527052011","district_id":"352705","name":"Kamondung","postal_code":"69291"},{"id":"3527052012","district_id":"352705","name":"Omben","postal_code":"69291"},{"id":"3527052013","district_id":"352705","name":"Tambak","postal_code":"69291"},{"id":"3527052014","district_id":"352705","name":"Angsokah","postal_code":"69291"},{"id":"3527052015","district_id":"352705","name":"Jrangoan ","postal_code":"69291"},{"id":"3527052016","district_id":"352705","name":"Rongdalem ","postal_code":"69291"},{"id":"3527052017","district_id":"352705","name":"Napo Laok ","postal_code":"69291"},{"id":"3527052018","district_id":"352705","name":"Napo Daya ","postal_code":"69291"},{"id":"3527052019","district_id":"352705","name":"Karanggayam ","postal_code":"69291"},{"id":"3527052020","district_id":"352705","name":"Pandan","postal_code":"69291"}]