[{"id":"3529192001","district_id":"352919","name":"Grujugan","postal_code":"69472"},{"id":"3529192002","district_id":"352919","name":"Longos","postal_code":"69472"},{"id":"3529192003","district_id":"352919","name":"Andulang","postal_code":"69472"},{"id":"3529192004","district_id":"352919","name":"Gapura Timur","postal_code":"69472"},{"id":"3529192005","district_id":"352919","name":"Mandala","postal_code":"69472"},{"id":"3529192006","district_id":"352919","name":"Gersik Putih","postal_code":"69472"},{"id":"3529192007","district_id":"352919","name":"Gapura Tengah","postal_code":"69472"},{"id":"3529192008","district_id":"352919","name":"Gapura Barat","postal_code":"69472"},{"id":"3529192009","district_id":"352919","name":"Panagan","postal_code":"69472"},{"id":"3529192010","district_id":"352919","name":"Palo'lo'an","postal_code":"69472"},{"id":"3529192011","district_id":"352919","name":"Banjar Timur","postal_code":"69472"},{"id":"3529192012","district_id":"352919","name":"Banjar Barat","postal_code":"69472"},{"id":"3529192013","district_id":"352919","name":"Batudinding","postal_code":"69472"},{"id":"3529192014","district_id":"352919","name":"Baban","postal_code":"69472"},{"id":"3529192015","district_id":"352919","name":"Karangbudi","postal_code":"69472"},{"id":"3529192016","district_id":"352919","name":"Braji","postal_code":"69472"},{"id":"3529192017","district_id":"352919","name":"Poja","postal_code":"69472"}]