[{"id":"3573051001","district_id":"357305","name":"Tunggulwulung","postal_code":"65143"},{"id":"3573051002","district_id":"357305","name":"Merjosari","postal_code":"65144"},{"id":"3573051003","district_id":"357305","name":"Tlogomas","postal_code":"65144"},{"id":"3573051004","district_id":"357305","name":"Dinoyo","postal_code":"65144"},{"id":"3573051005","district_id":"357305","name":"Sumbersari","postal_code":"65145"},{"id":"3573051006","district_id":"357305","name":"Ketawanggede","postal_code":"65145"},{"id":"3573051007","district_id":"357305","name":"Jatimulyo","postal_code":"65141"},{"id":"3573051008","district_id":"357305","name":"Tunjungsekar","postal_code":"65142"},{"id":"3573051009","district_id":"357305","name":"Mojolangu","postal_code":"65142"},{"id":"3573051010","district_id":"357305","name":"Tulusrejo","postal_code":"65141"},{"id":"3573051011","district_id":"357305","name":"Lowokwaru","postal_code":"65141"},{"id":"3573051012","district_id":"357305","name":"Tasik Madu ","postal_code":"65143"}]