[{"id":"3575041001","district_id":"357504","name":"Karanganyar","postal_code":"67131"},{"id":"3575041002","district_id":"357504","name":"Tamba'an","postal_code":"67133"},{"id":"3575041003","district_id":"357504","name":"Trajeng","postal_code":"67132"},{"id":"3575041004","district_id":"357504","name":"Bangilan","postal_code":"67111"},{"id":"3575041005","district_id":"357504","name":"Kebonsari","postal_code":"67114"},{"id":"3575041006","district_id":"357504","name":"Mayangan","postal_code":"67112"},{"id":"3575041007","district_id":"357504","name":"Ngemplakrejo","postal_code":"67113"},{"id":"3575041008","district_id":"357504","name":"Petamanan","postal_code":"67126"},{"id":"3575041009","district_id":"357504","name":"Pekuncen","postal_code":"67126"},{"id":"3575041010","district_id":"357504","name":"Bugul Lor","postal_code":"67129"},{"id":"3575041011","district_id":"357504","name":"Kandang Sapi","postal_code":"67125"},{"id":"3575041012","district_id":"357504","name":"Panggungrejo","postal_code":"67124"},{"id":"3575041013","district_id":"357504","name":"Mandaranrejo","postal_code":"67123"}]