[{"id":"3601172001","district_id":"360117","name":"Pandat","postal_code":"42261"},{"id":"3601172002","district_id":"360117","name":"Cikoneng","postal_code":"42261"},{"id":"3601172003","district_id":"360117","name":"Nembol","postal_code":"42261"},{"id":"3601172004","district_id":"360117","name":"Kurungkambing","postal_code":"42261"},{"id":"3601172005","district_id":"360117","name":"Mandalawangi","postal_code":"42261"},{"id":"3601172006","district_id":"360117","name":"Sinarjaya","postal_code":"42261"},{"id":"3601172007","district_id":"360117","name":"Sirnagalih","postal_code":"42261"},{"id":"3601172008","district_id":"360117","name":"Cikumbuen","postal_code":"42261"},{"id":"3601172009","district_id":"360117","name":"Ramea","postal_code":"42261"},{"id":"3601172010","district_id":"360117","name":"Gunungsari","postal_code":"42261"},{"id":"3601172011","district_id":"360117","name":"Panjangjaya","postal_code":"42261"},{"id":"3601172012","district_id":"360117","name":"Giripawana","postal_code":"42261"},{"id":"3601172013","district_id":"360117","name":"Mandalasari","postal_code":"42261"},{"id":"3601172014","district_id":"360117","name":"Curuglemo","postal_code":"42261"},{"id":"3601172015","district_id":"360117","name":"Pari","postal_code":"42261"}]