[{"id":"3602062001","district_id":"360206","name":"Kanekes","postal_code":"42362"},{"id":"3602062002","district_id":"360206","name":"Cisimeut","postal_code":"42362"},{"id":"3602062003","district_id":"360206","name":"Cibungur","postal_code":"42362"},{"id":"3602062004","district_id":"360206","name":"Leuwidamar","postal_code":"42362"},{"id":"3602062005","district_id":"360206","name":"Lebakparahiang","postal_code":"42362"},{"id":"3602062006","district_id":"360206","name":"Sangkanwangi","postal_code":"42362"},{"id":"3602062007","district_id":"360206","name":"Nayagati","postal_code":"42362"},{"id":"3602062008","district_id":"360206","name":"Bojongmenteng","postal_code":"42362"},{"id":"3602062009","district_id":"360206","name":"Margawangi","postal_code":"42362"},{"id":"3602062010","district_id":"360206","name":"Wantisari","postal_code":"42362"},{"id":"3602062011","district_id":"360206","name":"Jalupangmulya","postal_code":"42362"},{"id":"3602062012","district_id":"360206","name":"Cisimeut Raya","postal_code":"42362"}]