[{"id":"3603111010","district_id":"360311","name":"Sukatani","postal_code":"15540"},{"id":"3603112001","district_id":"360311","name":"Rajeg","postal_code":"15540"},{"id":"3603112002","district_id":"360311","name":"Rajeg Mulya","postal_code":"15540"},{"id":"3603112003","district_id":"360311","name":"Pangarengan","postal_code":"15540"},{"id":"3603112005","district_id":"360311","name":"Jambu Karya","postal_code":"15540"},{"id":"3603112006","district_id":"360311","name":"Lembangsari","postal_code":"15540"},{"id":"3603112007","district_id":"360311","name":"Sukamanah","postal_code":"15540"},{"id":"3603112008","district_id":"360311","name":"Tanjakan","postal_code":"15540"},{"id":"3603112009","district_id":"360311","name":"Tanjakan Mekar","postal_code":"15540"},{"id":"3603112011","district_id":"360311","name":"Sukasari","postal_code":"15540"},{"id":"3603112012","district_id":"360311","name":"Ranca Bango","postal_code":"15540"},{"id":"3603112013","district_id":"360311","name":"Daon","postal_code":"15540"},{"id":"3603112014","district_id":"360311","name":"Mekarsari","postal_code":"15540"}]