[{"id":"3604132001","district_id":"360413","name":"Tirtayasa","postal_code":"42193"},{"id":"3604132002","district_id":"360413","name":"Samparwadi","postal_code":"42193"},{"id":"3604132003","district_id":"360413","name":"Kemanisan","postal_code":"42193"},{"id":"3604132004","district_id":"360413","name":"Pontang Legon","postal_code":"42193"},{"id":"3604132005","district_id":"360413","name":"Kebon","postal_code":"42193"},{"id":"3604132006","district_id":"360413","name":"Sujung","postal_code":"42193"},{"id":"3604132007","district_id":"360413","name":"Lontar","postal_code":"42193"},{"id":"3604132008","district_id":"360413","name":"Susukan","postal_code":"42193"},{"id":"3604132009","district_id":"360413","name":"Wargasara","postal_code":"42193"},{"id":"3604132010","district_id":"360413","name":"Laban","postal_code":"42193"},{"id":"3604132011","district_id":"360413","name":"Tengkurak","postal_code":"42193"},{"id":"3604132012","district_id":"360413","name":"Alang-alang","postal_code":"42193"},{"id":"3604132013","district_id":"360413","name":"Kebuyutan","postal_code":"42193"},{"id":"3604132014","district_id":"360413","name":"Puser","postal_code":"42193"}]