[{"id":"5105042001","district_id":"510504","name":"Paksebali","postal_code":"80761"},{"id":"5105042002","district_id":"510504","name":"Sampalan Tengah","postal_code":"80761"},{"id":"5105042003","district_id":"510504","name":"Sampalan Kelod ","postal_code":"80761"},{"id":"5105042004","district_id":"510504","name":"Sulang","postal_code":"80761"},{"id":"5105042005","district_id":"510504","name":"Gunaksa","postal_code":"80761"},{"id":"5105042006","district_id":"510504","name":"Kusamba","postal_code":"80761"},{"id":"5105042007","district_id":"510504","name":"Kampung Kusamba","postal_code":"80761"},{"id":"5105042008","district_id":"510504","name":"Pesinggahan","postal_code":"80761"},{"id":"5105042009","district_id":"510504","name":"Dawan Kelod ","postal_code":"80761"},{"id":"5105042010","district_id":"510504","name":"Pikat","postal_code":"80761"},{"id":"5105042011","district_id":"510504","name":"Dawan Kaler","postal_code":"80761"},{"id":"5105042012","district_id":"510504","name":"Besan","postal_code":"80761"}]