[{"id":"5108012001","district_id":"510801","name":"Sumberklampok ","postal_code":"81155"},{"id":"5108012002","district_id":"510801","name":"Pejarakan","postal_code":"81155"},{"id":"5108012003","district_id":"510801","name":"Sumberkima","postal_code":"81155"},{"id":"5108012004","district_id":"510801","name":"Pemuteran","postal_code":"81155"},{"id":"5108012005","district_id":"510801","name":"Banyupoh","postal_code":"81155"},{"id":"5108012006","district_id":"510801","name":"Penyambangan ","postal_code":"81155"},{"id":"5108012007","district_id":"510801","name":"Musi","postal_code":"81155"},{"id":"5108012008","district_id":"510801","name":"Sanggalangit","postal_code":"81155"},{"id":"5108012009","district_id":"510801","name":"Gerokgak","postal_code":"81155"},{"id":"5108012010","district_id":"510801","name":"Patas","postal_code":"81155"},{"id":"5108012011","district_id":"510801","name":"Pengulon","postal_code":"81155"},{"id":"5108012012","district_id":"510801","name":"Tinga-tinga ","postal_code":"81155"},{"id":"5108012013","district_id":"510801","name":"Celukanbawang ","postal_code":"81155"},{"id":"5108012014","district_id":"510801","name":"Tukadsumaga ","postal_code":"81155"}]