[{"id":"5202042001","district_id":"520204","name":"Sengkol","postal_code":"83573"},{"id":"5202042002","district_id":"520204","name":"Segala Anyar","postal_code":"83573"},{"id":"5202042003","district_id":"520204","name":"Sukadana","postal_code":"83573"},{"id":"5202042004","district_id":"520204","name":"Teruwai","postal_code":"83573"},{"id":"5202042005","district_id":"520204","name":"Pengengat","postal_code":"83573"},{"id":"5202042006","district_id":"520204","name":"Kawo","postal_code":"83573"},{"id":"5202042007","district_id":"520204","name":"Gapura","postal_code":"83573"},{"id":"5202042008","district_id":"520204","name":"Rembitan","postal_code":"83573"},{"id":"5202042009","district_id":"520204","name":"Kuta","postal_code":"83573"},{"id":"5202042010","district_id":"520204","name":"Pengembur","postal_code":"83573"},{"id":"5202042011","district_id":"520204","name":"Tumpak","postal_code":"83573"},{"id":"5202042012","district_id":"520204","name":"Mertak","postal_code":"83573"},{"id":"5202042013","district_id":"520204","name":"Prabu","postal_code":"83573"},{"id":"5202042014","district_id":"520204","name":"Tanak Awu","postal_code":"83573"},{"id":"5202042015","district_id":"520204","name":"Ketara","postal_code":"83573"},{"id":"5202042016","district_id":"520204","name":"Bangket Parak","postal_code":"83573"},{"id":"5202042017","district_id":"520204","name":"Dadap","postal_code":"83573"},{"id":"5202042018","district_id":"520204","name":"Kerame Jati","postal_code":"83573"}]