[{"id":"5202011001","district_id":"520201","name":"Praya","postal_code":"83511"},{"id":"5202011002","district_id":"520201","name":"Leneng","postal_code":"83515"},{"id":"5202011003","district_id":"520201","name":"Gerunung","postal_code":"83514"},{"id":"5202011004","district_id":"520201","name":"Semayan","postal_code":"83512"},{"id":"5202011005","district_id":"520201","name":"Perapen","postal_code":"83519"},{"id":"5202011006","district_id":"520201","name":"Tiwugalih","postal_code":"83518"},{"id":"5202011007","district_id":"520201","name":"Gonjak","postal_code":"83522"},{"id":"5202011008","district_id":"520201","name":"Panji Sari","postal_code":"83516"},{"id":"5202011009","district_id":"520201","name":"Renteng","postal_code":"83521"},{"id":"5202012010","district_id":"520201","name":"Mertak Tombok","postal_code":"83511"},{"id":"5202012011","district_id":"520201","name":"Aik Mual","postal_code":"83511"},{"id":"5202012012","district_id":"520201","name":"Montong Terep","postal_code":"83511"},{"id":"5202012013","district_id":"520201","name":"Jago","postal_code":"83511"},{"id":"5202012014","district_id":"520201","name":"Bunut Baok","postal_code":"83511"},{"id":"5202012015","district_id":"520201","name":"Mekar Damai","postal_code":"83511"}]