[{"id":"5202062001","district_id":"520206","name":"Sukaraja","postal_code":"83581"},{"id":"5202062002","district_id":"520206","name":"Beleka","postal_code":"83581"},{"id":"5202062003","district_id":"520206","name":"Semoyang","postal_code":"83581"},{"id":"5202062004","district_id":"520206","name":"Mujur","postal_code":"83581"},{"id":"5202062005","district_id":"520206","name":"Landah","postal_code":"83581"},{"id":"5202062006","district_id":"520206","name":"Sengkerang","postal_code":"83581"},{"id":"5202062007","district_id":"520206","name":"Bilelando","postal_code":"83581"},{"id":"5202062008","district_id":"520206","name":"Ganti","postal_code":"83581"},{"id":"5202062009","district_id":"520206","name":"Marong","postal_code":"83581"},{"id":"5202062010","district_id":"520206","name":"Kidang","postal_code":"83581"},{"id":"5202062011","district_id":"520206","name":"Beleke Daye","postal_code":"83581"},{"id":"5202062012","district_id":"520206","name":"Beleke Lebe Sane","postal_code":"83581"},{"id":"5202062013","district_id":"520206","name":"Pegonak","postal_code":"83581"},{"id":"5202062014","district_id":"520206","name":"Jero Puri","postal_code":"83581"}]