[{"id":"5203171004","district_id":"520317","name":"Tanjung","postal_code":"83614"},{"id":"5203171005","district_id":"520317","name":"Suryawangi","postal_code":"83616"},{"id":"5203171007","district_id":"520317","name":"Ijobalit","postal_code":"83615"},{"id":"5203171012","district_id":"520317","name":"Geres","postal_code":"83615"},{"id":"5203172001","district_id":"520317","name":"Labuhan Haji","postal_code":"83616"},{"id":"5203172002","district_id":"520317","name":"Peneda Gandor","postal_code":"83617"},{"id":"5203172003","district_id":"520317","name":"Teros","postal_code":"83614"},{"id":"5203172006","district_id":"520317","name":"Korleko","postal_code":"83615"},{"id":"5203172008","district_id":"520317","name":"Kertasari","postal_code":"83617"},{"id":"5203172009","district_id":"520317","name":"Tirtanadi","postal_code":"83615"},{"id":"5203172010","district_id":"520317","name":"Banjarsari","postal_code":"83614"},{"id":"5203172011","district_id":"520317","name":"Korleko Selatan","postal_code":"83615"}]