[{"id":"5205011001","district_id":"520501","name":"Bada","postal_code":"84211"},{"id":"5205011002","district_id":"520501","name":"Bali","postal_code":"84213"},{"id":"5205011003","district_id":"520501","name":"Potu","postal_code":"84214"},{"id":"5205011004","district_id":"520501","name":"Karijawa","postal_code":"84217"},{"id":"5205011005","district_id":"520501","name":"Dora Tangga","postal_code":"84219"},{"id":"5205011006","district_id":"520501","name":"Kandai I","postal_code":"84219"},{"id":"5205012007","district_id":"520501","name":"O'o","postal_code":"84219"},{"id":"5205012008","district_id":"520501","name":"Katua","postal_code":"84219"},{"id":"5205012009","district_id":"520501","name":"Karamabura","postal_code":"84219"},{"id":"5205012010","district_id":"520501","name":"Mbawi","postal_code":"84219"},{"id":"5205012011","district_id":"520501","name":"Dore Bara","postal_code":"84212"},{"id":"5205012012","district_id":"520501","name":"Kareke","postal_code":"84219"},{"id":"5205012013","district_id":"520501","name":"Mangge Nae","postal_code":"84219"},{"id":"5205012014","district_id":"520501","name":"Manggeasi","postal_code":"84219"},{"id":"5205012015","district_id":"520501","name":"Sori Sakolo","postal_code":"84213"}]