[{"id":"5302082001","district_id":"530208","name":"Oinlasi","postal_code":"85573"},{"id":"5302082002","district_id":"530208","name":"Nunle'u","postal_code":"85573"},{"id":"5302082003","district_id":"530208","name":"Kokoi","postal_code":"85573"},{"id":"5302082004","district_id":"530208","name":"Fenun","postal_code":"85573"},{"id":"5302082005","district_id":"530208","name":"Kuale'u","postal_code":"85573"},{"id":"5302082006","district_id":"530208","name":"Lanu","postal_code":"85573"},{"id":"5302082007","district_id":"530208","name":"Sunu","postal_code":"85573"},{"id":"5302082008","district_id":"530208","name":"Anin","postal_code":"85573"},{"id":"5302082009","district_id":"530208","name":"To'i","postal_code":"85573"},{"id":"5302082010","district_id":"530208","name":"Nifuleo","postal_code":"85573"},{"id":"5302082011","district_id":"530208","name":"Fatulunu","postal_code":"85573"},{"id":"5302082012","district_id":"530208","name":"Fae","postal_code":"85573"},{"id":"5302082013","district_id":"530208","name":"Netutnana","postal_code":"85573"}]