[{"id":"5305072001","district_id":"530507","name":"Lembur Barat","postal_code":"85870"},{"id":"5305072002","district_id":"530507","name":"Lembur Tengah","postal_code":"85870"},{"id":"5305072004","district_id":"530507","name":"Likwatang","postal_code":"85870"},{"id":"5305072007","district_id":"530507","name":"Fungafeng","postal_code":"85870"},{"id":"5305072008","district_id":"530507","name":"Fuisama","postal_code":"85870"},{"id":"5305072009","district_id":"530507","name":"Nur Benlelang","postal_code":"85870"},{"id":"5305072010","district_id":"530507","name":"Kafakbeka","postal_code":"85870"},{"id":"5305072011","district_id":"530507","name":"Manetwati","postal_code":"85870"},{"id":"5305072012","district_id":"530507","name":"Lakwati","postal_code":"85870"},{"id":"5305072014","district_id":"530507","name":"Dapitau","postal_code":"85870"},{"id":"5305072017","district_id":"530507","name":"Alim Mebung","postal_code":"85870"},{"id":"5305072018","district_id":"530507","name":"Petleng","postal_code":"85870"},{"id":"5305072019","district_id":"530507","name":"Welai Selatan","postal_code":"85870"},{"id":"5305072020","district_id":"530507","name":"Tominuku","postal_code":"85870"}]