[{"id":"5306092001","district_id":"530609","name":"Wailebe","postal_code":"86260"},{"id":"5306092002","district_id":"530609","name":"Wotanulumado","postal_code":"86260"},{"id":"5306092003","district_id":"530609","name":"Nayubaya","postal_code":"86260"},{"id":"5306092004","district_id":"530609","name":"Oyangbarang","postal_code":"86260"},{"id":"5306092005","district_id":"530609","name":"Kawela","postal_code":"86260"},{"id":"5306092006","district_id":"530609","name":"Klukengnuking","postal_code":"86260"},{"id":"5306092007","district_id":"530609","name":"Pandai","postal_code":"86260"},{"id":"5306092008","district_id":"530609","name":"Bliko","postal_code":"86260"},{"id":"5306092009","district_id":"530609","name":"Samsoge","postal_code":"86260"},{"id":"5306092011","district_id":"530609","name":"Tobilota","postal_code":"86260"},{"id":"5306092012","district_id":"530609","name":"Tana Tukan","postal_code":"86260"},{"id":"5306092013","district_id":"530609","name":"Demondei","postal_code":"86260"}]