[{"id":"5306122001","district_id":"530612","name":"Watololong","postal_code":"86266"},{"id":"5306122002","district_id":"530612","name":"Tuagoetobi","postal_code":"86266"},{"id":"5306122003","district_id":"530612","name":"Weranggere","postal_code":"86266"},{"id":"5306122004","district_id":"530612","name":"Oringbele","postal_code":"86266"},{"id":"5306122005","district_id":"530612","name":"Watoone","postal_code":"86266"},{"id":"5306122006","district_id":"530612","name":"Lamabelawa","postal_code":"86266"},{"id":"5306122007","district_id":"530612","name":"Pledo","postal_code":"86266"},{"id":"5306122008","district_id":"530612","name":"Lewopulo","postal_code":"86266"},{"id":"5306122009","district_id":"530612","name":"Sandosi","postal_code":"86266"},{"id":"5306122010","district_id":"530612","name":"Balaweling","postal_code":"86266"},{"id":"5306122011","district_id":"530612","name":"Tobitika","postal_code":"86266"},{"id":"5306122012","district_id":"530612","name":"Riangduli","postal_code":"86266"},{"id":"5306122013","district_id":"530612","name":"Waiwuring","postal_code":"86266"},{"id":"5306122014","district_id":"530612","name":"Baobage","postal_code":"86266"},{"id":"5306122015","district_id":"530612","name":"Lamaleka","postal_code":"86266"},{"id":"5306122016","district_id":"530612","name":"Balaweling Noten","postal_code":"86266"}]