[{"id":"5307012001","district_id":"530701","name":"Masabewa ","postal_code":"86153"},{"id":"5307012003","district_id":"530701","name":"Wolowiro","postal_code":"86153"},{"id":"5307012004","district_id":"530701","name":"Mbengu","postal_code":"86153"},{"id":"5307012005","district_id":"530701","name":"Paga","postal_code":"86153"},{"id":"5307012008","district_id":"530701","name":"Lenandareta","postal_code":"86153"},{"id":"5307012012","district_id":"530701","name":"Mauloo","postal_code":"86153"},{"id":"5307012013","district_id":"530701","name":"Wolorega","postal_code":"86153"},{"id":"5307012015","district_id":"530701","name":"Wolowona","postal_code":"86153"},{"id":"5307012017","district_id":"530701","name":"Begu","postal_code":"86153"},{"id":"5307012018","district_id":"530701","name":"Kotandelu","postal_code":"86153"},{"id":"5307012019","district_id":"530701","name":"Lowolabo","postal_code":"86153"},{"id":"5307012020","district_id":"530701","name":"Aebubu","postal_code":"86153"},{"id":"5307012021","district_id":"530701","name":"Regapu\ufffdu","postal_code":"86153"},{"id":"5307012022","district_id":"530701","name":"Rejo","postal_code":"86153"}]