[{"id":"5307082001","district_id":"530708","name":"Darat Gunung","postal_code":"86183"},{"id":"5307082002","district_id":"530708","name":"Ojang","postal_code":"86183"},{"id":"5307082003","district_id":"530708","name":"Hikong","postal_code":"86183"},{"id":"5307082006","district_id":"530708","name":"Nebe","postal_code":"86183"},{"id":"5307082007","district_id":"530708","name":"Wailamung","postal_code":"86183"},{"id":"5307082008","district_id":"530708","name":"Lewomada","postal_code":"86183"},{"id":"5307082010","district_id":"530708","name":"Nangahale","postal_code":"86183"},{"id":"5307082011","district_id":"530708","name":"Darat Pantai","postal_code":"86183"},{"id":"5307082013","district_id":"530708","name":"Talibura","postal_code":"86183"},{"id":"5307082014","district_id":"530708","name":"Kringa","postal_code":"86183"},{"id":"5307082015","district_id":"530708","name":"Bangkoor","postal_code":"86183"},{"id":"5307082017","district_id":"530708","name":"Timutawa","postal_code":"86183"},{"id":"5307082019","district_id":"530708","name":"Udek Du\u2019en","postal_code":"86183"},{"id":"5307082020","district_id":"530708","name":"Watu Omok","postal_code":"86183"},{"id":"5307082021","district_id":"530708","name":"Waipaar","postal_code":"86183"},{"id":"5307082022","district_id":"530708","name":"Baokremot","postal_code":"86183"},{"id":"5307082023","district_id":"530708","name":"Henga","postal_code":"86183"},{"id":"5307082024","district_id":"530708","name":"Likonggete","postal_code":"86183"},{"id":"5307082025","district_id":"530708","name":"Watubaing","postal_code":"86183"},{"id":"5307082026","district_id":"530708","name":"Mamai","postal_code":"86183"}]