[{"id":"5307042001","district_id":"530704","name":"Nita","postal_code":"86151"},{"id":"5307042002","district_id":"530704","name":"Takaplager","postal_code":"86151"},{"id":"5307042003","district_id":"530704","name":"Tebuk","postal_code":"86151"},{"id":"5307042004","district_id":"530704","name":"Ladogahar","postal_code":"86151"},{"id":"5307042005","district_id":"530704","name":"Nitakloang","postal_code":"86151"},{"id":"5307042006","district_id":"530704","name":"Wuliwutik","postal_code":"86151"},{"id":"5307042007","district_id":"530704","name":"Lusitada","postal_code":"86151"},{"id":"5307042008","district_id":"530704","name":"Bloro","postal_code":"86151"},{"id":"5307042009","district_id":"530704","name":"Riit","postal_code":"86151"},{"id":"5307042010","district_id":"530704","name":"Tilang","postal_code":"86151"},{"id":"5307042011","district_id":"530704","name":"Nirangkliung","postal_code":"86151"},{"id":"5307042017","district_id":"530704","name":"Mahebora","postal_code":"86151"},{"id":"5307042018","district_id":"530704","name":"Nangablo","postal_code":"86151"},{"id":"5307042019","district_id":"530704","name":"Kara Kabu","postal_code":"86151"},{"id":"5307042020","district_id":"530704","name":"Tada Lado","postal_code":"86151"}]