[{"id":"5308152001","district_id":"530815","name":"Nggesa","postal_code":"86371"},{"id":"5308152002","district_id":"530815","name":"Detukeli","postal_code":"86371"},{"id":"5308152003","district_id":"530815","name":"Kebesani","postal_code":"86371"},{"id":"5308152004","district_id":"530815","name":"Wolomuku","postal_code":"86371"},{"id":"5308152005","district_id":"530815","name":"Watunggere","postal_code":"86371"},{"id":"5308152006","district_id":"530815","name":"Nida","postal_code":"86371"},{"id":"5308152007","district_id":"530815","name":"Maurole Selatan","postal_code":"86371"},{"id":"5308152008","district_id":"530815","name":"Detumbewa","postal_code":"86371"},{"id":"5308152009","district_id":"530815","name":"Kanganara","postal_code":"86371"},{"id":"5308152011","district_id":"530815","name":"Unggu","postal_code":"86371"},{"id":"5308152012","district_id":"530815","name":"Nggesabiri","postal_code":"86371"},{"id":"5308152013","district_id":"530815","name":"Watunggere Marilonga","postal_code":"86371"},{"id":"5308152014","district_id":"530815","name":"Jeo Du'a","postal_code":"86371"}]