[{"id":"5308061001","district_id":"530806","name":"Detusoko","postal_code":"86370"},{"id":"5308062002","district_id":"530806","name":"Detusoko Barat","postal_code":"86370"},{"id":"5308062003","district_id":"530806","name":"Wolotolo","postal_code":"86370"},{"id":"5308062004","district_id":"530806","name":"Wolotolo Tengah","postal_code":"86370"},{"id":"5308062005","district_id":"530806","name":"Roa","postal_code":"86370"},{"id":"5308062006","district_id":"530806","name":"Saga","postal_code":"86370"},{"id":"5308062007","district_id":"530806","name":"Niowula","postal_code":"86370"},{"id":"5308062008","district_id":"530806","name":"Wolofeo","postal_code":"86370"},{"id":"5308062009","district_id":"530806","name":"Nuaone","postal_code":"86370"},{"id":"5308062010","district_id":"530806","name":"Wologai","postal_code":"86370"},{"id":"5308062011","district_id":"530806","name":"Wologai Tengah","postal_code":"86370"},{"id":"5308062013","district_id":"530806","name":"Wolomage","postal_code":"86370"},{"id":"5308062015","district_id":"530806","name":"Randoria","postal_code":"86370"},{"id":"5308062016","district_id":"530806","name":"Wolomasi","postal_code":"86370"},{"id":"5308062017","district_id":"530806","name":"Rateroru","postal_code":"86370"},{"id":"5308062018","district_id":"530806","name":"Dile","postal_code":"86370"},{"id":"5308062019","district_id":"530806","name":"Ndito","postal_code":"86370"},{"id":"5308062020","district_id":"530806","name":"Sipijena","postal_code":"86370"},{"id":"5308062021","district_id":"530806","name":"Golulada","postal_code":"86370"},{"id":"5308062022","district_id":"530806","name":"Ranga","postal_code":"86370"},{"id":"5308062024","district_id":"530806","name":"Turunalu","postal_code":"86370"}]