[{"id":"5309182001","district_id":"530918","name":"Bawarani","postal_code":"86466"},{"id":"5309182002","district_id":"530918","name":"Wogowela ","postal_code":"86466"},{"id":"5309182003","district_id":"530918","name":"Watu Sipi ","postal_code":"86466"},{"id":"5309182004","district_id":"530918","name":"Boba","postal_code":"86466"},{"id":"5309182005","district_id":"530918","name":"Boba Satu ","postal_code":"86466"},{"id":"5309182006","district_id":"530918","name":"Were Tiga ","postal_code":"86466"},{"id":"5309182007","district_id":"530918","name":"Kezewea","postal_code":"86466"},{"id":"5309182008","district_id":"530918","name":"Nirmala","postal_code":"86466"},{"id":"5309182009","district_id":"530918","name":"Sadha","postal_code":"86466"},{"id":"5309182010","district_id":"530918","name":"Takatunga","postal_code":"86466"},{"id":"5309182011","district_id":"530918","name":"Radamasa","postal_code":"86466"},{"id":"5309182012","district_id":"530918","name":"Were Dua ","postal_code":"86466"},{"id":"5309182013","district_id":"530918","name":"Bobawa","postal_code":"86466"},{"id":"5309182014","district_id":"530918","name":"Were V","postal_code":"86466"},{"id":"5309182015","district_id":"530918","name":"Were VI","postal_code":"86466"},{"id":"5309182016","district_id":"530918","name":"Kezewea I","postal_code":"86466"},{"id":"5309182017","district_id":"530918","name":"Sadha I","postal_code":"86466"},{"id":"5309182018","district_id":"530918","name":"Takatunga I","postal_code":"86466"}]