[{"id":"5309202001","district_id":"530920","name":"Paupaga","postal_code":"86450"},{"id":"5309202002","district_id":"530920","name":"Sebowuli","postal_code":"86450"},{"id":"5309202003","district_id":"530920","name":"Inerie","postal_code":"86450"},{"id":"5309202004","district_id":"530920","name":"Warupele Satu","postal_code":"86450"},{"id":"5309202005","district_id":"530920","name":"Warupele Dua","postal_code":"86450"},{"id":"5309202006","district_id":"530920","name":"Kelitei","postal_code":"86450"},{"id":"5309202007","district_id":"530920","name":"Waebela","postal_code":"86450"},{"id":"5309202008","district_id":"530920","name":"Tiwurana","postal_code":"86450"},{"id":"5309202009","district_id":"530920","name":"Legeriwu","postal_code":"86450"},{"id":"5309202010","district_id":"530920","name":"Manubhara","postal_code":"86450"},{"id":"5309202011","district_id":"530920","name":"Ruto","postal_code":"86450"},{"id":"5309202012","district_id":"530920","name":"Enabhara","postal_code":"86450"},{"id":"5309202013","district_id":"530920","name":"Nagebaru","postal_code":"86450"}]