[{"id":"5312101007","district_id":"531210","name":"Wee Karou","postal_code":"87284"},{"id":"5312101008","district_id":"531210","name":"Sobawawi ","postal_code":"87284"},{"id":"5312101011","district_id":"531210","name":"Loda Pare","postal_code":"87284"},{"id":"5312101012","district_id":"531210","name":"Wee Dabo","postal_code":"87284"},{"id":"5312101013","district_id":"531210","name":"Dira Tana","postal_code":"87284"},{"id":"5312102001","district_id":"531210","name":"Bera Dolu","postal_code":"87284"},{"id":"5312102002","district_id":"531210","name":"Doka Kaka","postal_code":"87284"},{"id":"5312102003","district_id":"531210","name":"Tana Rara","postal_code":"87284"},{"id":"5312102004","district_id":"531210","name":"Bali Ledo","postal_code":"87284"},{"id":"5312102005","district_id":"531210","name":"Dedekadu ","postal_code":"87284"},{"id":"5312102006","district_id":"531210","name":"Ubu Pede","postal_code":"87284"},{"id":"5312102009","district_id":"531210","name":"Tema Tana","postal_code":"87284"},{"id":"5312102010","district_id":"531210","name":"Ubu Raya","postal_code":"87284"},{"id":"5312102014","district_id":"531210","name":"Manola","postal_code":"87284"}]