[{"id":"5312042001","district_id":"531204","name":"Loko Ry","postal_code":"87257"},{"id":"5312042002","district_id":"531204","name":"Lolo Wano","postal_code":"87257"},{"id":"5312042003","district_id":"531204","name":"Malata","postal_code":"87257"},{"id":"5312042004","district_id":"531204","name":"Ngadu Pada","postal_code":"87257"},{"id":"5312042005","district_id":"531204","name":"Lingu Lango","postal_code":"87257"},{"id":"5312042006","district_id":"531204","name":"Karaka Nduku","postal_code":"87257"},{"id":"5312042007","district_id":"531204","name":"Wano Kasa","postal_code":"87257"},{"id":"5312042008","district_id":"531204","name":"Wee Patola","postal_code":"87257"},{"id":"5312042009","district_id":"531204","name":"Zala Kadu","postal_code":"87257"},{"id":"5312042010","district_id":"531204","name":"Bondo Tera","postal_code":"87257"},{"id":"5312042011","district_id":"531204","name":"Manu Kuku","postal_code":"87257"},{"id":"5312042012","district_id":"531204","name":"Lolo Tana","postal_code":"87257"},{"id":"5312042013","district_id":"531204","name":"Kareka Nduku Utara","postal_code":"87257"},{"id":"5312042014","district_id":"531204","name":"Kareka Nduku Selatan","postal_code":"87257"},{"id":"5312042015","district_id":"531204","name":"Manu Mada","postal_code":"87257"},{"id":"5312042016","district_id":"531204","name":"Elu Loda","postal_code":"87257"},{"id":"5312042017","district_id":"531204","name":"Kalebu Ana Kaka","postal_code":"87257"},{"id":"5312042018","district_id":"531204","name":"Tarona","postal_code":"87257"}]