[{"id":"5314031001","district_id":"531403","name":"Namodale","postal_code":"85918"},{"id":"5314031009","district_id":"531403","name":"Mokdale","postal_code":"85914"},{"id":"5314031011","district_id":"531403","name":"Metina","postal_code":"85918"},{"id":"5314032002","district_id":"531403","name":"Kuli","postal_code":"85918"},{"id":"5314032003","district_id":"531403","name":"Bebalain","postal_code":"85918"},{"id":"5314032004","district_id":"531403","name":"Kolobolon","postal_code":"85918"},{"id":"5314032005","district_id":"531403","name":"Helebeik","postal_code":"85918"},{"id":"5314032006","district_id":"531403","name":"Sanggaoen","postal_code":"85916"},{"id":"5314032007","district_id":"531403","name":"Holoama","postal_code":"85918"},{"id":"5314032008","district_id":"531403","name":"Tuanatuk","postal_code":"85913"},{"id":"5314032010","district_id":"531403","name":"Oelunggu","postal_code":"85917"},{"id":"5314032012","district_id":"531403","name":"Oematamboli","postal_code":"85918"},{"id":"5314032013","district_id":"531403","name":"Suelain","postal_code":"85918"},{"id":"5314032014","district_id":"531403","name":"Baadale","postal_code":"85912"},{"id":"5314032015","district_id":"531403","name":"Lekunik","postal_code":"85916"},{"id":"5314032016","district_id":"531403","name":"Loleoen","postal_code":"85918"},{"id":"5314032017","district_id":"531403","name":"Kuli Aisele","postal_code":"85918"},{"id":"5314032018","district_id":"531403","name":"Oeleka","postal_code":"85917"}]