[{"id":"5318052001","district_id":"531805","name":"Buru Deilo","postal_code":"87263"},{"id":"5318052002","district_id":"531805","name":"Weri Lolo","postal_code":"87263"},{"id":"5318052003","district_id":"531805","name":"Buru Kaghu","postal_code":"87263"},{"id":"5318052004","district_id":"531805","name":"Denduka","postal_code":"87263"},{"id":"5318052005","district_id":"531805","name":"Bondo Bela","postal_code":"87263"},{"id":"5318052006","district_id":"531805","name":"Delo","postal_code":"87263"},{"id":"5318052007","district_id":"531805","name":"Tena Teke","postal_code":"87263"},{"id":"5318052008","district_id":"531805","name":"Bondo Ukka","postal_code":"87263"},{"id":"5318052009","district_id":"531805","name":"Umbu Wangu","postal_code":"87263"},{"id":"5318052010","district_id":"531805","name":"Milla Ate","postal_code":"87263"},{"id":"5318052011","district_id":"531805","name":"Rita Baru","postal_code":"87263"},{"id":"5318052012","district_id":"531805","name":"Mandungo","postal_code":"87263"},{"id":"5318052013","district_id":"531805","name":"Wee Wulla","postal_code":"87263"},{"id":"5318052014","district_id":"531805","name":"Wee Baghe","postal_code":"87263"}]