[{"id":"6101012001","district_id":"610101","name":"Dalam Kaum","postal_code":"79460"},{"id":"6101012002","district_id":"610101","name":"Lubuk Dagang","postal_code":"79460"},{"id":"6101012003","district_id":"610101","name":"Tanjung Bugis","postal_code":"79460"},{"id":"6101012004","district_id":"610101","name":"Pendawan","postal_code":"79460"},{"id":"6101012005","district_id":"610101","name":"Pasar Melayu","postal_code":"79460"},{"id":"6101012006","district_id":"610101","name":"Durian","postal_code":"79460"},{"id":"6101012007","district_id":"610101","name":"Lorong","postal_code":"79460"},{"id":"6101012008","district_id":"610101","name":"Jagur","postal_code":"79460"},{"id":"6101012009","district_id":"610101","name":"Tumuk Manggis","postal_code":"79460"},{"id":"6101012010","district_id":"610101","name":"Tanjung Mekar","postal_code":"79460"},{"id":"6101012011","district_id":"610101","name":"Sebayan","postal_code":"79460"},{"id":"6101012012","district_id":"610101","name":"Kartiasa","postal_code":"79460"},{"id":"6101012013","district_id":"610101","name":"Saing Rambi","postal_code":"79460"},{"id":"6101012014","district_id":"610101","name":"Lumbang","postal_code":"79460"},{"id":"6101012015","district_id":"610101","name":"Sungai Rambah","postal_code":"79460"},{"id":"6101012023","district_id":"610101","name":"Gapura","postal_code":"79460"},{"id":"6101012024","district_id":"610101","name":"Sumber Harapan","postal_code":"79460"},{"id":"6101012029","district_id":"610101","name":"Semangau","postal_code":"79460"}]