[{"id":"6104042001","district_id":"610404","name":"Kendawangan Kiri","postal_code":"78862"},{"id":"6104042002","district_id":"610404","name":"Banjar Sari","postal_code":"78862"},{"id":"6104042003","district_id":"610404","name":"Kendawangan Kanan","postal_code":"78862"},{"id":"6104042004","district_id":"610404","name":"Pangkalan Batu","postal_code":"78862"},{"id":"6104042005","district_id":"610404","name":"Bangkal Serai","postal_code":"78862"},{"id":"6104042006","district_id":"610404","name":"Air Hitam Besar","postal_code":"78862"},{"id":"6104042007","district_id":"610404","name":"Suka Harapan","postal_code":"78862"},{"id":"6104042008","district_id":"610404","name":"Suka Damai","postal_code":"78862"},{"id":"6104042009","district_id":"610404","name":"Selimantan Jaya","postal_code":"78862"},{"id":"6104042010","district_id":"610404","name":"Danau Buntar","postal_code":"78862"},{"id":"6104042011","district_id":"610404","name":"Mekar Utama","postal_code":"78862"},{"id":"6104042012","district_id":"610404","name":"Pembedilan","postal_code":"78862"},{"id":"6104042013","district_id":"610404","name":"Air Hitam Hulu","postal_code":"78862"},{"id":"6104042014","district_id":"610404","name":"Natai Kuini","postal_code":"78862"},{"id":"6104042015","district_id":"610404","name":"Keramat Jaya","postal_code":"78862"},{"id":"6104042016","district_id":"610404","name":"Seriam","postal_code":"78862"},{"id":"6104042017","district_id":"610404","name":"Kedondong","postal_code":"78862"},{"id":"6104042018","district_id":"610404","name":"Sungai Jelayan","postal_code":"78862"},{"id":"6104042019","district_id":"610404","name":"Air Tarap","postal_code":"78862"}]