[{"id":"6104192001","district_id":"610419","name":"Menyumbung","postal_code":"78871"},{"id":"6104192002","district_id":"610419","name":"Senduruhan","postal_code":"78871"},{"id":"6104192003","district_id":"610419","name":"Cinta Manis","postal_code":"78871"},{"id":"6104192004","district_id":"610419","name":"Beginci Darat","postal_code":"78871"},{"id":"6104192005","district_id":"610419","name":"Benua Krio","postal_code":"78871"},{"id":"6104192006","district_id":"610419","name":"Riam Dadap","postal_code":"78871"},{"id":"6104192007","district_id":"610419","name":"Sekukun","postal_code":"78871"},{"id":"6104192008","district_id":"610419","name":"Batu Lapis","postal_code":"78871"},{"id":"6104192009","district_id":"610419","name":"Krio Hulu","postal_code":"78871"},{"id":"6104192010","district_id":"610419","name":"Kenyabur","postal_code":"78871"},{"id":"6104192011","district_id":"610419","name":"Sunge Bengaras","postal_code":"78871"},{"id":"6104192012","district_id":"610419","name":"Lubuk Kakap","postal_code":"78871"}]