[{"id":"6105082001","district_id":"610508","name":"Nanga Mau","postal_code":"78693"},{"id":"6105082002","district_id":"610508","name":"Jambu","postal_code":"78693"},{"id":"6105082003","district_id":"610508","name":"Tertung Mau","postal_code":"78693"},{"id":"6105082004","district_id":"610508","name":"Mentunai","postal_code":"78693"},{"id":"6105082005","district_id":"610508","name":"Tuguk","postal_code":"78693"},{"id":"6105082006","district_id":"610508","name":"Natai Tebedak","postal_code":"78693"},{"id":"6105082007","district_id":"610508","name":"Nyangkom","postal_code":"78693"},{"id":"6105082008","district_id":"610508","name":"Melingkat","postal_code":"78693"},{"id":"6105082009","district_id":"610508","name":"Nanga Tikan","postal_code":"78693"},{"id":"6105082010","district_id":"610508","name":"Pelaik","postal_code":"78693"},{"id":"6105082011","district_id":"610508","name":"Kerapa Sepan","postal_code":"78693"},{"id":"6105082012","district_id":"610508","name":"Sungai Buaya","postal_code":"78693"},{"id":"6105082013","district_id":"610508","name":"Pakak","postal_code":"78693"},{"id":"6105082014","district_id":"610508","name":"Sungai Sintang","postal_code":"78693"},{"id":"6105082015","district_id":"610508","name":"Sungai Garong","postal_code":"78693"},{"id":"6105082016","district_id":"610508","name":"Paoh Desa","postal_code":"78693"},{"id":"6105082017","district_id":"610508","name":"Jaya Sakti","postal_code":"78693"},{"id":"6105082018","district_id":"610508","name":"Mekar Mandiri","postal_code":"78693"},{"id":"6105082019","district_id":"610508","name":"Landau Beringin","postal_code":"78693"},{"id":"6105082020","district_id":"610508","name":"Karya Baru","postal_code":"78693"},{"id":"6105082021","district_id":"610508","name":"Bukit Segaloh","postal_code":"78693"},{"id":"6105082022","district_id":"610508","name":"Engkerangan","postal_code":"78693"},{"id":"6105082023","district_id":"610508","name":"Lalang Inggar","postal_code":"78693"},{"id":"6105082024","district_id":"610508","name":"Linggam Permai","postal_code":"78693"},{"id":"6105082025","district_id":"610508","name":"Sungai Menuang","postal_code":"78693"},{"id":"6105082026","district_id":"610508","name":"Natai Lesung","postal_code":"78693"},{"id":"6105082027","district_id":"610508","name":"Begendang Mal","postal_code":"78693"},{"id":"6105082028","district_id":"610508","name":"Sungai Ranap","postal_code":"78693"},{"id":"6105082029","district_id":"610508","name":"Lengkong Bindu","postal_code":"78693"},{"id":"6105082030","district_id":"610508","name":"Nanga Lidau","postal_code":"78693"},{"id":"6105082031","district_id":"610508","name":"Mengkirai","postal_code":"78693"},{"id":"6105082032","district_id":"610508","name":"Tanjung Keliling","postal_code":"78693"},{"id":"6105082033","district_id":"610508","name":"Buluk Jegara","postal_code":"78693"},{"id":"6105082034","district_id":"610508","name":"Buluk Panjang","postal_code":"78693"},{"id":"6105082035","district_id":"610508","name":"Tanjung Putar","postal_code":"78693"},{"id":"6105082036","district_id":"610508","name":"Sungai Emang","postal_code":"78693"},{"id":"6105082037","district_id":"610508","name":"Sungai Meraya","postal_code":"78693"},{"id":"6105082038","district_id":"610508","name":"Kempas Raya","postal_code":"78693"},{"id":"6105082039","district_id":"610508","name":"Ipoh Emang","postal_code":"78693"},{"id":"6105082040","district_id":"610508","name":"Sungai Pengga","postal_code":"78693"},{"id":"6105082041","district_id":"610508","name":"Batu Netak","postal_code":"78693"},{"id":"6105082042","district_id":"610508","name":"Neran Baya","postal_code":"78693"},{"id":"6105082043","district_id":"610508","name":"Monbai Begununk","postal_code":"78693"}]