[{"id":"6106072001","district_id":"610607","name":"Jongkong Kiri Hilir","postal_code":"78763"},{"id":"6106072002","district_id":"610607","name":"Jongkong Kanan","postal_code":"78763"},{"id":"6106072003","district_id":"610607","name":"Jongkong Kiri Hulu","postal_code":"78763"},{"id":"6106072004","district_id":"610607","name":"Jongkong Pasar ","postal_code":"78763"},{"id":"6106072005","district_id":"610607","name":"Ujung Said","postal_code":"78763"},{"id":"6106072006","district_id":"610607","name":"Temenang","postal_code":"78763"},{"id":"6106072007","district_id":"610607","name":"Ujung Jambu","postal_code":"78763"},{"id":"6106072008","district_id":"610607","name":"Bontai","postal_code":"78763"},{"id":"6106072009","district_id":"610607","name":"Jongkong Kiri Tengah","postal_code":"78763"},{"id":"6106072010","district_id":"610607","name":"Jongkong Tanjung","postal_code":"78763"},{"id":"6106072011","district_id":"610607","name":"Kandung Suli","postal_code":"78763"},{"id":"6106072012","district_id":"610607","name":"Penepian Raya","postal_code":"78763"},{"id":"6106072013","district_id":"610607","name":"Karya Baru","postal_code":"78763"},{"id":"6106072014","district_id":"610607","name":"Nanga Serian","postal_code":"78763"}]