[{"id":"6106162001","district_id":"610616","name":"Nanga Dangkan","postal_code":"78774"},{"id":"6106162002","district_id":"610616","name":"Belimbing","postal_code":"78774"},{"id":"6106162003","district_id":"610616","name":"Nanga Ngeri","postal_code":"78774"},{"id":"6106162004","district_id":"610616","name":"Landau Badai","postal_code":"78774"},{"id":"6106162005","district_id":"610616","name":"Nanga Lungu","postal_code":"78774"},{"id":"6106162006","district_id":"610616","name":"Nanga Luan","postal_code":"78774"},{"id":"6106162007","district_id":"610616","name":"Riam Tapang","postal_code":"78774"},{"id":"6106162008","district_id":"610616","name":"Lebak Najah","postal_code":"78774"},{"id":"6106162009","district_id":"610616","name":"Dangkan Kota","postal_code":"78774"},{"id":"6106162010","district_id":"610616","name":"Perjuk","postal_code":"78774"},{"id":"6106162011","district_id":"610616","name":"Landau Rantau","postal_code":"78774"},{"id":"6106162012","district_id":"610616","name":"Entebi","postal_code":"78774"},{"id":"6106162013","district_id":"610616","name":"Selangkai","postal_code":"78774"},{"id":"6106162014","district_id":"610616","name":"Selimu","postal_code":"78774"}]