[{"id":"6106112001","district_id":"610611","name":"Sejiram","postal_code":"78772"},{"id":"6106112002","district_id":"610611","name":"Beluis Harum","postal_code":"78772"},{"id":"6106112003","district_id":"610611","name":"Gurung","postal_code":"78772"},{"id":"6106112004","district_id":"610611","name":"Bati","postal_code":"78772"},{"id":"6106112005","district_id":"610611","name":"Seneban","postal_code":"78772"},{"id":"6106112006","district_id":"610611","name":"Belikai","postal_code":"78772"},{"id":"6106112007","district_id":"610611","name":"Ranyai","postal_code":"78772"},{"id":"6106112008","district_id":"610611","name":"Emperiang","postal_code":"78772"},{"id":"6106112009","district_id":"610611","name":"Pala Kota","postal_code":"78772"},{"id":"6106112010","district_id":"610611","name":"Nanga Lot","postal_code":"78772"},{"id":"6106112011","district_id":"610611","name":"Tanjung Keliling","postal_code":"78772"},{"id":"6106112012","district_id":"610611","name":"Tajau Mada","postal_code":"78772"},{"id":"6106112013","district_id":"610611","name":"Jerenjang","postal_code":"78772"},{"id":"6106112014","district_id":"610611","name":"Bekuan","postal_code":"78772"},{"id":"6106112015","district_id":"610611","name":"Nanga Pala","postal_code":"78772"}]