[{"id":"6110022001","district_id":"611002","name":"Tanjung Niaga","postal_code":"79672"},{"id":"6110022002","district_id":"611002","name":"Paal","postal_code":"79672"},{"id":"6110022003","district_id":"611002","name":"Sidomulyo","postal_code":"79672"},{"id":"6110022004","district_id":"611002","name":"Tembawang Panjang","postal_code":"79672"},{"id":"6110022005","district_id":"611002","name":"Poring","postal_code":"79672"},{"id":"6110022007","district_id":"611002","name":"Nanga Kebebu","postal_code":"79672"},{"id":"6110022008","district_id":"611002","name":"Nanga Kayan","postal_code":"79672"},{"id":"6110022013","district_id":"611002","name":"Baru","postal_code":"79672"},{"id":"6110022021","district_id":"611002","name":"Tanjung Sari","postal_code":"79672"},{"id":"6110022023","district_id":"611002","name":"Tanjung Lay","postal_code":"79672"},{"id":"6110022024","district_id":"611002","name":"Labai Mandiri","postal_code":"79672"},{"id":"6110022026","district_id":"611002","name":"Nusa Pandau","postal_code":"79672"},{"id":"6110022032","district_id":"611002","name":"Kelakik","postal_code":"79672"},{"id":"6110022033","district_id":"611002","name":"Semadin Lengkong","postal_code":"79672"},{"id":"6110022038","district_id":"611002","name":"Tebing Karangan","postal_code":"79672"},{"id":"6110022040","district_id":"611002","name":"Kenual","postal_code":"79672"},{"id":"6110022042","district_id":"611002","name":"Tanjung Tengang","postal_code":"79672"}]