[{"id":"6202172001","district_id":"620217","name":"Tumbang Boloi","postal_code":"74352"},{"id":"6202172002","district_id":"620217","name":"Luwuk Kowan ","postal_code":"74352"},{"id":"6202172003","district_id":"620217","name":"Rantau Tampang","postal_code":"74352"},{"id":"6202172004","district_id":"620217","name":"Tumbang Mangkup","postal_code":"74352"},{"id":"6202172005","district_id":"620217","name":"Rantau Katang","postal_code":"74352"},{"id":"6202172006","district_id":"620217","name":"Tumbang Sangai","postal_code":"74352"},{"id":"6202172007","district_id":"620217","name":"Tukang Langit","postal_code":"74352"},{"id":"6202172008","district_id":"620217","name":"Beringin Agung","postal_code":"74352"},{"id":"6202172009","district_id":"620217","name":"Agung Mulya ","postal_code":"74352"},{"id":"6202172010","district_id":"620217","name":"Batu Agung","postal_code":"74352"},{"id":"6202172011","district_id":"620217","name":"Bukit Indah","postal_code":"74352"},{"id":"6202172012","district_id":"620217","name":"Tumbang Puan","postal_code":"74352"},{"id":"6202172013","district_id":"620217","name":"Rantau Suang","postal_code":"74352"},{"id":"6202172014","district_id":"620217","name":"Rantau Sawang","postal_code":"74352"},{"id":"6202172015","district_id":"620217","name":"Tanjung Harapan","postal_code":"74356"},{"id":"6202172016","district_id":"620217","name":"Buana Mustika","postal_code":"74356"},{"id":"6202172017","district_id":"620217","name":"Tri Buana","postal_code":"74352"},{"id":"6202172018","district_id":"620217","name":"Tumbang Bajanei","postal_code":"74352"}]