[{"id":"6206081014","district_id":"620608","name":"Tumbang Sanamang","postal_code":"74458"},{"id":"6206082001","district_id":"620608","name":"Kiham Batang","postal_code":"74458"},{"id":"6206082002","district_id":"620608","name":"Tumbang Kabayan","postal_code":"74458"},{"id":"6206082003","district_id":"620608","name":"Rangan Kawit","postal_code":"74458"},{"id":"6206082004","district_id":"620608","name":"Dehes Asem","postal_code":"74458"},{"id":"6206082005","district_id":"620608","name":"Kuluk Sapangi","postal_code":"74458"},{"id":"6206082006","district_id":"620608","name":"Tumbang Kuai","postal_code":"74458"},{"id":"6206082007","district_id":"620608","name":"Tumbang Salaman","postal_code":"74458"},{"id":"6206082008","district_id":"620608","name":"Rantau Puka","postal_code":"74458"},{"id":"6206082009","district_id":"620608","name":"Rantau Bahai","postal_code":"74458"},{"id":"6206082010","district_id":"620608","name":"Rangan Ranjing","postal_code":"74458"},{"id":"6206082011","district_id":"620608","name":"Tumbang Labaning","postal_code":"74458"},{"id":"6206082012","district_id":"620608","name":"Batu Bango","postal_code":"74458"},{"id":"6206082013","district_id":"620608","name":"Tumbang Hangei II","postal_code":"74458"},{"id":"6206082015","district_id":"620608","name":"Sei Nanjan","postal_code":"74458"},{"id":"6206082016","district_id":"620608","name":"Tumbang Jiga","postal_code":"74458"},{"id":"6206082017","district_id":"620608","name":"Tumbang Mangketai","postal_code":"74458"},{"id":"6206082019","district_id":"620608","name":"Tumbang Mahop","postal_code":"74458"},{"id":"6206082020","district_id":"620608","name":"Tumbang Sabetung","postal_code":"74458"},{"id":"6206082030","district_id":"620608","name":"Penda Tanggaring Lama","postal_code":"74458"},{"id":"6206082031","district_id":"620608","name":"Penda Tanggaring Baru","postal_code":"74458"},{"id":"6206082032","district_id":"620608","name":"Teluk Tampang","postal_code":"74458"},{"id":"6206082033","district_id":"620608","name":"Tumbang Manangei","postal_code":"74458"}]