[{"id":"6210061001","district_id":"621006","name":"Tumbang Talaken","postal_code":"74562"},{"id":"6210062002","district_id":"621006","name":"Tumbang Sepan ","postal_code":"74562"},{"id":"6210062003","district_id":"621006","name":"Tangki Dahuyan","postal_code":"74562"},{"id":"6210062004","district_id":"621006","name":"Bereng Balawan ","postal_code":"74562"},{"id":"6210062005","district_id":"621006","name":"Bereng Jun","postal_code":"74562"},{"id":"6210062006","district_id":"621006","name":"Takaras","postal_code":"74562"},{"id":"6210062012","district_id":"621006","name":"Belawan Mulia ","postal_code":"74562"},{"id":"6210062013","district_id":"621006","name":"Taringen","postal_code":"74562"},{"id":"6210062014","district_id":"621006","name":"Bangun Sari","postal_code":"74562"},{"id":"6210062015","district_id":"621006","name":"Fajar Harapan","postal_code":"74562"},{"id":"6210062017","district_id":"621006","name":"Gohong","postal_code":"74562"},{"id":"6210062018","district_id":"621006","name":"Tumbang Jalemu ","postal_code":"74562"}]