[{"id":"6211012001","district_id":"621101","name":"Dandang","postal_code":"74871"},{"id":"6211012002","district_id":"621101","name":"Talio","postal_code":"74871"},{"id":"6211012003","district_id":"621101","name":"Pangkoh Hilir","postal_code":"74871"},{"id":"6211012004","district_id":"621101","name":"Pangkoh Hulu","postal_code":"74871"},{"id":"6211012005","district_id":"621101","name":"Kantan Muara","postal_code":"74871"},{"id":"6211012006","district_id":"621101","name":"Talio Muara","postal_code":"74871"},{"id":"6211012007","district_id":"621101","name":"Talio Hulu","postal_code":"74871"},{"id":"6211012008","district_id":"621101","name":"Pangkoh Sari","postal_code":"74871"},{"id":"6211012009","district_id":"621101","name":"Sanggang","postal_code":"74871"},{"id":"6211012010","district_id":"621101","name":"Pantik","postal_code":"74871"},{"id":"6211012011","district_id":"621101","name":"Belanti Siam","postal_code":"74871"},{"id":"6211012012","district_id":"621101","name":"Gadabung","postal_code":"74871"},{"id":"6211012013","district_id":"621101","name":"Mulyasari","postal_code":"74871"},{"id":"6211012014","district_id":"621101","name":"Kantan Dalam","postal_code":"74871"},{"id":"6211012015","district_id":"621101","name":"Kantan Atas","postal_code":"74871"},{"id":"6211012016","district_id":"621101","name":"Karya Bersama","postal_code":"74871"}]