[{"id":"6301052001","district_id":"630105","name":"Benua Raya","postal_code":"70852"},{"id":"6301052002","district_id":"630105","name":"Bati-Bati","postal_code":"70852"},{"id":"6301052003","district_id":"630105","name":"Ujung","postal_code":"70852"},{"id":"6301052004","district_id":"630105","name":"Liang Anggang","postal_code":"70852"},{"id":"6301052005","district_id":"630105","name":"Bentok Kampung","postal_code":"70852"},{"id":"6301052006","district_id":"630105","name":"Bentok Darat","postal_code":"70852"},{"id":"6301052007","district_id":"630105","name":"Banyu Irang","postal_code":"70852"},{"id":"6301052008","district_id":"630105","name":"Nusa Indah","postal_code":"70852"},{"id":"6301052009","district_id":"630105","name":"Pandahan","postal_code":"70852"},{"id":"6301052010","district_id":"630105","name":"Padang","postal_code":"70852"},{"id":"6301052011","district_id":"630105","name":"Ujung Baru","postal_code":"70852"},{"id":"6301052012","district_id":"630105","name":"Sambangan","postal_code":"70852"},{"id":"6301052013","district_id":"630105","name":"Kait-kait","postal_code":"70852"},{"id":"6301052014","district_id":"630105","name":"Kait-Kait Baru","postal_code":"70852"}]