[{"id":"6303062001","district_id":"630306","name":"Kiram","postal_code":"70661"},{"id":"6303062002","district_id":"630306","name":"Mandiangin Barat ","postal_code":"70661"},{"id":"6303062003","district_id":"630306","name":"Karang Intan","postal_code":"70661"},{"id":"6303062004","district_id":"630306","name":"Pandak Daun","postal_code":"70661"},{"id":"6303062005","district_id":"630306","name":"Jingah Habang Hulu ","postal_code":"70661"},{"id":"6303062006","district_id":"630306","name":"Mali Mali","postal_code":"70661"},{"id":"6303062007","district_id":"630306","name":"Lok Tangga ","postal_code":"70661"},{"id":"6303062008","district_id":"630306","name":"Lihung","postal_code":"70661"},{"id":"6303062009","district_id":"630306","name":"Biih","postal_code":"70661"},{"id":"6303062010","district_id":"630306","name":"Panyambaran ","postal_code":"70661"},{"id":"6303062011","district_id":"630306","name":"Sei\/Sungai Alang","postal_code":"70661"},{"id":"6303062012","district_id":"630306","name":"Sei\/Sungai Asam","postal_code":"70661"},{"id":"6303062013","district_id":"630306","name":"Mandikapau Timur ","postal_code":"70661"},{"id":"6303062014","district_id":"630306","name":"Awang Bangkal Barat","postal_code":"70661"},{"id":"6303062015","district_id":"630306","name":"Awang Bangkal Timur","postal_code":"70661"},{"id":"6303062016","district_id":"630306","name":"Sei\/Sungai Besar","postal_code":"70661"},{"id":"6303062017","district_id":"630306","name":"Mandiangin Timur ","postal_code":"70661"},{"id":"6303062018","district_id":"630306","name":"Pasar Lama","postal_code":"70661"},{"id":"6303062019","district_id":"630306","name":"Jingah Habang Hilir ","postal_code":"70661"},{"id":"6303062020","district_id":"630306","name":"Sei\/Sungai Arfat","postal_code":"70661"},{"id":"6303062021","district_id":"630306","name":"Padang Panjang","postal_code":"70661"},{"id":"6303062022","district_id":"630306","name":"Sei\/Sungai Landas","postal_code":"70661"},{"id":"6303062023","district_id":"630306","name":"Abirau","postal_code":"70661"},{"id":"6303062024","district_id":"630306","name":"Pulau Nyiur","postal_code":"70661"},{"id":"6303062025","district_id":"630306","name":"Mandi Kapau Barat","postal_code":"70661"},{"id":"6303062026","district_id":"630306","name":"Balau","postal_code":"70661"}]