[{"id":"6304162001","district_id":"630416","name":"Kolam Kiri","postal_code":"70560"},{"id":"6304162002","district_id":"630416","name":"Roham Raya","postal_code":"70560"},{"id":"6304162003","district_id":"630416","name":"Simpang Jaya","postal_code":"70560"},{"id":"6304162004","district_id":"630416","name":"Tumih","postal_code":"70560"},{"id":"6304162005","district_id":"630416","name":"Pinang Habang","postal_code":"70560"},{"id":"6304162006","district_id":"630416","name":"Waringin Kencana","postal_code":"70560"},{"id":"6304162007","district_id":"630416","name":"Babat Raya","postal_code":"70560"},{"id":"6304162008","district_id":"630416","name":"Kolam Kanan","postal_code":"70560"},{"id":"6304162009","district_id":"630416","name":"Sidomulyo ","postal_code":"70560"},{"id":"6304162010","district_id":"630416","name":"Kolam Makmur","postal_code":"70560"},{"id":"6304162011","district_id":"630416","name":"Surya Kanta","postal_code":"70560"},{"id":"6304162012","district_id":"630416","name":"Sumber Rahayu","postal_code":"70560"},{"id":"6304162013","district_id":"630416","name":"Dwipasari ","postal_code":"70560"}]