[{"id":"6307012001","district_id":"630701","name":"Pengambau Hilir Luar ","postal_code":"71363"},{"id":"6307012002","district_id":"630701","name":"Panggung","postal_code":"71363"},{"id":"6307012003","district_id":"630701","name":"Barikin","postal_code":"71363"},{"id":"6307012004","district_id":"630701","name":"Andang","postal_code":"71363"},{"id":"6307012005","district_id":"630701","name":"Pengambau Hilir Dalam","postal_code":"71363"},{"id":"6307012006","district_id":"630701","name":"Haruyan","postal_code":"71363"},{"id":"6307012007","district_id":"630701","name":"Haruyan Seberang","postal_code":"71363"},{"id":"6307012008","district_id":"630701","name":"Pengambau Hulu","postal_code":"71363"},{"id":"6307012009","district_id":"630701","name":"Sei\/Sungai Harang","postal_code":"71363"},{"id":"6307012010","district_id":"630701","name":"Batu Panggung","postal_code":"71363"},{"id":"6307012011","district_id":"630701","name":"Mangunang","postal_code":"71363"},{"id":"6307012012","district_id":"630701","name":"Hapulang","postal_code":"71363"},{"id":"6307012013","district_id":"630701","name":"Lok Buntar ","postal_code":"71363"},{"id":"6307012014","district_id":"630701","name":"Tabat Padang","postal_code":"71363"},{"id":"6307012015","district_id":"630701","name":"Mangunang Seberang","postal_code":"71363"},{"id":"6307012016","district_id":"630701","name":"Pandanu","postal_code":"71363"},{"id":"6307012017","district_id":"630701","name":"Teluk Mesjid","postal_code":"71363"}]