[{"id":"6308042001","district_id":"630804","name":"Panyiuran","postal_code":"71452"},{"id":"6308042002","district_id":"630804","name":"Simpang Empat","postal_code":"71452"},{"id":"6308042003","district_id":"630804","name":"Padang Darat","postal_code":"71452"},{"id":"6308042004","district_id":"630804","name":"Teluk Baru","postal_code":"71452"},{"id":"6308042005","district_id":"630804","name":"Ilir Mesjid","postal_code":"71452"},{"id":"6308042006","district_id":"630804","name":"Jarang Kuantan","postal_code":"71452"},{"id":"6308042007","district_id":"630804","name":"Jumba","postal_code":"71452"},{"id":"6308042008","district_id":"630804","name":"Telaga Sari","postal_code":"71452"},{"id":"6308042009","district_id":"630804","name":"Telaga Silaba","postal_code":"71452"},{"id":"6308042010","district_id":"630804","name":"Banyu Hirang","postal_code":"71452"},{"id":"6308042011","district_id":"630804","name":"Kayakah","postal_code":"71452"},{"id":"6308042012","district_id":"630804","name":"Bajawit","postal_code":"71452"},{"id":"6308042013","district_id":"630804","name":"Padang Tanggul","postal_code":"71452"},{"id":"6308042014","district_id":"630804","name":"Teluk Paring","postal_code":"71452"},{"id":"6308042015","district_id":"630804","name":"Rukam Hilir","postal_code":"71452"},{"id":"6308042016","district_id":"630804","name":"Mamar","postal_code":"71452"},{"id":"6308042017","district_id":"630804","name":"Cempaka","postal_code":"71452"},{"id":"6308042018","district_id":"630804","name":"Keramat","postal_code":"71452"},{"id":"6308042019","district_id":"630804","name":"Ujung Murung","postal_code":"71452"},{"id":"6308042020","district_id":"630804","name":"Kota Raja","postal_code":"71452"},{"id":"6308042021","district_id":"630804","name":"Pulau Tambak","postal_code":"71452"},{"id":"6308042022","district_id":"630804","name":"Harusan Telaga","postal_code":"71452"},{"id":"6308042023","district_id":"630804","name":"Simpang Tiga","postal_code":"71452"},{"id":"6308042024","district_id":"630804","name":"Cangkering","postal_code":"71452"},{"id":"6308042025","district_id":"630804","name":"Kutai Kecil","postal_code":"71452"},{"id":"6308042026","district_id":"630804","name":"Teluk Sari","postal_code":"71452"},{"id":"6308042027","district_id":"630804","name":"Murung Panggang","postal_code":"71452"},{"id":"6308042028","district_id":"630804","name":"Telaga Hanyar","postal_code":"71452"},{"id":"6308042029","district_id":"630804","name":"Rukam Hulu","postal_code":"71452"},{"id":"6308042030","district_id":"630804","name":"Murung Sari","postal_code":"71452"}]