[{"id":"6310061001","district_id":"631006","name":"Kampung Baru","postal_code":"72212"},{"id":"6310061002","district_id":"631006","name":"Tungkaran Pangeran","postal_code":"72213"},{"id":"6310062003","district_id":"631006","name":"Sari Gadung","postal_code":"72211"},{"id":"6310062004","district_id":"631006","name":"Mekar Sari","postal_code":"72211"},{"id":"6310062005","district_id":"631006","name":"Sungaidua ","postal_code":"72211"},{"id":"6310062006","district_id":"631006","name":"Batu Ampar","postal_code":"72213"},{"id":"6310062007","district_id":"631006","name":"Gunungbesar ","postal_code":"72213"},{"id":"6310062008","district_id":"631006","name":"Pulau Burung","postal_code":"72213"},{"id":"6310062009","district_id":"631006","name":"Baroqah","postal_code":"72213"},{"id":"6310062010","district_id":"631006","name":"Bersujud","postal_code":"72213"},{"id":"6310062011","district_id":"631006","name":"Sejahtera","postal_code":"72213"},{"id":"6310062012","district_id":"631006","name":"Gunungantasari ","postal_code":"72213"},{"id":"6310062013","district_id":"631006","name":"Hidayah Makmur","postal_code":"72213"},{"id":"6310062014","district_id":"631006","name":"Plajau Mulia","postal_code":"72213"},{"id":"6310062015","district_id":"631006","name":"Kupang Berkah Jaya","postal_code":"72211"}]