[{"id":"6310112001","district_id":"631011","name":"Saring Sungai Bubu","postal_code":"72273"},{"id":"6310112002","district_id":"631011","name":"Saring Sungai Binjai","postal_code":"72273"},{"id":"6310112003","district_id":"631011","name":"Sepunggur","postal_code":"72273"},{"id":"6310112004","district_id":"631011","name":"Serdangan","postal_code":"72273"},{"id":"6310112005","district_id":"631011","name":"Satiung","postal_code":"72273"},{"id":"6310112006","district_id":"631011","name":"Api-Api","postal_code":"72273"},{"id":"6310112007","district_id":"631011","name":"Pakatellu","postal_code":"72273"},{"id":"6310112008","district_id":"631011","name":"Manurung","postal_code":"72273"},{"id":"6310112009","district_id":"631011","name":"Batarang","postal_code":"72273"},{"id":"6310112010","district_id":"631011","name":"Mekar Jaya","postal_code":"72273"},{"id":"6310112011","district_id":"631011","name":"Pulau Tanjung","postal_code":"72273"},{"id":"6310112012","district_id":"631011","name":"UPT Karya Bakti","postal_code":"72273"},{"id":"6310112013","district_id":"631011","name":"Salimuran","postal_code":"72273"}]