[{"id":"6311061019","district_id":"631106","name":"Paringin Timur","postal_code":"71662"},{"id":"6311061023","district_id":"631106","name":"Paringin Kota","postal_code":"71662"},{"id":"6311062005","district_id":"631106","name":"Balang","postal_code":"71662"},{"id":"6311062006","district_id":"631106","name":"Kalahiang","postal_code":"71662"},{"id":"6311062007","district_id":"631106","name":"Lasung Batu","postal_code":"71662"},{"id":"6311062008","district_id":"631106","name":"Paran","postal_code":"71662"},{"id":"6311062009","district_id":"631106","name":"Layap","postal_code":"71616"},{"id":"6311062012","district_id":"631106","name":"Murung Ilung","postal_code":"71662"},{"id":"6311062013","district_id":"631106","name":"Mangkayahu","postal_code":"71614"},{"id":"6311062014","district_id":"631106","name":"Lok Batung","postal_code":"71662"},{"id":"6311062015","district_id":"631106","name":"Lamida Bawah","postal_code":"71662"},{"id":"6311062017","district_id":"631106","name":"Dahai","postal_code":"71662"},{"id":"6311062022","district_id":"631106","name":"Hujan Mas","postal_code":"71662"},{"id":"6311062024","district_id":"631106","name":"Babayau","postal_code":"71662"},{"id":"6311062034","district_id":"631106","name":"Balida","postal_code":"71662"},{"id":"6311062038","district_id":"631106","name":"Sungai Ketapi","postal_code":"71662"}]