[{"id":"6371011001","district_id":"637101","name":"Mantuil","postal_code":"70244"},{"id":"6371011002","district_id":"637101","name":"Kelayan Selatan","postal_code":"70246"},{"id":"6371011003","district_id":"637101","name":"Pekauman","postal_code":"70243"},{"id":"6371011004","district_id":"637101","name":"Kelayan Barat","postal_code":"70241"},{"id":"6371011005","district_id":"637101","name":"Kelayan Tengah","postal_code":"70242"},{"id":"6371011006","district_id":"637101","name":"Kelayan Dalam","postal_code":"70242"},{"id":"6371011007","district_id":"637101","name":"Murung Raya","postal_code":"70247"},{"id":"6371011008","district_id":"637101","name":"Kelayan Timur","postal_code":"70247"},{"id":"6371011009","district_id":"637101","name":"Tanjung Pagar","postal_code":"70247"},{"id":"6371011010","district_id":"637101","name":"Pemurus Dalam","postal_code":"70248"},{"id":"6371011011","district_id":"637101","name":"Pemurus Baru","postal_code":"70249"},{"id":"6371011012","district_id":"637101","name":"Basirih Selatan","postal_code":"70245"}]