[{"id":"6401051001","district_id":"640105","name":"Kuaro","postal_code":"76281"},{"id":"6401052002","district_id":"640105","name":"Lolo","postal_code":"76281"},{"id":"6401052003","district_id":"640105","name":"Sandeley","postal_code":"76281"},{"id":"6401052004","district_id":"640105","name":"Harapan Baru","postal_code":"76281"},{"id":"6401052005","district_id":"640105","name":"Rangan","postal_code":"76281"},{"id":"6401052006","district_id":"640105","name":"Modang","postal_code":"76281"},{"id":"6401052007","district_id":"640105","name":"Pasir Mayang","postal_code":"76281"},{"id":"6401052008","district_id":"640105","name":"Kerta Bumi","postal_code":"76281"},{"id":"6401052009","district_id":"640105","name":"Pondong Baru","postal_code":"76281"},{"id":"6401052010","district_id":"640105","name":"Padang Jaya","postal_code":"76281"},{"id":"6401052011","district_id":"640105","name":"Kendarom","postal_code":"76281"},{"id":"6401052012","district_id":"640105","name":"Klempang Sari","postal_code":"76281"},{"id":"6401052013","district_id":"640105","name":"Keluang Paser Jaya","postal_code":"76281"}]