[{"id":"6401071001","district_id":"640107","name":"Muara Komam","postal_code":"76253"},{"id":"6401072002","district_id":"640107","name":"Batu Botuk","postal_code":"76253"},{"id":"6401072003","district_id":"640107","name":"Uko","postal_code":"76253"},{"id":"6401072004","district_id":"640107","name":"Muara Langon","postal_code":"76253"},{"id":"6401072005","district_id":"640107","name":"Binangon","postal_code":"76253"},{"id":"6401072006","district_id":"640107","name":"Muara Kuaro","postal_code":"76253"},{"id":"6401072007","district_id":"640107","name":"Prayon","postal_code":"76253"},{"id":"6401072008","district_id":"640107","name":"Long Sayo","postal_code":"76253"},{"id":"6401072009","district_id":"640107","name":"Muara Payang","postal_code":"76253"},{"id":"6401072010","district_id":"640107","name":"Lusan","postal_code":"76253"},{"id":"6401072011","district_id":"640107","name":"Swan Slutung","postal_code":"76253"},{"id":"6401072012","district_id":"640107","name":"Sekuan Makmur","postal_code":"76253"},{"id":"6401072013","district_id":"640107","name":"Selerong","postal_code":"76253"}]