[{"id":"6402162001","district_id":"640216","name":"Manunggal Jaya","postal_code":"75572"},{"id":"6402162002","district_id":"640216","name":"Bukit Raya","postal_code":"75572"},{"id":"6402162003","district_id":"640216","name":"Embalut","postal_code":"75572"},{"id":"6402162004","district_id":"640216","name":"Bangun Rejo","postal_code":"75572"},{"id":"6402162005","district_id":"640216","name":"Kerta Buana","postal_code":"75572"},{"id":"6402162006","district_id":"640216","name":"Separi","postal_code":"75572"},{"id":"6402162007","district_id":"640216","name":"Bukit Pariaman","postal_code":"75572"},{"id":"6402162008","district_id":"640216","name":"Bhuana Jaya","postal_code":"75572"},{"id":"6402162009","district_id":"640216","name":"Mulawarman","postal_code":"75572"},{"id":"6402162010","district_id":"640216","name":"Loa Ulung","postal_code":"75572"},{"id":"6402162011","district_id":"640216","name":"Loa Raya","postal_code":"75572"},{"id":"6402162012","district_id":"640216","name":"Perjiwa","postal_code":"75572"},{"id":"6402162013","district_id":"640216","name":"Teluk Dalam","postal_code":"75572"},{"id":"6402162014","district_id":"640216","name":"Loa Lepu","postal_code":"75572"},{"id":"6402162015","district_id":"640216","name":"Suka Maju","postal_code":"75572"},{"id":"6402162016","district_id":"640216","name":"Loa Pari","postal_code":"75572"},{"id":"6402162017","district_id":"640216","name":"Karang Tunggal","postal_code":"75572"},{"id":"6402162018","district_id":"640216","name":"Tanjung Batu","postal_code":"75572"}]