[{"id":"6402131007","district_id":"640213","name":"Sungai Seluang","postal_code":"75271"},{"id":"6402131008","district_id":"640213","name":"Wonotirto","postal_code":"75276"},{"id":"6402131009","district_id":"640213","name":"Tanjung Harapan","postal_code":"75276"},{"id":"6402131010","district_id":"640213","name":"Samboja Kuala","postal_code":"75277"},{"id":"6402131011","district_id":"640213","name":"Sanipah","postal_code":"75271"},{"id":"6402131012","district_id":"640213","name":"Handil Baru","postal_code":"75279"},{"id":"6402131013","district_id":"640213","name":"Muara Sembilang","postal_code":"75279"},{"id":"6402131021","district_id":"640213","name":"Teluk Pemedas","postal_code":"75271"},{"id":"6402131022","district_id":"640213","name":"Kampung Lama","postal_code":"75276"},{"id":"6402131023","district_id":"640213","name":"Handil Baru Darat","postal_code":"75276"},{"id":"6402132014","district_id":"640213","name":"Karya Jaya","postal_code":"75271"},{"id":"6402132016","district_id":"640213","name":"Bukit Raya","postal_code":"75271"},{"id":"6402132019","district_id":"640213","name":"Beringin Agung","postal_code":"75271"}]