[{"id":"6403042001","district_id":"640304","name":"Long La'ai","postal_code":"77361"},{"id":"6403042002","district_id":"640304","name":"Punan Segah","postal_code":"77361"},{"id":"6403042003","district_id":"640304","name":"Long Ayap","postal_code":"77361"},{"id":"6403042004","district_id":"640304","name":"Long Ayan","postal_code":"77361"},{"id":"6403042005","district_id":"640304","name":"Punan Malinau","postal_code":"77361"},{"id":"6403042006","district_id":"640304","name":"Punan Mahkam","postal_code":"77361"},{"id":"6403042007","district_id":"640304","name":"Gunung Sari","postal_code":"77361"},{"id":"6403042008","district_id":"640304","name":"Pandan Sari","postal_code":"77361"},{"id":"6403042009","district_id":"640304","name":"Bukit Makmur","postal_code":"77361"},{"id":"6403042010","district_id":"640304","name":"Harapan Jaya","postal_code":"77361"},{"id":"6403042011","district_id":"640304","name":"Tepian Buah","postal_code":"77361"},{"id":"6403042012","district_id":"640304","name":"Batu Rajang","postal_code":"77361"},{"id":"6403042013","district_id":"640304","name":"Siduung Indah","postal_code":"77361"}]