[{"id":"6407172001","district_id":"640717","name":"Tebisaq","postal_code":"75771"},{"id":"6407172002","district_id":"640717","name":"Kaliq","postal_code":"75771"},{"id":"6407172003","district_id":"640717","name":"Tanah Mea","postal_code":"75771"},{"id":"6407172004","district_id":"640717","name":"Sang-Sang","postal_code":"75771"},{"id":"6407172005","district_id":"640717","name":"Muhur","postal_code":"75771"},{"id":"6407172006","district_id":"640717","name":"Muara Kelawit","postal_code":"75771"},{"id":"6407172007","district_id":"640717","name":"Bentas","postal_code":"75771"},{"id":"6407172008","district_id":"640717","name":"Betung","postal_code":"75771"},{"id":"6407172009","district_id":"640717","name":"Kiaq","postal_code":"75771"},{"id":"6407172010","district_id":"640717","name":"Tendiq","postal_code":"75771"},{"id":"6407172011","district_id":"640717","name":"Penawang","postal_code":"75771"},{"id":"6407172012","district_id":"640717","name":"Lendian Liang Nayuq","postal_code":"75771"},{"id":"6407172013","district_id":"640717","name":"Kenyanyan","postal_code":"75771"},{"id":"6407172014","district_id":"640717","name":"Rikong","postal_code":"75771"},{"id":"6407172015","district_id":"640717","name":"Kendisiq","postal_code":"75771"},{"id":"6407172016","district_id":"640717","name":"Muara Ponaq","postal_code":"75771"}]