[{"id":"6407152001","district_id":"640715","name":"Linggang Melapeh Baru","postal_code":"75576"},{"id":"6407152002","district_id":"640715","name":"Linggang Bigung Baru","postal_code":"75576"},{"id":"6407152003","district_id":"640715","name":"Linggang Tutung","postal_code":"75576"},{"id":"6407152004","district_id":"640715","name":"Linggang Melapeh","postal_code":"75576"},{"id":"6407152005","district_id":"640715","name":"Linggang Mapan","postal_code":"75576"},{"id":"6407152006","district_id":"640715","name":"Linggang Bigung","postal_code":"75576"},{"id":"6407152007","district_id":"640715","name":"Linggang Amer","postal_code":"75576"},{"id":"6407152008","district_id":"640715","name":"Linggang Bangunsari","postal_code":"75576"},{"id":"6407152009","district_id":"640715","name":"Linggang Purwodadi","postal_code":"75576"},{"id":"6407152010","district_id":"640715","name":"Linggang Mencelew","postal_code":"75576"},{"id":"6407152011","district_id":"640715","name":"Linggang Kebut","postal_code":"75576"}]