[{"id":"6501092001","district_id":"650109","name":"Sekatak Buji","postal_code":"77263"},{"id":"6501092002","district_id":"650109","name":"Paru Abang","postal_code":"77263"},{"id":"6501092003","district_id":"650109","name":"Bunau","postal_code":"77263"},{"id":"6501092004","district_id":"650109","name":"Ujang","postal_code":"77263"},{"id":"6501092005","district_id":"650109","name":"Tenggiling","postal_code":"77263"},{"id":"6501092006","district_id":"650109","name":"Kelumbunan ","postal_code":"77263"},{"id":"6501092007","district_id":"650109","name":"Turung","postal_code":"77263"},{"id":"6501092008","district_id":"650109","name":"Terindak","postal_code":"77263"},{"id":"6501092009","district_id":"650109","name":"Kelising ","postal_code":"77263"},{"id":"6501092010","district_id":"650109","name":"Ambalat","postal_code":"77263"},{"id":"6501092011","district_id":"650109","name":"Keriting","postal_code":"77263"},{"id":"6501092012","district_id":"650109","name":"Kendari","postal_code":"77263"},{"id":"6501092013","district_id":"650109","name":"Bambang","postal_code":"77263"},{"id":"6501092014","district_id":"650109","name":"Maritam","postal_code":"77263"},{"id":"6501092015","district_id":"650109","name":"Pentian","postal_code":"77263"},{"id":"6501092016","district_id":"650109","name":"Punan Dulau","postal_code":"77263"},{"id":"6501092017","district_id":"650109","name":"Kelincauan ","postal_code":"77263"},{"id":"6501092018","district_id":"650109","name":"Bekiliu","postal_code":"77263"},{"id":"6501092019","district_id":"650109","name":"Sekatak Bengara","postal_code":"77263"},{"id":"6501092020","district_id":"650109","name":"Pungit","postal_code":"77263"},{"id":"6501092021","district_id":"650109","name":"Anjar Arip ","postal_code":"77263"},{"id":"6501092022","district_id":"650109","name":"Liu Agu ","postal_code":"77263"}]