[{"id":"6503192001","district_id":"650319","name":"Pa' Mulak ","postal_code":"77455"},{"id":"6503192002","district_id":"650319","name":"Long Puak","postal_code":"77455"},{"id":"6503192003","district_id":"650319","name":"Long Mangan","postal_code":"77455"},{"id":"6503192004","district_id":"650319","name":"Buduk Kubul","postal_code":"77455"},{"id":"6503192005","district_id":"650319","name":"Long Kabid","postal_code":"77455"},{"id":"6503192006","district_id":"650319","name":"Pa' Inan ","postal_code":"77455"},{"id":"6503192007","district_id":"650319","name":"Lembudud","postal_code":"77455"},{"id":"6503192008","district_id":"650319","name":"Long Tugul","postal_code":"77455"},{"id":"6503192009","district_id":"650319","name":"Pa' Butal ","postal_code":"77455"},{"id":"6503192010","district_id":"650319","name":"Pa' Delung ","postal_code":"77455"},{"id":"6503192011","district_id":"650319","name":"Pa' Urud ","postal_code":"77455"},{"id":"6503192012","district_id":"650319","name":"Pa' Kemut ","postal_code":"77455"},{"id":"6503192013","district_id":"650319","name":"Pa' Kidang ","postal_code":"77455"},{"id":"6503192014","district_id":"650319","name":"Lembada","postal_code":"77455"},{"id":"6503192015","district_id":"650319","name":"Pa' Payak ","postal_code":"77455"},{"id":"6503192016","district_id":"650319","name":"Pa' Pirit ","postal_code":"77455"},{"id":"6503192017","district_id":"650319","name":"Liang Aliq ","postal_code":"77455"},{"id":"6503192018","district_id":"650319","name":"Sembudud","postal_code":"77455"},{"id":"6503192019","district_id":"650319","name":"Liang Turan","postal_code":"77455"},{"id":"6503192020","district_id":"650319","name":"Liang Bua","postal_code":"77455"},{"id":"6503192021","district_id":"650319","name":"Lepatar","postal_code":"77455"},{"id":"6503192022","district_id":"650319","name":"Pa' Mering ","postal_code":"77455"},{"id":"6503192023","district_id":"650319","name":"Pa' Pani ","postal_code":"77455"},{"id":"6503192024","district_id":"650319","name":"Pa' Lutut ","postal_code":"77455"},{"id":"6503192025","district_id":"650319","name":"Ma' Libu ","postal_code":"77455"}]