[{"id":"7101192001","district_id":"710119","name":"Muntoi","postal_code":"95751"},{"id":"7101192002","district_id":"710119","name":"Poyuyanan","postal_code":"95751"},{"id":"7101192003","district_id":"710119","name":"Lobong","postal_code":"95751"},{"id":"7101192004","district_id":"710119","name":"Passi","postal_code":"95751"},{"id":"7101192017","district_id":"710119","name":"Bintau","postal_code":"95751"},{"id":"7101192018","district_id":"710119","name":"Bulud","postal_code":"95751"},{"id":"7101192019","district_id":"710119","name":"Otam","postal_code":"95751"},{"id":"7101192020","district_id":"710119","name":"Wangga","postal_code":"95751"},{"id":"7101192022","district_id":"710119","name":"Inuai","postal_code":"95751"},{"id":"7101192023","district_id":"710119","name":"Passi II","postal_code":"95751"},{"id":"7101192024","district_id":"710119","name":"Muntoi Timur","postal_code":"95751"},{"id":"7101192025","district_id":"710119","name":"Otam Barat","postal_code":"95751"},{"id":"7101192026","district_id":"710119","name":"Wangga Satu","postal_code":"95751"}]