[{"id":"7104071001","district_id":"710407","name":"Melonguane","postal_code":"95885"},{"id":"7104071009","district_id":"710407","name":"Melonguane Timur","postal_code":"95885"},{"id":"7104071010","district_id":"710407","name":"Melonguane Barat","postal_code":"95885"},{"id":"7104072002","district_id":"710407","name":"Mala","postal_code":"95885"},{"id":"7104072003","district_id":"710407","name":"Kiama","postal_code":"95885"},{"id":"7104072006","district_id":"710407","name":"Tarun","postal_code":"95885"},{"id":"7104072007","district_id":"710407","name":"Sawang","postal_code":"95885"},{"id":"7104072008","district_id":"710407","name":"Ambela","postal_code":"95885"},{"id":"7104072011","district_id":"710407","name":"Tarun Selatan","postal_code":"95885"},{"id":"7104072012","district_id":"710407","name":"Kiama Barat","postal_code":"95885"},{"id":"7104072015","district_id":"710407","name":"Maredaren Kiama","postal_code":"95885"},{"id":"7104072016","district_id":"710407","name":"Sawang Utara","postal_code":"95885"},{"id":"7104072017","district_id":"710407","name":"Mala Timur","postal_code":"95885"}]