[{"id":"7105032002","district_id":"710503","name":"Poopo","postal_code":"95944"},{"id":"7105032003","district_id":"710503","name":"Ranoyapo ","postal_code":"95944"},{"id":"7105032004","district_id":"710503","name":"Mopolo","postal_code":"95944"},{"id":"7105032005","district_id":"710503","name":"Beringin","postal_code":"95944"},{"id":"7105032006","district_id":"710503","name":"Powalutan","postal_code":"95944"},{"id":"7105032008","district_id":"710503","name":"Lompad","postal_code":"95944"},{"id":"7105032009","district_id":"710503","name":"Lompad Baru","postal_code":"95944"},{"id":"7105032010","district_id":"710503","name":"Pontak","postal_code":"95944"},{"id":"7105032012","district_id":"710503","name":"Poopo Utara","postal_code":"95944"},{"id":"7105032013","district_id":"710503","name":"Poopo Barat","postal_code":"95944"},{"id":"7105032014","district_id":"710503","name":"Pontak Satu","postal_code":"95944"},{"id":"7105032015","district_id":"710503","name":"Mopolo Esa","postal_code":"95944"}]