[{"id":"7108042001","district_id":"710804","name":"Paku","postal_code":"95764"},{"id":"7108042002","district_id":"710804","name":"Ollot","postal_code":"95764"},{"id":"7108042003","district_id":"710804","name":"Sonuo","postal_code":"95764"},{"id":"7108042004","district_id":"710804","name":"Jambusarang","postal_code":"95764"},{"id":"7108042005","district_id":"710804","name":"Talaga Tomoagu","postal_code":"95764"},{"id":"7108042006","district_id":"710804","name":"Bolangitang","postal_code":"95764"},{"id":"7108042007","district_id":"710804","name":"Langi","postal_code":"95764"},{"id":"7108042008","district_id":"710804","name":"Iyok","postal_code":"95764"},{"id":"7108042009","district_id":"710804","name":"Tote","postal_code":"95764"},{"id":"7108042010","district_id":"710804","name":"Wakat","postal_code":"95764"},{"id":"7108042011","district_id":"710804","name":"Ollot I","postal_code":"95764"},{"id":"7108042012","district_id":"710804","name":"Ollot II","postal_code":"95764"},{"id":"7108042013","district_id":"710804","name":"Bolangitang I","postal_code":"95764"},{"id":"7108042014","district_id":"710804","name":"Bolangitang II","postal_code":"95764"},{"id":"7108042015","district_id":"710804","name":"Talaga","postal_code":"95764"},{"id":"7108042016","district_id":"710804","name":"Tanjung Buaya","postal_code":"95764"},{"id":"7108042017","district_id":"710804","name":"Keimanga","postal_code":"95764"},{"id":"7108042018","district_id":"710804","name":"Paku Selatan","postal_code":"95764"}]