[{"id":"7108052001","district_id":"710805","name":"Solo","postal_code":"95765"},{"id":"7108052002","district_id":"710805","name":"Boroko","postal_code":"95765"},{"id":"7108052003","district_id":"710805","name":"Bigo","postal_code":"95765"},{"id":"7108052004","district_id":"710805","name":"Kuala","postal_code":"95765"},{"id":"7108052005","district_id":"710805","name":"Pontak","postal_code":"95765"},{"id":"7108052006","district_id":"710805","name":"Inomunga","postal_code":"95765"},{"id":"7108052007","district_id":"710805","name":"Komus II","postal_code":"95765"},{"id":"7108052008","district_id":"710805","name":"Boroko Timur","postal_code":"95765"},{"id":"7108052009","district_id":"710805","name":"Kuala Utara","postal_code":"95765"},{"id":"7108052010","district_id":"710805","name":"Gihang","postal_code":"95765"},{"id":"7108052011","district_id":"710805","name":"Boroko Utara","postal_code":"95765"},{"id":"7108052012","district_id":"710805","name":"Bigo Selatan","postal_code":"95765"},{"id":"7108052013","district_id":"710805","name":"Soligir","postal_code":"95765"},{"id":"7108052014","district_id":"710805","name":"Inomunga Utara","postal_code":"95765"},{"id":"7108052015","district_id":"710805","name":"Komus Dua Timur","postal_code":"95765"}]