[{"id":"7111012004","district_id":"711101","name":"Tangagah","postal_code":"95770"},{"id":"7111012005","district_id":"711101","name":"Salongo","postal_code":"95770"},{"id":"7111012006","district_id":"711101","name":"Toluaya ","postal_code":"95770"},{"id":"7111012007","district_id":"711101","name":"Molibagu","postal_code":"95770"},{"id":"7111012008","district_id":"711101","name":"Popodu","postal_code":"95770"},{"id":"7111012009","district_id":"711101","name":"Tolondadu","postal_code":"95770"},{"id":"7111012010","district_id":"711101","name":"Tabilaa","postal_code":"95770"},{"id":"7111012012","district_id":"711101","name":"Sondana","postal_code":"95770"},{"id":"7111012013","district_id":"711101","name":"Dudepo","postal_code":"95770"},{"id":"7111012014","district_id":"711101","name":"Pinolantungan","postal_code":"95770"},{"id":"7111012015","district_id":"711101","name":"Tolondadu I","postal_code":"95770"},{"id":"7111012016","district_id":"711101","name":"Tolondadu II","postal_code":"95770"},{"id":"7111012020","district_id":"711101","name":"Soguo","postal_code":"95770"},{"id":"7111012022","district_id":"711101","name":"Pintadia","postal_code":"95770"},{"id":"7111012023","district_id":"711101","name":"Salongo Timur","postal_code":"95770"},{"id":"7111012027","district_id":"711101","name":"Salongo Barat","postal_code":"95770"},{"id":"7111012028","district_id":"711101","name":"Dudepo Barat","postal_code":"95770"}]