[{"id":"7206092001","district_id":"720609","name":"Parilangke","postal_code":"94976"},{"id":"7206092002","district_id":"720609","name":"Bahonsuai","postal_code":"94976"},{"id":"7206092003","district_id":"720609","name":"Atananga","postal_code":"94976"},{"id":"7206092004","district_id":"720609","name":"Pebatae","postal_code":"94976"},{"id":"7206092005","district_id":"720609","name":"Umbele","postal_code":"94976"},{"id":"7206092006","district_id":"720609","name":"Lambelu","postal_code":"94976"},{"id":"7206092007","district_id":"720609","name":"Limbo Makmur","postal_code":"94976"},{"id":"7206092008","district_id":"720609","name":"Beringin Jaya","postal_code":"94976"},{"id":"7206092009","district_id":"720609","name":"Samarenda","postal_code":"94976"},{"id":"7206092010","district_id":"720609","name":"Lasampi","postal_code":"94976"},{"id":"7206092011","district_id":"720609","name":"Harapan Jaya","postal_code":"94976"},{"id":"7206092012","district_id":"720609","name":"Pebotoa","postal_code":"94976"},{"id":"7206092013","district_id":"720609","name":"Karaupa","postal_code":"94976"}]