[{"id":"7208122001","district_id":"720812","name":"Kayu Agung","postal_code":"94476"},{"id":"7208122002","district_id":"720812","name":"Sumber Agung","postal_code":"94476"},{"id":"7208122003","district_id":"720812","name":"Kotaraya","postal_code":"94476"},{"id":"7208122004","district_id":"720812","name":"Mepanga","postal_code":"94476"},{"id":"7208122005","district_id":"720812","name":"Ogotion","postal_code":"94476"},{"id":"7208122006","district_id":"720812","name":"Mensung","postal_code":"94476"},{"id":"7208122007","district_id":"720812","name":"Bugis","postal_code":"94476"},{"id":"7208122008","district_id":"720812","name":"Moubang","postal_code":"94476"},{"id":"7208122009","district_id":"720812","name":"Ogobayas","postal_code":"94476"},{"id":"7208122010","district_id":"720812","name":"Kota Raya Timur","postal_code":"94476"},{"id":"7208122011","district_id":"720812","name":"Malalan","postal_code":"94479"},{"id":"7208122012","district_id":"720812","name":"Kota Raya Selatan","postal_code":"94479"},{"id":"7208122013","district_id":"720812","name":"Maranti","postal_code":"94479"},{"id":"7208122014","district_id":"720812","name":"Ogomolos","postal_code":"94479"},{"id":"7208122015","district_id":"720812","name":"Kotaraya Barat","postal_code":"94479"},{"id":"7208122016","district_id":"720812","name":"Bugis Utara","postal_code":"94476"},{"id":"7208122017","district_id":"720812","name":"Gurinda","postal_code":"94476"},{"id":"7208122018","district_id":"720812","name":"Kotaraya Tenggara","postal_code":"94476"}]