[{"id":"7210072001","district_id":"721007","name":"Koja","postal_code":"94370"},{"id":"7210072002","district_id":"721007","name":"Kalamanta","postal_code":"94370"},{"id":"7210072003","district_id":"721007","name":"Mamu","postal_code":"94370"},{"id":"7210072004","district_id":"721007","name":"Peana","postal_code":"94370"},{"id":"7210072005","district_id":"721007","name":"Kantewu","postal_code":"94370"},{"id":"7210072006","district_id":"721007","name":"Onu","postal_code":"94370"},{"id":"7210072007","district_id":"721007","name":"Mapahi","postal_code":"94370"},{"id":"7210072008","district_id":"721007","name":"Banasu","postal_code":"94370"},{"id":"7210072009","district_id":"721007","name":"Lonebasa","postal_code":"94370"},{"id":"7210072010","district_id":"721007","name":"Lawe","postal_code":"94370"},{"id":"7210072011","district_id":"721007","name":"Morui","postal_code":"94370"},{"id":"7210072012","district_id":"721007","name":"Kantewu II","postal_code":"94370"},{"id":"7210072013","district_id":"721007","name":"Porelea","postal_code":"94370"},{"id":"7210072014","district_id":"721007","name":"Tuwo Tanijaya","postal_code":"94370"},{"id":"7210072015","district_id":"721007","name":"Pelempea","postal_code":"94370"},{"id":"7210072016","district_id":"721007","name":"Morui II","postal_code":"94370"},{"id":"7210072017","district_id":"721007","name":"Poluroa","postal_code":"94370"},{"id":"7210072018","district_id":"721007","name":"Masewo","postal_code":"94370"},{"id":"7210072019","district_id":"721007","name":"Porelea II","postal_code":"94370"}]