[{"id":"7212092001","district_id":"721209","name":"Pandauke","postal_code":"94968"},{"id":"7212092002","district_id":"721209","name":"Kolo Bawah","postal_code":"94968"},{"id":"7212092003","district_id":"721209","name":"Kolo Atas","postal_code":"94968"},{"id":"7212092004","district_id":"721209","name":"Momo","postal_code":"94968"},{"id":"7212092005","district_id":"721209","name":"Tananagaya ","postal_code":"94968"},{"id":"7212092006","district_id":"721209","name":"Uepakatu ","postal_code":"94968"},{"id":"7212092007","district_id":"721209","name":"Lijo","postal_code":"94968"},{"id":"7212092008","district_id":"721209","name":"Tanasumpu","postal_code":"94968"},{"id":"7212092009","district_id":"721209","name":"Parangisi","postal_code":"94968"},{"id":"7212092010","district_id":"721209","name":"Girimulya","postal_code":"94968"},{"id":"7212092011","district_id":"721209","name":"Winangobino ","postal_code":"94968"},{"id":"7212092012","district_id":"721209","name":"Tambale","postal_code":"94968"},{"id":"7212092013","district_id":"721209","name":"Sea","postal_code":"94968"},{"id":"7212092014","district_id":"721209","name":"Menyo'e ","postal_code":"94968"}]