[{"id":"7301031001","district_id":"730103","name":"Batangmata","postal_code":"92854"},{"id":"7301031002","district_id":"730103","name":"Batangmata Sapo","postal_code":"92854"},{"id":"7301032003","district_id":"730103","name":"Pamatata","postal_code":"92854"},{"id":"7301032004","district_id":"730103","name":"Tanete","postal_code":"92854"},{"id":"7301032005","district_id":"730103","name":"Bungaiya","postal_code":"92854"},{"id":"7301032006","district_id":"730103","name":"Kayu Bauk","postal_code":"92854"},{"id":"7301032007","district_id":"730103","name":"Barat Lambongan","postal_code":"92854"},{"id":"7301032008","district_id":"730103","name":"Bontona Saluk","postal_code":"92854"},{"id":"7301032009","district_id":"730103","name":"Onto","postal_code":"92854"},{"id":"7301032010","district_id":"730103","name":"Maharayya","postal_code":"92854"},{"id":"7301032011","district_id":"730103","name":"Menara Indah","postal_code":"92854"},{"id":"7301032015","district_id":"730103","name":"Tamalanrea","postal_code":"92854"}]