[{"id":"7302071001","district_id":"730207","name":"Tanete","postal_code":"92552"},{"id":"7302071002","district_id":"730207","name":"Jawi - Jawi","postal_code":"92552"},{"id":"7302071003","district_id":"730207","name":"Balla Saraja ","postal_code":"92552"},{"id":"7302072004","district_id":"730207","name":"Bonto Bulaeng","postal_code":"92552"},{"id":"7302072005","district_id":"730207","name":"Bulo-Bulo","postal_code":"92552"},{"id":"7302072006","district_id":"730207","name":"Bonto Minasa","postal_code":"92552"},{"id":"7302072007","district_id":"730207","name":"Balang Taroang","postal_code":"92552"},{"id":"7302072008","district_id":"730207","name":"Barugae","postal_code":"92552"},{"id":"7302072009","district_id":"730207","name":"Salassae","postal_code":"92552"},{"id":"7302072010","district_id":"730207","name":"Kambuno","postal_code":"92552"},{"id":"7302072011","district_id":"730207","name":"Jojjolo","postal_code":"92552"},{"id":"7302072012","district_id":"730207","name":"Sapo Bonto","postal_code":"92552"},{"id":"7302072013","district_id":"730207","name":"Tibona","postal_code":"92552"},{"id":"7302072014","district_id":"730207","name":"Balang Pesoang","postal_code":"92552"},{"id":"7302072015","district_id":"730207","name":"Batulohe","postal_code":"92552"},{"id":"7302072016","district_id":"730207","name":"Bonto Mangiring ","postal_code":"92552"},{"id":"7302072017","district_id":"730207","name":"Baruga Riattang","postal_code":"92552"}]