[{"id":"7305092001","district_id":"730509","name":"Galesong Baru","postal_code":"92254"},{"id":"7305092002","district_id":"730509","name":"Galesong Kota","postal_code":"92254"},{"id":"7305092003","district_id":"730509","name":"Bontoloe","postal_code":"92254"},{"id":"7305092004","district_id":"730509","name":"Boddia","postal_code":"92254"},{"id":"7305092005","district_id":"730509","name":"Bontomangape","postal_code":"92254"},{"id":"7305092006","district_id":"730509","name":"Parangmata","postal_code":"92254"},{"id":"7305092007","district_id":"730509","name":"Parambambe","postal_code":"92254"},{"id":"7305092008","district_id":"730509","name":"Pa'rasangang Beru","postal_code":"92255"},{"id":"7305092009","district_id":"730509","name":"Pa'lalakkang","postal_code":"92255"},{"id":"7305092010","district_id":"730509","name":"Pattinoang","postal_code":"92255"},{"id":"7305092011","district_id":"730509","name":"Kalenna Bontongape","postal_code":"92255"},{"id":"7305092012","district_id":"730509","name":"Kalukuang","postal_code":"92255"},{"id":"7305092013","district_id":"730509","name":"Mappakalompo","postal_code":"92255"},{"id":"7305092014","district_id":"730509","name":"Campagaya","postal_code":"92255"},{"id":"7305092015","district_id":"730509","name":"Galesong Timur","postal_code":"92255"},{"id":"7305092016","district_id":"730509","name":"Kampung Beru","postal_code":"92255"},{"id":"7305092017","district_id":"730509","name":"Tarembang","postal_code":"92255"}]