[{"id":"7305061004","district_id":"730506","name":"Bontolebang","postal_code":"92255"},{"id":"7305062001","district_id":"730506","name":"Pakkabba","postal_code":"92255"},{"id":"7305062002","district_id":"730506","name":"Bontolanra","postal_code":"92255"},{"id":"7305062003","district_id":"730506","name":"Aeng Batu Batu","postal_code":"92255"},{"id":"7305062005","district_id":"730506","name":"Tamalate","postal_code":"92255"},{"id":"7305062006","district_id":"730506","name":"Tamasaju","postal_code":"92255"},{"id":"7305062007","district_id":"730506","name":"Bontosunggu","postal_code":"92255"},{"id":"7305062010","district_id":"730506","name":"Aeng Towa","postal_code":"92255"},{"id":"7305062011","district_id":"730506","name":"Bontokaddopepe","postal_code":"92255"},{"id":"7305062012","district_id":"730506","name":"Sampulungan","postal_code":"92255"},{"id":"7305062013","district_id":"730506","name":"Maccini Sombala","postal_code":"92255"},{"id":"7305062014","district_id":"730506","name":"Sawakung Beba","postal_code":"92255"},{"id":"7305062015","district_id":"730506","name":"Biring Kassi","postal_code":"92255"},{"id":"7305062016","district_id":"730506","name":"Kaballokang Pakkabba","postal_code":"92255"}]