[{"id":"7305052006","district_id":"730505","name":"Bonto Kanang","postal_code":"92254"},{"id":"7305052007","district_id":"730505","name":"Bontomarannu","postal_code":"92254"},{"id":"7305052008","district_id":"730505","name":"Mangindara","postal_code":"92254"},{"id":"7305052009","district_id":"730505","name":"Bontokassi","postal_code":"92254"},{"id":"7305052011","district_id":"730505","name":"Bentang","postal_code":"92254"},{"id":"7305052012","district_id":"730505","name":"Barangmamase","postal_code":"92254"},{"id":"7305052013","district_id":"730505","name":"Sawakong","postal_code":"92254"},{"id":"7305052015","district_id":"730505","name":"Popo","postal_code":"92254"},{"id":"7305052016","district_id":"730505","name":"Tarowang","postal_code":"92254"},{"id":"7305052017","district_id":"730505","name":"Kalukubodo","postal_code":"92254"},{"id":"7305052018","district_id":"730505","name":"Kadatong","postal_code":"92254"},{"id":"7305052019","district_id":"730505","name":"Kale Bentang","postal_code":"92254"},{"id":"7305052020","district_id":"730505","name":"Kanaeng","postal_code":"92254"}]