[{"id":"7306021001","district_id":"730602","name":"Kalebajeng","postal_code":"92152"},{"id":"7306021002","district_id":"730602","name":"Limbung","postal_code":"92152"},{"id":"7306021017","district_id":"730602","name":"Tubajeng","postal_code":"92152"},{"id":"7306021018","district_id":"730602","name":"Mata Allo","postal_code":"92152"},{"id":"7306022003","district_id":"730602","name":"Bontosunggu","postal_code":"92152"},{"id":"7306022006","district_id":"730602","name":"Macini Baji ","postal_code":"92152"},{"id":"7306022007","district_id":"730602","name":"Pa'bentengang","postal_code":"92152"},{"id":"7306022009","district_id":"730602","name":"Tangkebajeng","postal_code":"92152"},{"id":"7306022010","district_id":"730602","name":"Maradekaya","postal_code":"92152"},{"id":"7306022011","district_id":"730602","name":"Panciro","postal_code":"92152"},{"id":"7306022012","district_id":"730602","name":"Lempangang","postal_code":"92152"},{"id":"7306022013","district_id":"730602","name":"Bone","postal_code":"92152"},{"id":"7306022015","district_id":"730602","name":"Panyangkalang","postal_code":"92152"},{"id":"7306022019","district_id":"730602","name":"Paraikate ","postal_code":"92152"}]