[{"id":"7307031001","district_id":"730703","name":"Semataring ","postal_code":"92671"},{"id":"7307032002","district_id":"730703","name":"Sanjai","postal_code":"92671"},{"id":"7307032003","district_id":"730703","name":"Pattalassang","postal_code":"92671"},{"id":"7307032004","district_id":"730703","name":"Panaikang","postal_code":"92671"},{"id":"7307032005","district_id":"730703","name":"Saukang","postal_code":"92671"},{"id":"7307032006","district_id":"730703","name":"Kampala","postal_code":"92671"},{"id":"7307032007","district_id":"730703","name":"Lasiai","postal_code":"92671"},{"id":"7307032008","district_id":"730703","name":"Biroro","postal_code":"92671"},{"id":"7307032009","district_id":"730703","name":"Kaloling","postal_code":"92671"},{"id":"7307032010","district_id":"730703","name":"Pasimarannu","postal_code":"92671"},{"id":"7307032011","district_id":"730703","name":"Tongke-Tongke","postal_code":"92671"},{"id":"7307032012","district_id":"730703","name":"Salohe","postal_code":"92671"},{"id":"7307032013","district_id":"730703","name":"Bongki Lengkese","postal_code":"92671"}]