[{"id":"7308152001","district_id":"730815","name":"Cinenung","postal_code":"92761"},{"id":"7308152002","district_id":"730815","name":"Siame","postal_code":"92761"},{"id":"7308152003","district_id":"730815","name":"Pasempe","postal_code":"92761"},{"id":"7308152004","district_id":"730815","name":"Ureng","postal_code":"92761"},{"id":"7308152005","district_id":"730815","name":"Usa","postal_code":"92761"},{"id":"7308152006","district_id":"730815","name":"Mico","postal_code":"92761"},{"id":"7308152007","district_id":"730815","name":"Bainang","postal_code":"92761"},{"id":"7308152008","district_id":"730815","name":"Passippo","postal_code":"92761"},{"id":"7308152009","district_id":"730815","name":"Tanah Tengnga","postal_code":"92761"},{"id":"7308152010","district_id":"730815","name":"Tirong","postal_code":"92761"},{"id":"7308152011","district_id":"730815","name":"Mattanete Bua","postal_code":"92761"},{"id":"7308152012","district_id":"730815","name":"Maduri","postal_code":"92761"},{"id":"7308152013","district_id":"730815","name":"Melle","postal_code":"92761"},{"id":"7308152014","district_id":"730815","name":"Lemoape","postal_code":"92761"},{"id":"7308152015","district_id":"730815","name":"Panyili","postal_code":"92761"}]