[{"id":"7310071001","district_id":"731007","name":"Labakkang","postal_code":"90653"},{"id":"7310071002","district_id":"731007","name":"Mangallekana","postal_code":"90653"},{"id":"7310071003","district_id":"731007","name":"Pundata Baji","postal_code":"90653"},{"id":"7310071004","district_id":"731007","name":"Borimasunggu","postal_code":"90653"},{"id":"7310072005","district_id":"731007","name":"Patallassang","postal_code":"90653"},{"id":"7310072006","district_id":"731007","name":"Manakku","postal_code":"90653"},{"id":"7310072007","district_id":"731007","name":"Gentung","postal_code":"90653"},{"id":"7310072008","district_id":"731007","name":"Batara","postal_code":"90653"},{"id":"7310072009","district_id":"731007","name":"Taraweang","postal_code":"90653"},{"id":"7310072010","district_id":"731007","name":"Kanaungan","postal_code":"90653"},{"id":"7310072011","district_id":"731007","name":"Bonto Manai","postal_code":"90653"},{"id":"7310072012","district_id":"731007","name":"Kassiloe","postal_code":"90653"},{"id":"7310072013","district_id":"731007","name":"Bara Batu","postal_code":"90653"}]