[{"id":"7312011001","district_id":"731201","name":"Labessi","postal_code":"90862"},{"id":"7312011002","district_id":"731201","name":"Tettikenrarae ","postal_code":"90862"},{"id":"7312012003","district_id":"731201","name":"Gattareng","postal_code":"90862"},{"id":"7312012004","district_id":"731201","name":"Watu","postal_code":"90862"},{"id":"7312012005","district_id":"731201","name":"Goarie","postal_code":"90862"},{"id":"7312012006","district_id":"731201","name":"Barae","postal_code":"90862"},{"id":"7312012007","district_id":"731201","name":"Marioriaja ","postal_code":"90862"},{"id":"7312012008","district_id":"731201","name":"Marioritengnga ","postal_code":"90862"},{"id":"7312012009","district_id":"731201","name":"Mariorilau ","postal_code":"90862"},{"id":"7312012010","district_id":"731201","name":"Watu Toa ","postal_code":"90862"},{"id":"7312012011","district_id":"731201","name":"Congko","postal_code":"90862"},{"id":"7312012012","district_id":"731201","name":"Gattareng Toa","postal_code":"90862"},{"id":"7312012013","district_id":"731201","name":"Soga","postal_code":"90862"}]