[{"id":"7313031001","district_id":"731303","name":"Peneki","postal_code":"90981"},{"id":"7313031002","district_id":"731303","name":"Bocco","postal_code":"90981"},{"id":"7313032003","district_id":"731303","name":"Parigi","postal_code":"90981"},{"id":"7313032004","district_id":"731303","name":"Manyilli ","postal_code":"90981"},{"id":"7313032005","district_id":"731303","name":"Soro","postal_code":"90981"},{"id":"7313032006","district_id":"731303","name":"Ceppaga","postal_code":"90981"},{"id":"7313032007","district_id":"731303","name":"Leweng","postal_code":"90981"},{"id":"7313032008","district_id":"731303","name":"Ajuraja","postal_code":"90981"},{"id":"7313032009","district_id":"731303","name":"Botto","postal_code":"90981"},{"id":"7313032010","district_id":"731303","name":"Lagoari","postal_code":"90981"},{"id":"7313032011","district_id":"731303","name":"Alupang ","postal_code":"90981"},{"id":"7313032012","district_id":"731303","name":"Lamarua","postal_code":"90981"},{"id":"7313032013","district_id":"731303","name":"Pantai Timur","postal_code":"90981"}]