[{"id":"7313051001","district_id":"731305","name":"Paria","postal_code":"90991"},{"id":"7313051002","district_id":"731305","name":"Limpomajang","postal_code":"90991"},{"id":"7313051003","district_id":"731305","name":"Macanang","postal_code":"90991"},{"id":"7313051004","district_id":"731305","name":"Uraiyang","postal_code":"90991"},{"id":"7313052005","district_id":"731305","name":"Tosora","postal_code":"90991"},{"id":"7313052006","district_id":"731305","name":"Cinnong Tabi","postal_code":"90991"},{"id":"7313052007","district_id":"731305","name":"Rumpia","postal_code":"90991"},{"id":"7313052008","district_id":"731305","name":"Laerung","postal_code":"90991"},{"id":"7313052009","district_id":"731305","name":"Lamiku","postal_code":"90991"},{"id":"7313052010","district_id":"731305","name":"Bottobenteng","postal_code":"90991"},{"id":"7313052011","district_id":"731305","name":"Bottotanre","postal_code":"90991"},{"id":"7313052012","district_id":"731305","name":"Tua","postal_code":"90991"},{"id":"7313052013","district_id":"731305","name":"Tajo","postal_code":"90991"},{"id":"7313052014","district_id":"731305","name":"Tengnga","postal_code":"90991"},{"id":"7313052015","district_id":"731305","name":"Liu","postal_code":"90991"},{"id":"7313052016","district_id":"731305","name":"Tellulimpoe","postal_code":"90991"},{"id":"7313052017","district_id":"731305","name":"Bottopenno","postal_code":"90991"},{"id":"7313052018","district_id":"731305","name":"Watanrumpia","postal_code":"90991"}]