[{"id":"7315071001","district_id":"731507","name":"Tadokkong","postal_code":"91254"},{"id":"7315071002","district_id":"731507","name":"Betteng","postal_code":"91254"},{"id":"7315072003","district_id":"731507","name":"Binanga Karaeng","postal_code":"91254"},{"id":"7315072004","district_id":"731507","name":"Rajang","postal_code":"91254"},{"id":"7315072005","district_id":"731507","name":"Letta","postal_code":"91254"},{"id":"7315072006","district_id":"731507","name":"Ulu Saddang","postal_code":"91254"},{"id":"7315072007","district_id":"731507","name":"Suppirang","postal_code":"91254"},{"id":"7315072008","district_id":"731507","name":"Basseang","postal_code":"91254"},{"id":"7315072009","district_id":"731507","name":"Kariango","postal_code":"91254"},{"id":"7315072010","district_id":"731507","name":"Benteng Paremba","postal_code":"91254"},{"id":"7315072011","district_id":"731507","name":"Pakeng","postal_code":"91254"},{"id":"7315072012","district_id":"731507","name":"Lembang Mesakada","postal_code":"91254"},{"id":"7315072013","district_id":"731507","name":"Sali Sali","postal_code":"91254"},{"id":"7315072014","district_id":"731507","name":"Sabbang Paru","postal_code":"91254"},{"id":"7315072015","district_id":"731507","name":"Bakaru","postal_code":"91254"},{"id":"7315072016","district_id":"731507","name":"Pangaparang","postal_code":"91254"}]