[{"id":"7317211005","district_id":"731721","name":"Pattedong","postal_code":"91989"},{"id":"7317212001","district_id":"731721","name":"Jenne\/Je'ne Maeja","postal_code":"91989"},{"id":"7317212002","district_id":"731721","name":"Bakti","postal_code":"91989"},{"id":"7317212003","district_id":"731721","name":"Buntu Karya","postal_code":"91989"},{"id":"7317212004","district_id":"731721","name":"Olang","postal_code":"91989"},{"id":"7317212006","district_id":"731721","name":"Bassiang","postal_code":"91989"},{"id":"7317212007","district_id":"731721","name":"Paccerakkang ","postal_code":"91989"},{"id":"7317212008","district_id":"731721","name":"Lampuara","postal_code":"91989"},{"id":"7317212009","district_id":"731721","name":"To'balo ","postal_code":"91989"},{"id":"7317212010","district_id":"731721","name":"To'bia","postal_code":"91989"},{"id":"7317212011","district_id":"731721","name":"Bassiang Timur","postal_code":"91989"},{"id":"7317212012","district_id":"731721","name":"Pattedong Selatan","postal_code":"91989"},{"id":"7317212013","district_id":"731721","name":"Tarramatekkeng","postal_code":"91989"}]