[{"id":"7318121002","district_id":"731812","name":"Rante Kalua' ","postal_code":"91870"},{"id":"7318121016","district_id":"731812","name":"Tampo","postal_code":"91870"},{"id":"7318121023","district_id":"731812","name":"Lemo","postal_code":"91870"},{"id":"7318121024","district_id":"731812","name":"Tengan","postal_code":"91870"},{"id":"7318122004","district_id":"731812","name":"Gasing","postal_code":"91870"},{"id":"7318122006","district_id":"731812","name":"Uluway ","postal_code":"91870"},{"id":"7318122012","district_id":"731812","name":"Randanan","postal_code":"91870"},{"id":"7318122015","district_id":"731812","name":"Buntu Tangti","postal_code":"91870"},{"id":"7318122017","district_id":"731812","name":"Rante dada ","postal_code":"91870"},{"id":"7318122018","district_id":"731812","name":"Pa'tengko","postal_code":"91870"},{"id":"7318122019","district_id":"731812","name":"Simbuang","postal_code":"91870"},{"id":"7318122020","district_id":"731812","name":"Pakala","postal_code":"91870"},{"id":"7318122021","district_id":"731812","name":"Uluway Barat","postal_code":"91870"},{"id":"7318122022","district_id":"731812","name":"Marinding","postal_code":"91870"},{"id":"7318122025","district_id":"731812","name":"Palipu","postal_code":"91870"},{"id":"7318122026","district_id":"731812","name":"Ke'pe Tinoring ","postal_code":"91870"},{"id":"7318122027","district_id":"731812","name":"Buntu Datu ","postal_code":"91870"}]