[{"id":"7402361009","district_id":"740236","name":"Watunggarandu","postal_code":"93450"},{"id":"7402362001","district_id":"740236","name":"Toli Toli","postal_code":"93450"},{"id":"7402362002","district_id":"740236","name":"Nii Tanasa","postal_code":"93450"},{"id":"7402362003","district_id":"740236","name":"Rapambinopaka","postal_code":"93450"},{"id":"7402362004","district_id":"740236","name":"Lalombonda","postal_code":"93450"},{"id":"7402362005","district_id":"740236","name":"Puuwonua","postal_code":"93450"},{"id":"7402362006","district_id":"740236","name":"Bumi Indah","postal_code":"93450"},{"id":"7402362007","district_id":"740236","name":"Lolanggasumeeto","postal_code":"93450"},{"id":"7402362008","district_id":"740236","name":"Toolawawo","postal_code":"93450"},{"id":"7402362010","district_id":"740236","name":"Wawobungi","postal_code":"93450"},{"id":"7402362011","district_id":"740236","name":"Batu Gong","postal_code":"93450"},{"id":"7402362012","district_id":"740236","name":"Watunggarandu ","postal_code":"93450"}]