[{"id":"7402371001","district_id":"740237","name":"Onembute","postal_code":"93465"},{"id":"7402372002","district_id":"740237","name":"Trimulya","postal_code":"93465"},{"id":"7402372003","district_id":"740237","name":"Napoosi","postal_code":"93465"},{"id":"7402372004","district_id":"740237","name":"Silea","postal_code":"93465"},{"id":"7402372005","district_id":"740237","name":"Ulumeraka","postal_code":"93465"},{"id":"7402372006","district_id":"740237","name":"Mataiwoi","postal_code":"93465"},{"id":"7402372007","district_id":"740237","name":"Kumapo","postal_code":"93465"},{"id":"7402372008","district_id":"740237","name":"Kasumeia","postal_code":"93465"},{"id":"7402372009","district_id":"740237","name":"Ulu Onembute","postal_code":"93465"},{"id":"7402372010","district_id":"740237","name":"Tawapandere","postal_code":"93465"},{"id":"7402372011","district_id":"740237","name":"Anggaloosi","postal_code":"93465"},{"id":"7402372012","district_id":"740237","name":"Ana Onembute","postal_code":"93465"}]