[{"id":"7402041001","district_id":"740204","name":"Pondidaha","postal_code":"93467"},{"id":"7402042013","district_id":"740204","name":"Hongoa","postal_code":"93467"},{"id":"7402042016","district_id":"740204","name":"Mumundowu","postal_code":"93467"},{"id":"7402042019","district_id":"740204","name":"Ahuawatu","postal_code":"93467"},{"id":"7402042025","district_id":"740204","name":"Tirawuta","postal_code":"93467"},{"id":"7402042030","district_id":"740204","name":"Ambuulanu","postal_code":"93467"},{"id":"7402042031","district_id":"740204","name":"Belatu","postal_code":"93467"},{"id":"7402042034","district_id":"740204","name":"Amesiu","postal_code":"93467"},{"id":"7402042035","district_id":"740204","name":"Puumbinisi","postal_code":"93467"},{"id":"7402042039","district_id":"740204","name":"Wawolemo","postal_code":"93467"},{"id":"7402042045","district_id":"740204","name":"Sulemandara","postal_code":"93467"},{"id":"7402042046","district_id":"740204","name":"Lalodangge","postal_code":"93467"},{"id":"7402042047","district_id":"740204","name":"Wawolahumbuti","postal_code":"93467"},{"id":"7402042048","district_id":"740204","name":"Laloika","postal_code":"93467"},{"id":"7402042049","district_id":"740204","name":"Lalonggotomi","postal_code":"93467"},{"id":"7402042050","district_id":"740204","name":"Wonua Mandara","postal_code":"93467"},{"id":"7402042051","district_id":"740204","name":"Wonua Monapa","postal_code":"93467"},{"id":"7402042052","district_id":"740204","name":"Lahonggumbi","postal_code":"93467"}]