[{"id":"7405022001","district_id":"740502","name":"Pewutaa","postal_code":"93875"},{"id":"7405022002","district_id":"740502","name":"Aopa","postal_code":"93875"},{"id":"7405022003","district_id":"740502","name":"Motaha","postal_code":"93875"},{"id":"7405022004","district_id":"740502","name":"Lamoen","postal_code":"93875"},{"id":"7405022005","district_id":"740502","name":"Puusanggula","postal_code":"93875"},{"id":"7405022006","district_id":"740502","name":"Puao","postal_code":"93875"},{"id":"7405022007","district_id":"740502","name":"Sandey","postal_code":"93875"},{"id":"7405022008","district_id":"740502","name":"Teteasa","postal_code":"93875"},{"id":"7405022009","district_id":"740502","name":"Simbangu","postal_code":"93875"},{"id":"7405022010","district_id":"740502","name":"Lamooso","postal_code":"93875"},{"id":"7405022011","district_id":"740502","name":"Landabaro","postal_code":"93875"},{"id":"7405022012","district_id":"740502","name":"Puungoni","postal_code":"93875"},{"id":"7405022013","district_id":"740502","name":"Sandarsi Jaya","postal_code":"93875"},{"id":"7405022014","district_id":"740502","name":"Puuroe","postal_code":"93875"},{"id":"7405022015","district_id":"740502","name":"Lamoeri","postal_code":"93875"},{"id":"7405022016","district_id":"740502","name":"Kasebo","postal_code":"93875"},{"id":"7405022017","district_id":"740502","name":"Mataiwoi","postal_code":"93875"},{"id":"7405022018","district_id":"740502","name":"Angata","postal_code":"93875"},{"id":"7405022019","district_id":"740502","name":"Pudambu","postal_code":"93875"},{"id":"7405022020","district_id":"740502","name":"Matabondu","postal_code":"93875"},{"id":"7405022040","district_id":"740502","name":"Mokoau","postal_code":"93875"},{"id":"7405022041","district_id":"740502","name":"Boloso","postal_code":"93875"},{"id":"7405022042","district_id":"740502","name":"Puulipu","postal_code":"93875"},{"id":"7405022043","district_id":"740502","name":"Langgea Indah","postal_code":"93875"}]