[{"id":"7410052001","district_id":"741005","name":"Kurolabu","postal_code":"93675"},{"id":"7410052002","district_id":"741005","name":"Torombia","postal_code":"93675"},{"id":"7410052003","district_id":"741005","name":"Lamoahi","postal_code":"93675"},{"id":"7410052004","district_id":"741005","name":"Lanosangia","postal_code":"93675"},{"id":"7410052005","district_id":"741005","name":"Pebaoa","postal_code":"93675"},{"id":"7410052006","district_id":"741005","name":"Petetea'a","postal_code":"93675"},{"id":"7410052007","district_id":"741005","name":"Lelamo","postal_code":"93675"},{"id":"7410052008","district_id":"741005","name":"Waode Buri","postal_code":"93675"},{"id":"7410052009","district_id":"741005","name":"Ulunambo","postal_code":"93675"},{"id":"7410052010","district_id":"741005","name":"Bira","postal_code":"93675"},{"id":"7410052011","district_id":"741005","name":"E'erinere","postal_code":"93675"},{"id":"7410052012","district_id":"741005","name":"Labelete","postal_code":"93675"},{"id":"7410052013","district_id":"741005","name":"Wamboule","postal_code":"93675"},{"id":"7410052014","district_id":"741005","name":"Wowonga Jaya","postal_code":"93675"}]