[{"id":"7410061007","district_id":"741006","name":"Labuan","postal_code":"93671"},{"id":"7410061008","district_id":"741006","name":"Labuan Wolio","postal_code":"93671"},{"id":"7410062001","district_id":"741006","name":"Lasiwa","postal_code":"93671"},{"id":"7410062002","district_id":"741006","name":"Laeya","postal_code":"93671"},{"id":"7410062003","district_id":"741006","name":"Matalagi","postal_code":"93671"},{"id":"7410062004","district_id":"741006","name":"Wantulasi","postal_code":"93671"},{"id":"7410062005","district_id":"741006","name":"Labuan Bajo","postal_code":"93671"},{"id":"7410062006","district_id":"741006","name":"Labaraga","postal_code":"93671"},{"id":"7410062009","district_id":"741006","name":"Wamorapa","postal_code":"93671"},{"id":"7410062010","district_id":"741006","name":"Sumampeno","postal_code":"93671"},{"id":"7410062011","district_id":"741006","name":"Oengkapala","postal_code":"93671"},{"id":"7410062012","district_id":"741006","name":"Labuko","postal_code":"93671"},{"id":"7410062013","district_id":"741006","name":"Laba Jaya","postal_code":"93671"}]