[{"id":"7410042001","district_id":"741004","name":"Kotawo","postal_code":"93670"},{"id":"7410042002","district_id":"741004","name":"Karya Bhakti","postal_code":"93670"},{"id":"7410042003","district_id":"741004","name":"Marga Karya","postal_code":"93670"},{"id":"7410042004","district_id":"741004","name":"Kasulatombi","postal_code":"93670"},{"id":"7410042005","district_id":"741004","name":"Dampala Jaya","postal_code":"93670"},{"id":"7410042006","district_id":"741004","name":"Rahmat Baru","postal_code":"93670"},{"id":"7410042007","district_id":"741004","name":"Soloy Agung","postal_code":"93670"},{"id":"7410042008","district_id":"741004","name":"Bumi Lapero","postal_code":"93670"},{"id":"7410042009","district_id":"741004","name":"Karya Mulya","postal_code":"93670"},{"id":"7410042010","district_id":"741004","name":"Lambale","postal_code":"93670"},{"id":"7410042011","district_id":"741004","name":"Lapandewa","postal_code":"93670"},{"id":"7410042012","district_id":"741004","name":"Lauki","postal_code":"93670"},{"id":"7410042013","district_id":"741004","name":"Mekar Jaya","postal_code":"93670"},{"id":"7410042014","district_id":"741004","name":"Labulanda","postal_code":"93670"}]