[{"id":"7410031006","district_id":"741003","name":"Buranga","postal_code":"93673"},{"id":"7410031010","district_id":"741003","name":"Bonegunu","postal_code":"93673"},{"id":"7410032001","district_id":"741003","name":"Gunung Sari","postal_code":"93673"},{"id":"7410032002","district_id":"741003","name":"Ronta","postal_code":"93673"},{"id":"7410032003","district_id":"741003","name":"Waode Angkalo","postal_code":"93673"},{"id":"7410032004","district_id":"741003","name":"Langere","postal_code":"93673"},{"id":"7410032005","district_id":"741003","name":"Koepisino","postal_code":"93673"},{"id":"7410032007","district_id":"741003","name":"Waode Kalowo","postal_code":"93673"},{"id":"7410032008","district_id":"741003","name":"Laano Ipi","postal_code":"93673"},{"id":"7410032009","district_id":"741003","name":"Eensumala","postal_code":"93673"},{"id":"7410032013","district_id":"741003","name":"Tatombuli","postal_code":"93673"},{"id":"7410032014","district_id":"741003","name":"Rante Gola","postal_code":"93673"},{"id":"7410032015","district_id":"741003","name":"Ngapa'ea","postal_code":"93673"},{"id":"7410032016","district_id":"741003","name":"Koboruno","postal_code":"93673"},{"id":"7410032017","district_id":"741003","name":"Damai Laborona","postal_code":"93673"}]