[{"id":"7412011001","district_id":"741201","name":"Langara Laut","postal_code":"93391"},{"id":"7412012002","district_id":"741201","name":"Langara Iwawo","postal_code":"93391"},{"id":"7412012003","district_id":"741201","name":"Wawolaa","postal_code":"93391"},{"id":"7412012004","district_id":"741201","name":"Langara Indah","postal_code":"93391"},{"id":"7412012005","district_id":"741201","name":"Lamoluo","postal_code":"93391"},{"id":"7412012006","district_id":"741201","name":"Bukit Permai","postal_code":"93391"},{"id":"7412012007","district_id":"741201","name":"Wawobili","postal_code":"93391"},{"id":"7412012008","district_id":"741201","name":"Langaro Bajo","postal_code":"93391"},{"id":"7412012009","district_id":"741201","name":"Mata Langara","postal_code":"93391"},{"id":"7412012010","district_id":"741201","name":"Mata Baho","postal_code":"93391"},{"id":"7412012011","district_id":"741201","name":"Lanowatu","postal_code":"93391"},{"id":"7412012012","district_id":"741201","name":"Lantula","postal_code":"93391"},{"id":"7412012013","district_id":"741201","name":"Pasir Putih","postal_code":"93391"},{"id":"7412012014","district_id":"741201","name":"langkowala","postal_code":"93391"},{"id":"7412012015","district_id":"741201","name":"Kawa-Kawali","postal_code":"93391"},{"id":"7412012016","district_id":"741201","name":"Langara Tanjung Batu","postal_code":"93391"}]