[{"id":"7415021003","district_id":"741502","name":"Katilombu","postal_code":"93747"},{"id":"7415021004","district_id":"741502","name":"Jaya Bakti","postal_code":"93747"},{"id":"7415021005","district_id":"741502","name":"Todombulu","postal_code":"93747"},{"id":"7415022001","district_id":"741502","name":"Bangun","postal_code":"93747"},{"id":"7415022002","district_id":"741502","name":"Wawoangi","postal_code":"93747"},{"id":"7415022006","district_id":"741502","name":"Gunung Sejuk","postal_code":"93747"},{"id":"7415022007","district_id":"741502","name":"Sandang Pangan","postal_code":"93747"},{"id":"7415022008","district_id":"741502","name":"Hendea","postal_code":"93747"},{"id":"7415022009","district_id":"741502","name":"Tira","postal_code":"93747"},{"id":"7415022010","district_id":"741502","name":"Bahari","postal_code":"93747"},{"id":"7415022011","district_id":"741502","name":"Gerak Makmur","postal_code":"93747"},{"id":"7415022012","district_id":"741502","name":"Lipu Mangau","postal_code":"93747"},{"id":"7415022013","district_id":"741502","name":"Bahari 2 ","postal_code":"93747"},{"id":"7415022014","district_id":"741502","name":"Bahari 3 ","postal_code":"93747"},{"id":"7415022015","district_id":"741502","name":"Windu Makmur","postal_code":"93747"},{"id":"7415022016","district_id":"741502","name":"Watiginanda","postal_code":"93747"}]