[{"id":"8102132001","district_id":"810213","name":"Wain","postal_code":"97625"},{"id":"8102132002","district_id":"810213","name":"Rewav","postal_code":"97625"},{"id":"8102132003","district_id":"810213","name":"Rumaat","postal_code":"97625"},{"id":"8102132004","district_id":"810213","name":"Rat","postal_code":"97625"},{"id":"8102132005","district_id":"810213","name":"Abean","postal_code":"97625"},{"id":"8102132006","district_id":"810213","name":"Mastur","postal_code":"97625"},{"id":"8102132013","district_id":"810213","name":"Ohoinol","postal_code":"97625"},{"id":"8102132014","district_id":"810213","name":"Semawi","postal_code":"97625"},{"id":"8102132015","district_id":"810213","name":"Iso","postal_code":"97625"},{"id":"8102132016","district_id":"810213","name":"Disuk","postal_code":"97625"},{"id":"8102132017","district_id":"810213","name":"Wain Baru","postal_code":"97625"},{"id":"8102132018","district_id":"810213","name":"Marfun","postal_code":"97625"},{"id":"8102132019","district_id":"810213","name":"Watngon","postal_code":"97625"},{"id":"8102132020","district_id":"810213","name":"Yafavun","postal_code":"97625"},{"id":"8102132021","district_id":"810213","name":"Mastur Baru","postal_code":"97625"},{"id":"8102132022","district_id":"810213","name":"Ohoilus","postal_code":"97625"},{"id":"8102132023","district_id":"810213","name":"Tenbuk","postal_code":"97625"},{"id":"8102132024","district_id":"810213","name":"Denwet","postal_code":"97625"}]