[{"id":"8105022001","district_id":"810502","name":"Geser","postal_code":"97592"},{"id":"8105022002","district_id":"810502","name":"Kiltay","postal_code":"97592"},{"id":"8105022003","district_id":"810502","name":"Kilwaru","postal_code":"97592"},{"id":"8105022004","district_id":"810502","name":"Kellu","postal_code":"97592"},{"id":"8105022005","district_id":"810502","name":"Keffing","postal_code":"97592"},{"id":"8105022006","district_id":"810502","name":"Urung","postal_code":"97592"},{"id":"8105022028","district_id":"810502","name":"Kilfura","postal_code":"97592"},{"id":"8105022046","district_id":"810502","name":"Kwawor Kecil Mata Ata","postal_code":"97592"},{"id":"8105022047","district_id":"810502","name":"Kwawor Kecil Mata Wawa","postal_code":"97592"},{"id":"8105022048","district_id":"810502","name":"Kwawor Besar Ena","postal_code":"97592"},{"id":"8105022049","district_id":"810502","name":"Kwawor Besar Witau","postal_code":"97592"},{"id":"8105022050","district_id":"810502","name":"Guli-Guli","postal_code":"97592"},{"id":"8105022051","district_id":"810502","name":"Manggis","postal_code":"97592"},{"id":"8105022052","district_id":"810502","name":"Ainena","postal_code":"97592"},{"id":"8105022053","district_id":"810502","name":"Mugusinis","postal_code":"97592"},{"id":"8105022054","district_id":"810502","name":"Akatfadedo","postal_code":"97592"}]