[{"id":"8107011012","district_id":"810701","name":"Galai Dubu","postal_code":"97662"},{"id":"8107011013","district_id":"810701","name":"Siwa Lima ","postal_code":"97662"},{"id":"8107012001","district_id":"810701","name":"Ujir","postal_code":"97662"},{"id":"8107012002","district_id":"810701","name":"Nafar ","postal_code":"97662"},{"id":"8107012003","district_id":"810701","name":"Kobraur","postal_code":"97662"},{"id":"8107012004","district_id":"810701","name":"Lau-Lau","postal_code":"97662"},{"id":"8107012005","district_id":"810701","name":"Gorar","postal_code":"97662"},{"id":"8107012006","district_id":"810701","name":"Tungu","postal_code":"97662"},{"id":"8107012007","district_id":"810701","name":"Tunguwatu","postal_code":"97662"},{"id":"8107012008","district_id":"810701","name":"Jabulenga","postal_code":"97662"},{"id":"8107012009","district_id":"810701","name":"Wokam","postal_code":"97662"},{"id":"8107012010","district_id":"810701","name":"Karangguli","postal_code":"97662"},{"id":"8107012011","district_id":"810701","name":"Durjela","postal_code":"97662"},{"id":"8107012014","district_id":"810701","name":"Wangel","postal_code":"97662"},{"id":"8107012015","district_id":"810701","name":"Samang","postal_code":"97662"}]