[{"id":"8107032001","district_id":"810703","name":"Benjina","postal_code":"97661"},{"id":"8107032003","district_id":"810703","name":"Gardakau","postal_code":"97661"},{"id":"8107032004","district_id":"810703","name":"Irloy","postal_code":"97661"},{"id":"8107032005","district_id":"810703","name":"Algadang","postal_code":"97661"},{"id":"8107032006","district_id":"810703","name":"Lorang","postal_code":"97661"},{"id":"8107032007","district_id":"810703","name":"Murai","postal_code":"97661"},{"id":"8107032008","district_id":"810703","name":"Manjau","postal_code":"97661"},{"id":"8107032009","district_id":"810703","name":"Kwarbola","postal_code":"97661"},{"id":"8107032028","district_id":"810703","name":"Kobadangar","postal_code":"97661"},{"id":"8107032029","district_id":"810703","name":"Kobasel Fara","postal_code":"97661"},{"id":"8107032030","district_id":"810703","name":"Kobasel Timur","postal_code":"97661"},{"id":"8107032031","district_id":"810703","name":"Fatlabata","postal_code":"97661"},{"id":"8107032033","district_id":"810703","name":"Wakua","postal_code":"97661"},{"id":"8107032034","district_id":"810703","name":"Jirlay","postal_code":"97661"},{"id":"8107032035","district_id":"810703","name":"Maririmar","postal_code":"97661"},{"id":"8107032036","district_id":"810703","name":"Papakula","postal_code":"97661"},{"id":"8107032037","district_id":"810703","name":"Tanah Miring","postal_code":"97661"},{"id":"8107032038","district_id":"810703","name":"Gulili","postal_code":"97661"},{"id":"8107032039","district_id":"810703","name":"Namara","postal_code":"97661"},{"id":"8107032040","district_id":"810703","name":"Selilau","postal_code":"97661"},{"id":"8107032043","district_id":"810703","name":"Maijuring","postal_code":"97661"},{"id":"8107032045","district_id":"810703","name":"Selibata-Bata","postal_code":"97661"}]