[{"id":"8204012001","district_id":"820401","name":"Rabutdaiyo","postal_code":"97785"},{"id":"8204012002","district_id":"820401","name":"Waykion","postal_code":"97785"},{"id":"8204012003","district_id":"820401","name":"Gorup","postal_code":"97785"},{"id":"8204012004","district_id":"820401","name":"Walo","postal_code":"97785"},{"id":"8204012005","district_id":"820401","name":"Dalam","postal_code":"97785"},{"id":"8204012006","district_id":"820401","name":"Gitang","postal_code":"97785"},{"id":"8204012007","district_id":"820401","name":"Kyowor","postal_code":"97785"},{"id":"8204012008","district_id":"820401","name":"Matentengin","postal_code":"97785"},{"id":"8204012009","district_id":"820401","name":"Sangapati","postal_code":"97785"},{"id":"8204012010","district_id":"820401","name":"Suma","postal_code":"97785"},{"id":"8204012011","district_id":"820401","name":"Ploili","postal_code":"97785"},{"id":"8204012012","district_id":"820401","name":"Dauri","postal_code":"97785"},{"id":"8204012013","district_id":"820401","name":"Gurua","postal_code":"97785"},{"id":"8204012014","district_id":"820401","name":"Wailoa","postal_code":"97785"},{"id":"8204012022","district_id":"820401","name":"Waigitang","postal_code":"97785"}]