[{"id":"9105011004","district_id":"910501","name":"Tarau","postal_code":"98613"},{"id":"9105011005","district_id":"910501","name":"Serui Kota","postal_code":"98616"},{"id":"9105011006","district_id":"910501","name":"Serui Jaya","postal_code":"98612"},{"id":"9105012014","district_id":"910501","name":"Serui Laut","postal_code":"98627"},{"id":"9105012015","district_id":"910501","name":"Banawa","postal_code":"98621"},{"id":"9105012017","district_id":"910501","name":"Turu","postal_code":"98617"},{"id":"9105012019","district_id":"910501","name":"Pasir Hitam","postal_code":"98625"},{"id":"9105012020","district_id":"910501","name":"Pasir Putih","postal_code":"98626"},{"id":"9105012023","district_id":"910501","name":"Manaini","postal_code":"98615"},{"id":"9105012024","district_id":"910501","name":"Imandoa","postal_code":"98614"},{"id":"9105012026","district_id":"910501","name":"Barawaikap","postal_code":"98622"},{"id":"9105012027","district_id":"910501","name":"Bawai","postal_code":"98623"},{"id":"9105012028","district_id":"910501","name":"Nundawipi","postal_code":"98624"}]