[{"id":"9106092003","district_id":"910609","name":"Marur","postal_code":"98553"},{"id":"9106092004","district_id":"910609","name":"Diano","postal_code":"98553"},{"id":"9106092005","district_id":"910609","name":"Sawai ","postal_code":"98553"},{"id":"9106092006","district_id":"910609","name":"Aman","postal_code":"98553"},{"id":"9106092007","district_id":"910609","name":"Yeruboi ","postal_code":"98553"},{"id":"9106092008","district_id":"910609","name":"Amoi ","postal_code":"98553"},{"id":"9106092009","district_id":"910609","name":"Inswambesi ","postal_code":"98553"},{"id":"9106092010","district_id":"910609","name":"Koyomi","postal_code":"98553"},{"id":"9106092011","district_id":"910609","name":"Wasani","postal_code":"98553"},{"id":"9106092017","district_id":"910609","name":"Karuiberik","postal_code":"98553"},{"id":"9106092018","district_id":"910609","name":"Komboi ","postal_code":"98553"},{"id":"9106092020","district_id":"910609","name":"Inswambesi Sup ","postal_code":"98553"},{"id":"9106092021","district_id":"910609","name":"Inyobi","postal_code":"98553"},{"id":"9106092023","district_id":"910609","name":"Maniri","postal_code":"98553"},{"id":"9106092024","district_id":"910609","name":"Imbari","postal_code":"98553"},{"id":"9106092025","district_id":"910609","name":"Manbeori","postal_code":"98553"},{"id":"9106092026","district_id":"910609","name":"Warawaf","postal_code":"98553"},{"id":"9106092027","district_id":"910609","name":"Wir Insos","postal_code":"98553"},{"id":"9106092028","district_id":"910609","name":"Biawer","postal_code":"98553"},{"id":"9106092029","district_id":"910609","name":"Mamfias","postal_code":"98553"}]