[{"id":"9201011001","district_id":"920101","name":"Makbon","postal_code":"98452"},{"id":"9201012002","district_id":"920101","name":"Asbaken","postal_code":"98452"},{"id":"9201012004","district_id":"920101","name":"Malaumkarta","postal_code":"98452"},{"id":"9201012005","district_id":"920101","name":"Batu Lubang","postal_code":"98452"},{"id":"9201012007","district_id":"920101","name":"Batu Lubang Pantai","postal_code":"98452"},{"id":"9201012008","district_id":"920101","name":"Kwadas","postal_code":"98452"},{"id":"9201012009","district_id":"920101","name":"Bainkete","postal_code":"98452"},{"id":"9201012010","district_id":"920101","name":"Teluk Dore","postal_code":"98452"},{"id":"9201012011","district_id":"920101","name":"Sawatuk","postal_code":"98452"},{"id":"9201012012","district_id":"920101","name":"Malagasih","postal_code":"98452"},{"id":"9201012013","district_id":"920101","name":"Klasimigik","postal_code":"98452"},{"id":"9201012014","district_id":"920101","name":"Klasigi","postal_code":"98452"},{"id":"9201012015","district_id":"920101","name":"Klagulus","postal_code":"98452"},{"id":"9201012016","district_id":"920101","name":"Suatolo","postal_code":"98452"},{"id":"9201012017","district_id":"920101","name":"Mibi","postal_code":"98452"}]