[{"id":"9201042001","district_id":"920104","name":"Klabra","postal_code":"98432"},{"id":"9201042002","district_id":"920104","name":"Wanurian","postal_code":"98432"},{"id":"9201042009","district_id":"920104","name":"Klarion","postal_code":"98432"},{"id":"9201042011","district_id":"920104","name":"Kaas","postal_code":"98432"},{"id":"9201042015","district_id":"920104","name":"Wensi","postal_code":"98432"},{"id":"9201042016","district_id":"920104","name":"Mumpi","postal_code":"98432"},{"id":"9201042019","district_id":"920104","name":"Klamak","postal_code":"98432"},{"id":"9201042020","district_id":"920104","name":"Serselion","postal_code":"98432"},{"id":"9201042022","district_id":"920104","name":"Kmafo","postal_code":"98432"},{"id":"9201042027","district_id":"920104","name":"Midlal","postal_code":"98432"},{"id":"9201042028","district_id":"920104","name":"Sorain","postal_code":"98432"},{"id":"9201042033","district_id":"920104","name":"Armoin","postal_code":"98432"},{"id":"9201042034","district_id":"920104","name":"Serselion Baru","postal_code":"98432"}]