[{"id":"9202151001","district_id":"920215","name":"Sowi","postal_code":"98313"},{"id":"9202151002","district_id":"920215","name":"Anday","postal_code":"98313"},{"id":"9202152003","district_id":"920215","name":"Katebu","postal_code":"98313"},{"id":"9202152004","district_id":"920215","name":"Masyepi","postal_code":"98313"},{"id":"9202152005","district_id":"920215","name":"Warmomi","postal_code":"98313"},{"id":"9202152006","district_id":"920215","name":"Dihara","postal_code":"98313"},{"id":"9202152007","district_id":"920215","name":"Waluri","postal_code":"98313"},{"id":"9202152008","district_id":"920215","name":"Maruni","postal_code":"98313"},{"id":"9202152009","district_id":"920215","name":"Misapmeysi","postal_code":"98313"},{"id":"9202152010","district_id":"920215","name":"Wasai","postal_code":"98313"},{"id":"9202152011","district_id":"920215","name":"Anggresi","postal_code":"98313"},{"id":"9202152012","district_id":"920215","name":"Mupi","postal_code":"98313"},{"id":"9202152013","district_id":"920215","name":"Warswami","postal_code":"98313"},{"id":"9202152014","district_id":"920215","name":"Acemo","postal_code":"98313"},{"id":"9202152015","district_id":"920215","name":"Wamesa","postal_code":"98313"},{"id":"9202152016","district_id":"920215","name":"Dobut","postal_code":"98313"},{"id":"9202152017","district_id":"920215","name":"Warkomi","postal_code":"98313"},{"id":"9202152018","district_id":"920215","name":"Ngunimbouw","postal_code":"98313"}]