[{"id":"9202032001","district_id":"920203","name":"Dindey","postal_code":"98317"},{"id":"9202032002","district_id":"920203","name":"Indisey","postal_code":"98317"},{"id":"9202032003","district_id":"920203","name":"Hingk","postal_code":"98317"},{"id":"9202032004","district_id":"920203","name":"Warmare","postal_code":"98317"},{"id":"9202032005","district_id":"920203","name":"Nimbay","postal_code":"98317"},{"id":"9202032006","district_id":"920203","name":"Meny","postal_code":"98317"},{"id":"9202032007","district_id":"920203","name":"Tanah Merah","postal_code":"98317"},{"id":"9202032008","district_id":"920203","name":"Umcen ","postal_code":"98317"},{"id":"9202032009","district_id":"920203","name":"Subsay","postal_code":"98317"},{"id":"9202032010","district_id":"920203","name":"Madrat","postal_code":"98317"},{"id":"9202032011","district_id":"920203","name":"Snaimboy","postal_code":"98317"},{"id":"9202032012","district_id":"920203","name":"Guentuy","postal_code":"98317"},{"id":"9202032013","district_id":"920203","name":"Ngungguen","postal_code":"98317"},{"id":"9202032014","district_id":"920203","name":"Sotea","postal_code":"98317"},{"id":"9202032015","district_id":"920203","name":"Duwin","postal_code":"98317"},{"id":"9202032016","district_id":"920203","name":"Ibuwau","postal_code":"98317"},{"id":"9202032017","district_id":"920203","name":"Iboisrati","postal_code":"98317"},{"id":"9202032018","district_id":"920203","name":"Sraindabey","postal_code":"98317"},{"id":"9202032019","district_id":"920203","name":"Mokwam","postal_code":"98317"},{"id":"9202032020","district_id":"920203","name":"Amber","postal_code":"98317"},{"id":"9202032021","district_id":"920203","name":"Kwau","postal_code":"98317"},{"id":"9202032022","district_id":"920203","name":"Syou ","postal_code":"98317"},{"id":"9202032023","district_id":"920203","name":"Indonbey ","postal_code":"98317"},{"id":"9202032024","district_id":"920203","name":"Mingre","postal_code":"98317"},{"id":"9202032025","district_id":"920203","name":"Aiwou ","postal_code":"98317"},{"id":"9202032026","district_id":"920203","name":"Asarbey ","postal_code":"98317"},{"id":"9202032027","district_id":"920203","name":"Minoqbei ","postal_code":"98317"},{"id":"9202032028","district_id":"920203","name":"Bahamyenti","postal_code":"98317"},{"id":"9202032029","district_id":"920203","name":"Figoud","postal_code":"98317"},{"id":"9202032030","district_id":"920203","name":"Kipuwau ","postal_code":"98317"},{"id":"9202032031","district_id":"920203","name":"Duweibey ","postal_code":"98317"}]