[{"id":"9203092001","district_id":"920309","name":"Puar","postal_code":"98024"},{"id":"9203092002","district_id":"920309","name":"Degen","postal_code":"98024"},{"id":"9203092003","district_id":"920309","name":"Tetar","postal_code":"98024"},{"id":"9203092005","district_id":"920309","name":"Sum","postal_code":"98024"},{"id":"9203092011","district_id":"920309","name":"Adora","postal_code":"98024"},{"id":"9203092012","district_id":"920309","name":"Us","postal_code":"98024"},{"id":"9203092014","district_id":"920309","name":"Patipi Pasir","postal_code":"98024"},{"id":"9203092015","district_id":"920309","name":"Patipi Pulau","postal_code":"98024"},{"id":"9203092017","district_id":"920309","name":"Mawar","postal_code":"98024"},{"id":"9203092018","district_id":"920309","name":"Tibatibananam","postal_code":"98024"},{"id":"9203092020","district_id":"920309","name":"Offie","postal_code":"98024"},{"id":"9203092021","district_id":"920309","name":"Muhri","postal_code":"98024"},{"id":"9203092022","district_id":"920309","name":"Bisa","postal_code":"98024"}]