[{"id":"9208011001","district_id":"920801","name":"Kaimana Kota","postal_code":"98113"},{"id":"9208011014","district_id":"920801","name":"Krooy","postal_code":"98113"},{"id":"9208012002","district_id":"920801","name":"Marsi","postal_code":"98113"},{"id":"9208012003","district_id":"920801","name":"Namatota","postal_code":"98113"},{"id":"9208012004","district_id":"920801","name":"Lobo","postal_code":"98113"},{"id":"9208012005","district_id":"920801","name":"Trikora","postal_code":"98113"},{"id":"9208012006","district_id":"920801","name":"Tanggaromi","postal_code":"98113"},{"id":"9208012007","district_id":"920801","name":"Sisir","postal_code":"98113"},{"id":"9208012008","district_id":"920801","name":"Foroma Jaya","postal_code":"98113"},{"id":"9208012009","district_id":"920801","name":"Murano","postal_code":"98113"},{"id":"9208012010","district_id":"920801","name":"Mai Mai","postal_code":"98113"},{"id":"9208012011","district_id":"920801","name":"Lumira","postal_code":"98113"},{"id":"9208012012","district_id":"920801","name":"Kamaka","postal_code":"98113"},{"id":"9208012013","district_id":"920801","name":"Coa","postal_code":"98113"},{"id":"9208012015","district_id":"920801","name":"Saria","postal_code":"98113"},{"id":"9208012016","district_id":"920801","name":"Jarati","postal_code":"98113"},{"id":"9208012017","district_id":"920801","name":"Sara","postal_code":"98113"},{"id":"9208012018","district_id":"920801","name":"Werua","postal_code":"98113"},{"id":"9208012019","district_id":"920801","name":"Oray","postal_code":"98113"}]