[{"id":"9211022001","district_id":"921102","name":"Oransbari","postal_code":"98321"},{"id":"9211022002","district_id":"921102","name":"Sidomulyo","postal_code":"98321"},{"id":"9211022003","district_id":"921102","name":"Waroser","postal_code":"98321"},{"id":"9211022004","district_id":"921102","name":"Margo Rukun","postal_code":"98321"},{"id":"9211022005","district_id":"921102","name":"Muari","postal_code":"98321"},{"id":"9211022006","district_id":"921102","name":"Watariri","postal_code":"98321"},{"id":"9211022007","district_id":"921102","name":"Masabui","postal_code":"98321"},{"id":"9211022008","district_id":"921102","name":"Warbiadi","postal_code":"98321"},{"id":"9211022009","district_id":"921102","name":"Margomulyo","postal_code":"98321"},{"id":"9211022010","district_id":"921102","name":"Warkwandi","postal_code":"98321"},{"id":"9211022011","district_id":"921102","name":"Sindang Jaya","postal_code":"98321"},{"id":"9211022012","district_id":"921102","name":"Wandoki","postal_code":"98321"},{"id":"9211022013","district_id":"921102","name":"Akeju","postal_code":"98321"},{"id":"9211022014","district_id":"921102","name":"Masabui II","postal_code":"98321"}]