[{"id":"9301112001","district_id":"930111","name":"Harapan Makmur","postal_code":"99646"},{"id":"9301112002","district_id":"930111","name":"Kurik","postal_code":"99646"},{"id":"9301112003","district_id":"930111","name":"Telaga Sari","postal_code":"99646"},{"id":"9301112004","district_id":"930111","name":"Sumber Rejeki","postal_code":"99646"},{"id":"9301112005","district_id":"930111","name":"Jaya Makmur","postal_code":"99646"},{"id":"9301112006","district_id":"930111","name":"Sumber Mulya","postal_code":"99646"},{"id":"9301112007","district_id":"930111","name":"Kaliki","postal_code":"99646"},{"id":"9301112008","district_id":"930111","name":"Ivimahad","postal_code":"99646"},{"id":"9301112009","district_id":"930111","name":"Salor Indah","postal_code":"99646"},{"id":"9301112010","district_id":"930111","name":"Candra Jaya","postal_code":"99646"},{"id":"9301112011","district_id":"930111","name":"Wonorejo","postal_code":"99646"},{"id":"9301112012","district_id":"930111","name":"Anum Bob","postal_code":"99646"},{"id":"9301112013","district_id":"930111","name":"Wapeko","postal_code":"99646"}]