[{"id":"9301062001","district_id":"930106","name":"Yasa Mulya","postal_code":"99632"},{"id":"9301062002","district_id":"930106","name":"Sumber Harapan","postal_code":"99632"},{"id":"9301062003","district_id":"930106","name":"Waninggap Say","postal_code":"99632"},{"id":"9301062004","district_id":"930106","name":"Amun Kay","postal_code":"99632"},{"id":"9301062005","district_id":"930106","name":"Hidup Baru","postal_code":"99632"},{"id":"9301062006","district_id":"930106","name":"Sarmayam Indah","postal_code":"99632"},{"id":"9301062007","district_id":"930106","name":"Ngguti Bob","postal_code":"99632"},{"id":"9301062008","district_id":"930106","name":"Waninggap Miraf","postal_code":"99632"},{"id":"9301062009","district_id":"930106","name":"Isano Mbias ","postal_code":"99632"},{"id":"9301062010","district_id":"930106","name":"Yaba Maru ","postal_code":"99632"},{"id":"9301062011","district_id":"930106","name":"Soa","postal_code":"99632"},{"id":"9301062012","district_id":"930106","name":"Tambat","postal_code":"99632"},{"id":"9301062013","district_id":"930106","name":"Bersehati","postal_code":"99632"},{"id":"9301062014","district_id":"930106","name":"Kamangi","postal_code":"99632"}]