[{"id":"9402062031","district_id":"940206","name":"Mepar","postal_code":"98933"},{"id":"9402062034","district_id":"940206","name":"Anebalui","postal_code":"98933"},{"id":"9402062035","district_id":"940206","name":"Pagolome","postal_code":"98933"},{"id":"9402062036","district_id":"940206","name":"Tombok","postal_code":"98933"},{"id":"9402062037","district_id":"940206","name":"Kering","postal_code":"98933"},{"id":"9402062039","district_id":"940206","name":"Meyongga","postal_code":"98933"},{"id":"9402062041","district_id":"940206","name":"Oum","postal_code":"98933"},{"id":"9402062042","district_id":"940206","name":"Nume","postal_code":"98933"},{"id":"9402062043","district_id":"940206","name":"Yawor","postal_code":"98933"},{"id":"9402062045","district_id":"940206","name":"Wurina","postal_code":"98933"},{"id":"9402062046","district_id":"940206","name":"Woraluk","postal_code":"98933"},{"id":"9402062047","district_id":"940206","name":"Onendu","postal_code":"98933"},{"id":"9402062048","district_id":"940206","name":"Akwibaga","postal_code":"98933"}]