[{"id":"9403072001","district_id":"940307","name":"Todia ","postal_code":"98724"},{"id":"9403072002","district_id":"940307","name":"Dadou","postal_code":"98724"},{"id":"9403072003","district_id":"940307","name":"Bua","postal_code":"98724"},{"id":"9403072004","district_id":"940307","name":"Kepi","postal_code":"98724"},{"id":"9403072005","district_id":"940307","name":"Wageme","postal_code":"98724"},{"id":"9403072006","district_id":"940307","name":"Bugubutu","postal_code":"98724"},{"id":"9403072007","district_id":"940307","name":"Dogomouto","postal_code":"98724"},{"id":"9403072008","district_id":"940307","name":"Giwo","postal_code":"98724"},{"id":"9403072009","district_id":"940307","name":"Nomokepota","postal_code":"98724"},{"id":"9403072010","district_id":"940307","name":"Eguai","postal_code":"98724"},{"id":"9403072011","district_id":"940307","name":"Degatadi","postal_code":"98724"},{"id":"9403072012","district_id":"940307","name":"Uwoyupi","postal_code":"98724"},{"id":"9403072013","district_id":"940307","name":"Wegekebo","postal_code":"98724"},{"id":"9403072014","district_id":"940307","name":"Yinotadi","postal_code":"98724"}]