[{"id":"9406072001","district_id":"940607","name":"Puweta\/Pueta I","postal_code":"98883"},{"id":"9406072002","district_id":"940607","name":"Pouwouda ","postal_code":"98883"},{"id":"9406072003","district_id":"940607","name":"Puweta\/Pueta II","postal_code":"98883"},{"id":"9406072004","district_id":"940607","name":"Botumuma ","postal_code":"98883"},{"id":"9406072005","district_id":"940607","name":"Obaibega","postal_code":"98883"},{"id":"9406072006","district_id":"940607","name":"Digikebo","postal_code":"98883"},{"id":"9406072007","district_id":"940607","name":"Bogiyoteugi","postal_code":"98883"},{"id":"9406072008","district_id":"940607","name":"Matadi","postal_code":"98883"},{"id":"9406072009","district_id":"940607","name":"Tuwaida","postal_code":"98883"},{"id":"9406072010","district_id":"940607","name":"Yepo ","postal_code":"98883"},{"id":"9406072011","district_id":"940607","name":"Ugikagouda","postal_code":"98883"},{"id":"9406072012","district_id":"940607","name":"Ugikebo","postal_code":"98883"}]