[{"id":"9503232001","district_id":"950323","name":"Ubahak","postal_code":"99763"},{"id":"9503232002","district_id":"950323","name":"Saruk","postal_code":"99763"},{"id":"9503232003","district_id":"950323","name":"Pini","postal_code":"99763"},{"id":"9503232004","district_id":"950323","name":"Sosomikma","postal_code":"99763"},{"id":"9503232005","district_id":"950323","name":"Suhuntek","postal_code":"99763"},{"id":"9503232006","district_id":"950323","name":"Keleng","postal_code":"99763"},{"id":"9503232007","district_id":"950323","name":"Silong","postal_code":"99763"},{"id":"9503232008","district_id":"950323","name":"Nurap","postal_code":"99763"},{"id":"9503232009","district_id":"950323","name":"Wamuhuk","postal_code":"99763"},{"id":"9503232010","district_id":"950323","name":"Welile","postal_code":"99763"},{"id":"9503232011","district_id":"950323","name":"Mabien","postal_code":"99763"},{"id":"9503232012","district_id":"950323","name":"Kibianggen","postal_code":"99763"},{"id":"9503232013","district_id":"950323","name":"Koluang","postal_code":"99763"},{"id":"9503232014","district_id":"950323","name":"Tolombing","postal_code":"99763"},{"id":"9503232015","district_id":"950323","name":"Furuluk","postal_code":"99763"},{"id":"9503232016","district_id":"950323","name":"Oblin","postal_code":"99763"},{"id":"9503232017","district_id":"950323","name":"Bisifak","postal_code":"99763"}]