[{"id":"9503152001","district_id":"950315","name":"Kosihun","postal_code":"99706"},{"id":"9503152002","district_id":"950315","name":"Seima","postal_code":"99706"},{"id":"9503152003","district_id":"950315","name":"Userem","postal_code":"99706"},{"id":"9503152004","district_id":"950315","name":"Yuarima","postal_code":"99706"},{"id":"9503152005","district_id":"950315","name":"Ugem","postal_code":"99706"},{"id":"9503152006","district_id":"950315","name":"Wusagasem","postal_code":"99706"},{"id":"9503152007","district_id":"950315","name":"Hunenima","postal_code":"99706"},{"id":"9503152008","district_id":"950315","name":"Itlay Wopi","postal_code":"99706"},{"id":"9503152009","district_id":"950315","name":"Togoluk","postal_code":"99706"},{"id":"9503152010","district_id":"950315","name":"Herawe","postal_code":"99706"},{"id":"9503152011","district_id":"950315","name":"Hendang","postal_code":"99706"},{"id":"9503152012","district_id":"950315","name":"Ilokomo","postal_code":"99706"},{"id":"9503152013","district_id":"950315","name":"Hulesi","postal_code":"99706"},{"id":"9503152014","district_id":"950315","name":"Wanesi","postal_code":"99706"},{"id":"9503152015","district_id":"950315","name":"Panyoke","postal_code":"99706"},{"id":"9503152016","district_id":"950315","name":"Nyikinen","postal_code":"99706"},{"id":"9503152017","district_id":"950315","name":"Wesangma","postal_code":"99706"},{"id":"9503152018","district_id":"950315","name":"Olomising","postal_code":"99706"},{"id":"9503152019","district_id":"950315","name":"Wemasili","postal_code":"99706"},{"id":"9503152020","district_id":"950315","name":"Lugulmu","postal_code":"99706"}]