[{"id":"9503011001","district_id":"950301","name":"Obolma","postal_code":"99705"},{"id":"9503012003","district_id":"950301","name":"Ibiroma","postal_code":"99705"},{"id":"9503012013","district_id":"950301","name":"Hihundes","postal_code":"99705"},{"id":"9503012015","district_id":"950301","name":"Wanem","postal_code":"99705"},{"id":"9503012016","district_id":"950301","name":"Anjelma","postal_code":"99705"},{"id":"9503012038","district_id":"950301","name":"Pusuaga","postal_code":"99705"},{"id":"9503012039","district_id":"950301","name":"Wulik Punua","postal_code":"99705"},{"id":"9503012040","district_id":"950301","name":"Kilise","postal_code":"99705"},{"id":"9503012041","district_id":"950301","name":"Air Garam","postal_code":"99705"},{"id":"9503012042","district_id":"950301","name":"Esalien","postal_code":"99705"},{"id":"9503012043","district_id":"950301","name":"Lukulema","postal_code":"99705"},{"id":"9503012044","district_id":"950301","name":"Tukuarek","postal_code":"99705"},{"id":"9503012045","district_id":"950301","name":"Kima","postal_code":"99705"},{"id":"9503012046","district_id":"950301","name":"Yagarelo","postal_code":"99705"},{"id":"9503012047","district_id":"950301","name":"Soroh","postal_code":"99705"},{"id":"9503012048","district_id":"950301","name":"Eroma","postal_code":"99705"},{"id":"9503012049","district_id":"950301","name":"Lotia","postal_code":"99705"},{"id":"9503012050","district_id":"950301","name":"Wuluagaima","postal_code":"99705"},{"id":"9503012051","district_id":"950301","name":"Huken","postal_code":"99705"},{"id":"9503012052","district_id":"950301","name":"Huguma","postal_code":"99705"},{"id":"9503012053","district_id":"950301","name":"Parela","postal_code":"99705"},{"id":"9503012054","district_id":"950301","name":"Wakunyama","postal_code":"99705"},{"id":"9503012055","district_id":"950301","name":"Hesmat","postal_code":"99705"}]