[{"id":"9504292001","district_id":"950429","name":"Yanora","postal_code":"99062"},{"id":"9504292004","district_id":"950429","name":"Wari\/Taiyeve","postal_code":"99062"},{"id":"9504292005","district_id":"950429","name":"Papedari","postal_code":"99062"},{"id":"9504292006","district_id":"950429","name":"Dotori","postal_code":"99062"},{"id":"9504292007","district_id":"950429","name":"Arebe\/Ninggame","postal_code":"99062"},{"id":"9504292008","district_id":"950429","name":"Kowari","postal_code":"99062"},{"id":"9504292010","district_id":"950429","name":"Wiki","postal_code":"99062"},{"id":"9504292011","district_id":"950429","name":"Kuruku","postal_code":"99062"},{"id":"9504292012","district_id":"950429","name":"Friji","postal_code":"99062"},{"id":"9504292013","district_id":"950429","name":"Dorera","postal_code":"99062"},{"id":"9504292014","district_id":"950429","name":"Dustra\/Yamiriko","postal_code":"99062"},{"id":"9504292015","district_id":"950429","name":"Muna","postal_code":"99062"},{"id":"9504292016","district_id":"950429","name":"Kalibu","postal_code":"99062"},{"id":"9504292017","district_id":"950429","name":"Laniloma","postal_code":"99062"},{"id":"9504292018","district_id":"950429","name":"Wakumendek","postal_code":"99062"},{"id":"9504292021","district_id":"950429","name":"Timoga\/Kabupaga","postal_code":"99062"},{"id":"9504292022","district_id":"950429","name":"Beleise","postal_code":"99062"}]