[{"id":"9506022001","district_id":"950602","name":"Apalapsili","postal_code":"99084"},{"id":"9506022002","district_id":"950602","name":"Hubliki","postal_code":"99084"},{"id":"9506022003","district_id":"950602","name":"Kulet","postal_code":"99084"},{"id":"9506022004","district_id":"950602","name":"Yarema","postal_code":"99084"},{"id":"9506022005","district_id":"950602","name":"Asiligma","postal_code":"99084"},{"id":"9506022006","district_id":"950602","name":"Lambukmu","postal_code":"99084"},{"id":"9506022007","district_id":"950602","name":"Suwewili","postal_code":"99084"},{"id":"9506022008","district_id":"950602","name":"Yohul","postal_code":"99084"},{"id":"9506022009","district_id":"950602","name":"Lilinsaluk","postal_code":"99084"},{"id":"9506022010","district_id":"950602","name":"Natoksili","postal_code":"99084"},{"id":"9506022011","district_id":"950602","name":"Hinanggoambut","postal_code":"99084"},{"id":"9506022012","district_id":"950602","name":"Wiyukwilik","postal_code":"99084"},{"id":"9506022013","district_id":"950602","name":"Fari","postal_code":"99084"},{"id":"9506022014","district_id":"950602","name":"Wasalalo","postal_code":"99084"},{"id":"9506022015","district_id":"950602","name":"Suerlihim","postal_code":"99084"},{"id":"9506022016","district_id":"950602","name":"Orohon","postal_code":"99084"},{"id":"9506022017","district_id":"950602","name":"Habalo","postal_code":"99084"},{"id":"9506022018","district_id":"950602","name":"Sabilikalem","postal_code":"99084"},{"id":"9506022019","district_id":"950602","name":"Wanamalo","postal_code":"99084"},{"id":"9506022020","district_id":"950602","name":"Kundikele","postal_code":"99084"},{"id":"9506022021","district_id":"950602","name":"Kelampurim","postal_code":"99084"},{"id":"9506022022","district_id":"950602","name":"Holukalem","postal_code":"99084"},{"id":"9506022023","district_id":"950602","name":"Yeptek","postal_code":"99084"},{"id":"9506022024","district_id":"950602","name":"Benyam","postal_code":"99084"},{"id":"9506022025","district_id":"950602","name":"Temput","postal_code":"99084"},{"id":"9506022026","district_id":"950602","name":"Sabualo","postal_code":"99084"},{"id":"9506022027","district_id":"950602","name":"Nanahoruk","postal_code":"99084"},{"id":"9506022028","district_id":"950602","name":"Kengkenbun","postal_code":"99084"},{"id":"9506022029","district_id":"950602","name":"Sien","postal_code":"99084"},{"id":"9506022030","district_id":"950602","name":"Kinhe","postal_code":"99084"},{"id":"9506022031","district_id":"950602","name":"Humalem","postal_code":"99084"},{"id":"9506022032","district_id":"950602","name":"Pipisim","postal_code":"99084"},{"id":"9506022033","district_id":"950602","name":"Makrig","postal_code":"99084"},{"id":"9506022035","district_id":"950602","name":"Ilirek","postal_code":"99084"},{"id":"9506022036","district_id":"950602","name":"Filiahik","postal_code":"99084"},{"id":"9506022037","district_id":"950602","name":"Kilat","postal_code":"99084"},{"id":"9506022038","district_id":"950602","name":"Baptekma","postal_code":"99084"},{"id":"9506022039","district_id":"950602","name":"Nohonil","postal_code":"99084"},{"id":"9506022040","district_id":"950602","name":"Asilikma","postal_code":"99084"},{"id":"9506022041","district_id":"950602","name":"Tikano","postal_code":"99084"},{"id":"9506022042","district_id":"950602","name":"Nasinema","postal_code":"99084"},{"id":"9506022043","district_id":"950602","name":"Eal","postal_code":"99084"},{"id":"9506022044","district_id":"950602","name":"Hukalopunu","postal_code":"99084"},{"id":"9506022045","district_id":"950602","name":"Alimuhuk","postal_code":"99084"},{"id":"9506022046","district_id":"950602","name":"Pong","postal_code":"99084"},{"id":"9506022047","district_id":"950602","name":"Molinggi","postal_code":"99084"},{"id":"9506022048","district_id":"950602","name":"Sobikambut","postal_code":"99084"},{"id":"9506022049","district_id":"950602","name":"Wiralesili","postal_code":"99084"},{"id":"9506022050","district_id":"950602","name":"Holuogalma","postal_code":"99084"},{"id":"9506022051","district_id":"950602","name":"Falukwalilo","postal_code":"99084"}]